county_number,county_name,municipality_number,municipality_name,postal_code,city_name
1084,Region Hovedstaden,169,Høje-Taastrup Kommune,800,Høje Taastrup
1084,Region Hovedstaden,101,Københavns Kommune,900,København C
1084,Region Hovedstaden,153,Brøndby Kommune,917,Københavns Pakkecent
1084,Region Hovedstaden,101,Københavns Kommune,960,Udland
1084,Region Hovedstaden,101,Københavns Kommune,999,København C
1084,Region Hovedstaden,101,Københavns Kommune,1000,København K
1084,Region Hovedstaden,101,Københavns Kommune,1050,København K
1084,Region Hovedstaden,101,Københavns Kommune,1051,København K
1084,Region Hovedstaden,101,Københavns Kommune,1052,København K
1084,Region Hovedstaden,101,Københavns Kommune,1053,København K
1084,Region Hovedstaden,101,Københavns Kommune,1054,København K
1084,Region Hovedstaden,101,Københavns Kommune,1055,København K
1084,Region Hovedstaden,101,Københavns Kommune,1056,København K
1084,Region Hovedstaden,101,Københavns Kommune,1057,København K
1084,Region Hovedstaden,101,Københavns Kommune,1058,København K
1084,Region Hovedstaden,101,Københavns Kommune,1059,København K
1084,Region Hovedstaden,101,Københavns Kommune,1060,København K
1084,Region Hovedstaden,101,Københavns Kommune,1061,København K
1084,Region Hovedstaden,101,Københavns Kommune,1062,København K
1084,Region Hovedstaden,101,Københavns Kommune,1063,København K
1084,Region Hovedstaden,101,Københavns Kommune,1064,København K
1084,Region Hovedstaden,101,Københavns Kommune,1065,København K
1084,Region Hovedstaden,101,Københavns Kommune,1066,København K
1084,Region Hovedstaden,101,Københavns Kommune,1067,København K
1084,Region Hovedstaden,101,Københavns Kommune,1068,København K
1084,Region Hovedstaden,101,Københavns Kommune,1069,København K
1084,Region Hovedstaden,101,Københavns Kommune,1070,København K
1084,Region Hovedstaden,101,Københavns Kommune,1071,København K
1084,Region Hovedstaden,101,Københavns Kommune,1072,København K
1084,Region Hovedstaden,101,Københavns Kommune,1073,København K
1084,Region Hovedstaden,101,Københavns Kommune,1074,København K
1084,Region Hovedstaden,101,Københavns Kommune,1092,København K
1084,Region Hovedstaden,101,Københavns Kommune,1093,København K
1084,Region Hovedstaden,101,Københavns Kommune,1095,København K
1084,Region Hovedstaden,101,Københavns Kommune,1098,København K
1084,Region Hovedstaden,101,Københavns Kommune,1100,København K
1084,Region Hovedstaden,101,Københavns Kommune,1101,København K
1084,Region Hovedstaden,101,Københavns Kommune,1102,København K
1084,Region Hovedstaden,101,Københavns Kommune,1103,København K
1084,Region Hovedstaden,101,Københavns Kommune,1104,København K
1084,Region Hovedstaden,101,Københavns Kommune,1105,København K
1084,Region Hovedstaden,101,Københavns Kommune,1106,København K
1084,Region Hovedstaden,101,Københavns Kommune,1107,København K
1084,Region Hovedstaden,101,Københavns Kommune,1110,København K
1084,Region Hovedstaden,101,Københavns Kommune,1111,København K
1084,Region Hovedstaden,101,Københavns Kommune,1112,København K
1084,Region Hovedstaden,101,Københavns Kommune,1113,København K
1084,Region Hovedstaden,101,Københavns Kommune,1114,København K
1084,Region Hovedstaden,101,Københavns Kommune,1115,København K
1084,Region Hovedstaden,101,Københavns Kommune,1116,København K
1084,Region Hovedstaden,101,Københavns Kommune,1117,København K
1084,Region Hovedstaden,101,Københavns Kommune,1118,København K
1084,Region Hovedstaden,101,Københavns Kommune,1119,København K
1084,Region Hovedstaden,101,Københavns Kommune,1120,København K
1084,Region Hovedstaden,101,Københavns Kommune,1121,København K
1084,Region Hovedstaden,101,Københavns Kommune,1122,København K
1084,Region Hovedstaden,101,Københavns Kommune,1123,København K
1084,Region Hovedstaden,101,Københavns Kommune,1124,København K
1084,Region Hovedstaden,101,Københavns Kommune,1125,København K
1084,Region Hovedstaden,101,Københavns Kommune,1126,København K
1084,Region Hovedstaden,101,Københavns Kommune,1127,København K
1084,Region Hovedstaden,101,Københavns Kommune,1128,København K
1084,Region Hovedstaden,101,Københavns Kommune,1129,København K
1084,Region Hovedstaden,101,Københavns Kommune,1130,København K
1084,Region Hovedstaden,101,Københavns Kommune,1131,København K
1084,Region Hovedstaden,101,Københavns Kommune,1140,København K
1084,Region Hovedstaden,101,Københavns Kommune,1147,København K
1084,Region Hovedstaden,101,Københavns Kommune,1148,København K
1084,Region Hovedstaden,101,Københavns Kommune,1150,København K
1084,Region Hovedstaden,101,Københavns Kommune,1151,København K
1084,Region Hovedstaden,101,Københavns Kommune,1152,København K
1084,Region Hovedstaden,101,Københavns Kommune,1153,København K
1084,Region Hovedstaden,101,Københavns Kommune,1154,København K
1084,Region Hovedstaden,101,Københavns Kommune,1155,København K
1084,Region Hovedstaden,101,Københavns Kommune,1156,København K
1084,Region Hovedstaden,101,Københavns Kommune,1157,København K
1084,Region Hovedstaden,101,Københavns Kommune,1158,København K
1084,Region Hovedstaden,101,Københavns Kommune,1159,København K
1084,Region Hovedstaden,101,Københavns Kommune,1160,København K
1084,Region Hovedstaden,101,Københavns Kommune,1161,København K
1084,Region Hovedstaden,101,Københavns Kommune,1162,København K
1084,Region Hovedstaden,101,Københavns Kommune,1164,København K
1084,Region Hovedstaden,101,Københavns Kommune,1165,København K
1084,Region Hovedstaden,101,Københavns Kommune,1166,København K
1084,Region Hovedstaden,101,Københavns Kommune,1167,København K
1084,Region Hovedstaden,101,Københavns Kommune,1168,København K
1084,Region Hovedstaden,101,Københavns Kommune,1169,København K
1084,Region Hovedstaden,101,Københavns Kommune,1170,København K
1084,Region Hovedstaden,101,Københavns Kommune,1171,København K
1084,Region Hovedstaden,101,Københavns Kommune,1172,København K
1084,Region Hovedstaden,101,Københavns Kommune,1173,København K
1084,Region Hovedstaden,101,Københavns Kommune,1174,København K
1084,Region Hovedstaden,101,Københavns Kommune,1175,København K
1084,Region Hovedstaden,101,Københavns Kommune,1200,København K
1084,Region Hovedstaden,101,Københavns Kommune,1201,København K
1084,Region Hovedstaden,101,Københavns Kommune,1202,København K
1084,Region Hovedstaden,101,Københavns Kommune,1203,København K
1084,Region Hovedstaden,101,Københavns Kommune,1204,København K
1084,Region Hovedstaden,101,Københavns Kommune,1205,København K
1084,Region Hovedstaden,101,Københavns Kommune,1206,København K
1084,Region Hovedstaden,101,Københavns Kommune,1207,København K
1084,Region Hovedstaden,101,Københavns Kommune,1208,København K
1084,Region Hovedstaden,101,Københavns Kommune,1209,København K
1084,Region Hovedstaden,101,Københavns Kommune,1210,København K
1084,Region Hovedstaden,101,Københavns Kommune,1211,København K
1084,Region Hovedstaden,101,Københavns Kommune,1213,København K
1084,Region Hovedstaden,101,Københavns Kommune,1214,København K
1084,Region Hovedstaden,101,Københavns Kommune,1215,København K
1084,Region Hovedstaden,101,Københavns Kommune,1216,København K
1084,Region Hovedstaden,101,Københavns Kommune,1217,København K
1084,Region Hovedstaden,101,Københavns Kommune,1218,København K
1084,Region Hovedstaden,101,Københavns Kommune,1219,København K
1084,Region Hovedstaden,101,Københavns Kommune,1220,København K
1084,Region Hovedstaden,101,Københavns Kommune,1221,København K
1084,Region Hovedstaden,101,Københavns Kommune,1240,København K
1084,Region Hovedstaden,101,Københavns Kommune,1250,København K
1084,Region Hovedstaden,101,Københavns Kommune,1251,København K
1084,Region Hovedstaden,101,Københavns Kommune,1253,København K
1084,Region Hovedstaden,101,Københavns Kommune,1254,København K
1084,Region Hovedstaden,101,Københavns Kommune,1255,København K
1084,Region Hovedstaden,101,Københavns Kommune,1256,København K
1084,Region Hovedstaden,101,Københavns Kommune,1257,København K
1084,Region Hovedstaden,101,Københavns Kommune,1259,København K
1084,Region Hovedstaden,101,Københavns Kommune,1260,København K
1084,Region Hovedstaden,101,Københavns Kommune,1261,København K
1084,Region Hovedstaden,101,Københavns Kommune,1263,København K
1084,Region Hovedstaden,101,Københavns Kommune,1264,København K
1084,Region Hovedstaden,101,Københavns Kommune,1265,København K
1084,Region Hovedstaden,101,Københavns Kommune,1266,København K
1084,Region Hovedstaden,101,Københavns Kommune,1267,København K
1084,Region Hovedstaden,101,Københavns Kommune,1268,København K
1084,Region Hovedstaden,101,Københavns Kommune,1270,København K
1084,Region Hovedstaden,101,Københavns Kommune,1271,København K
1084,Region Hovedstaden,101,Københavns Kommune,1300,København K
1084,Region Hovedstaden,101,Københavns Kommune,1301,København K
1084,Region Hovedstaden,101,Københavns Kommune,1302,København K
1084,Region Hovedstaden,101,Københavns Kommune,1303,København K
1084,Region Hovedstaden,101,Københavns Kommune,1304,København K
1084,Region Hovedstaden,101,Københavns Kommune,1306,København K
1084,Region Hovedstaden,101,Københavns Kommune,1307,København K
1084,Region Hovedstaden,101,Københavns Kommune,1308,København K
1084,Region Hovedstaden,101,Københavns Kommune,1309,København K
1084,Region Hovedstaden,101,Københavns Kommune,1310,København K
1084,Region Hovedstaden,101,Københavns Kommune,1311,København K
1084,Region Hovedstaden,101,Københavns Kommune,1312,København K
1084,Region Hovedstaden,101,Københavns Kommune,1313,København K
1084,Region Hovedstaden,101,Københavns Kommune,1314,København K
1084,Region Hovedstaden,101,Københavns Kommune,1315,København K
1084,Region Hovedstaden,101,Københavns Kommune,1316,København K
1084,Region Hovedstaden,101,Københavns Kommune,1317,København K
1084,Region Hovedstaden,101,Københavns Kommune,1318,København K
1084,Region Hovedstaden,101,Københavns Kommune,1319,København K
1084,Region Hovedstaden,101,Københavns Kommune,1320,København K
1084,Region Hovedstaden,101,Københavns Kommune,1321,København K
1084,Region Hovedstaden,101,Københavns Kommune,1322,København K
1084,Region Hovedstaden,101,Københavns Kommune,1323,København K
1084,Region Hovedstaden,101,Københavns Kommune,1324,København K
1084,Region Hovedstaden,101,Københavns Kommune,1325,København K
1084,Region Hovedstaden,101,Københavns Kommune,1326,København K
1084,Region Hovedstaden,101,Københavns Kommune,1327,København K
1084,Region Hovedstaden,101,Københavns Kommune,1328,København K
1084,Region Hovedstaden,101,Københavns Kommune,1329,København K
1084,Region Hovedstaden,101,Københavns Kommune,1350,København K
1084,Region Hovedstaden,101,Københavns Kommune,1352,København K
1084,Region Hovedstaden,101,Københavns Kommune,1353,København K
1084,Region Hovedstaden,101,Københavns Kommune,1354,København K
1084,Region Hovedstaden,101,Københavns Kommune,1355,København K
1084,Region Hovedstaden,101,Københavns Kommune,1356,København K
1084,Region Hovedstaden,101,Københavns Kommune,1357,København K
1084,Region Hovedstaden,101,Københavns Kommune,1358,København K
1084,Region Hovedstaden,101,Københavns Kommune,1359,København K
1084,Region Hovedstaden,101,Københavns Kommune,1360,København K
1084,Region Hovedstaden,101,Københavns Kommune,1361,København K
1084,Region Hovedstaden,101,Københavns Kommune,1362,København K
1084,Region Hovedstaden,101,Københavns Kommune,1363,København K
1084,Region Hovedstaden,101,Københavns Kommune,1364,København K
1084,Region Hovedstaden,101,Københavns Kommune,1365,København K
1084,Region Hovedstaden,101,Københavns Kommune,1366,København K
1084,Region Hovedstaden,101,Københavns Kommune,1367,København K
1084,Region Hovedstaden,101,Københavns Kommune,1368,København K
1084,Region Hovedstaden,101,Københavns Kommune,1369,København K
1084,Region Hovedstaden,101,Københavns Kommune,1370,København K
1084,Region Hovedstaden,101,Københavns Kommune,1371,København K
1084,Region Hovedstaden,101,Københavns Kommune,1400,København K
1084,Region Hovedstaden,101,Københavns Kommune,1401,København K
1084,Region Hovedstaden,101,Københavns Kommune,1402,København K
1084,Region Hovedstaden,101,Københavns Kommune,1403,København K
1084,Region Hovedstaden,101,Københavns Kommune,1406,København K
1084,Region Hovedstaden,101,Københavns Kommune,1407,København K
1084,Region Hovedstaden,101,Københavns Kommune,1408,København K
1084,Region Hovedstaden,101,Københavns Kommune,1409,København K
1084,Region Hovedstaden,101,Københavns Kommune,1410,København K
1084,Region Hovedstaden,101,Københavns Kommune,1411,København K
1084,Region Hovedstaden,101,Københavns Kommune,1412,København K
1084,Region Hovedstaden,101,Københavns Kommune,1413,København K
1084,Region Hovedstaden,101,Københavns Kommune,1414,København K
1084,Region Hovedstaden,101,Københavns Kommune,1415,København K
1084,Region Hovedstaden,101,Københavns Kommune,1416,København K
1084,Region Hovedstaden,101,Københavns Kommune,1417,København K
1084,Region Hovedstaden,101,Københavns Kommune,1418,København K
1084,Region Hovedstaden,101,Københavns Kommune,1419,København K
1084,Region Hovedstaden,101,Københavns Kommune,1420,København K
1084,Region Hovedstaden,101,Københavns Kommune,1421,København K
1084,Region Hovedstaden,101,Københavns Kommune,1422,København K
1084,Region Hovedstaden,101,Københavns Kommune,1423,København K
1084,Region Hovedstaden,101,Københavns Kommune,1424,København K
1084,Region Hovedstaden,101,Københavns Kommune,1425,København K
1084,Region Hovedstaden,101,Københavns Kommune,1426,København K
1084,Region Hovedstaden,101,Københavns Kommune,1427,København K
1084,Region Hovedstaden,101,Københavns Kommune,1428,København K
1084,Region Hovedstaden,101,Københavns Kommune,1429,København K
1084,Region Hovedstaden,101,Københavns Kommune,1430,København K
1084,Region Hovedstaden,101,Københavns Kommune,1431,København K
1084,Region Hovedstaden,101,Københavns Kommune,1432,København K
1084,Region Hovedstaden,101,Københavns Kommune,1433,København K
1084,Region Hovedstaden,101,Københavns Kommune,1434,København K
1084,Region Hovedstaden,101,Københavns Kommune,1435,København K
1084,Region Hovedstaden,101,Københavns Kommune,1436,København K
1084,Region Hovedstaden,101,Københavns Kommune,1437,København K
1084,Region Hovedstaden,101,Københavns Kommune,1438,København K
1084,Region Hovedstaden,101,Københavns Kommune,1439,København K
1084,Region Hovedstaden,101,Københavns Kommune,1440,København K
1084,Region Hovedstaden,101,Københavns Kommune,1441,København K
1084,Region Hovedstaden,101,Københavns Kommune,1448,København K
1084,Region Hovedstaden,101,Københavns Kommune,1450,København K
1084,Region Hovedstaden,101,Københavns Kommune,1451,København K
1084,Region Hovedstaden,101,Københavns Kommune,1452,København K
1084,Region Hovedstaden,101,Københavns Kommune,1453,København K
1084,Region Hovedstaden,101,Københavns Kommune,1454,København K
1084,Region Hovedstaden,101,Københavns Kommune,1455,København K
1084,Region Hovedstaden,101,Københavns Kommune,1456,København K
1084,Region Hovedstaden,101,Københavns Kommune,1457,København K
1084,Region Hovedstaden,101,Københavns Kommune,1458,København K
1084,Region Hovedstaden,101,Københavns Kommune,1459,København K
1084,Region Hovedstaden,101,Københavns Kommune,1460,København K
1084,Region Hovedstaden,101,Københavns Kommune,1462,København K
1084,Region Hovedstaden,101,Københavns Kommune,1463,København K
1084,Region Hovedstaden,101,Københavns Kommune,1464,København K
1084,Region Hovedstaden,101,Københavns Kommune,1466,København K
1084,Region Hovedstaden,101,Københavns Kommune,1467,København K
1084,Region Hovedstaden,101,Københavns Kommune,1468,København K
1084,Region Hovedstaden,101,Københavns Kommune,1470,København K
1084,Region Hovedstaden,101,Københavns Kommune,1471,København K
1084,Region Hovedstaden,101,Københavns Kommune,1472,København K
1084,Region Hovedstaden,101,Københavns Kommune,1500,København V
1084,Region Hovedstaden,101,Københavns Kommune,1513,Centraltastning
1084,Region Hovedstaden,185,Tårnby Kommune,1532,København V
1084,Region Hovedstaden,185,Tårnby Kommune,1533,København V
1084,Region Hovedstaden,101,Københavns Kommune,1550,København V
1084,Region Hovedstaden,101,Københavns Kommune,1551,København V
1084,Region Hovedstaden,101,Københavns Kommune,1552,København V
1084,Region Hovedstaden,101,Københavns Kommune,1553,København V
1084,Region Hovedstaden,101,Københavns Kommune,1554,København V
1084,Region Hovedstaden,101,Københavns Kommune,1555,København V
1084,Region Hovedstaden,101,Københavns Kommune,1556,København V
1084,Region Hovedstaden,101,Københavns Kommune,1557,København V
1084,Region Hovedstaden,101,Københavns Kommune,1558,København V
1084,Region Hovedstaden,101,Københavns Kommune,1559,København V
1084,Region Hovedstaden,101,Københavns Kommune,1560,København V
1084,Region Hovedstaden,101,Københavns Kommune,1561,København V
1084,Region Hovedstaden,101,Københavns Kommune,1562,København V
1084,Region Hovedstaden,101,Københavns Kommune,1563,København V
1084,Region Hovedstaden,101,Københavns Kommune,1564,København V
1084,Region Hovedstaden,101,Københavns Kommune,1566,København V
1084,Region Hovedstaden,101,Københavns Kommune,1567,København V
1084,Region Hovedstaden,101,Københavns Kommune,1568,København V
1084,Region Hovedstaden,101,Københavns Kommune,1569,København V
1084,Region Hovedstaden,101,Københavns Kommune,1570,København V
1084,Region Hovedstaden,101,Københavns Kommune,1571,København V
1084,Region Hovedstaden,101,Københavns Kommune,1572,København V
1084,Region Hovedstaden,101,Københavns Kommune,1573,København V
1084,Region Hovedstaden,101,Københavns Kommune,1574,København V
1084,Region Hovedstaden,101,Københavns Kommune,1575,København V
1084,Region Hovedstaden,101,Københavns Kommune,1576,København V
1084,Region Hovedstaden,101,Københavns Kommune,1577,København V
1084,Region Hovedstaden,101,Københavns Kommune,1592,København V
1084,Region Hovedstaden,101,Københavns Kommune,1599,København V
1084,Region Hovedstaden,101,Københavns Kommune,1600,København V
1084,Region Hovedstaden,101,Københavns Kommune,1601,København V
1084,Region Hovedstaden,101,Københavns Kommune,1602,København V
1084,Region Hovedstaden,101,Københavns Kommune,1603,København V
1084,Region Hovedstaden,101,Københavns Kommune,1604,København V
1084,Region Hovedstaden,101,Københavns Kommune,1606,København V
1084,Region Hovedstaden,101,Københavns Kommune,1607,København V
1084,Region Hovedstaden,101,Københavns Kommune,1608,København V
1084,Region Hovedstaden,101,Københavns Kommune,1609,København V
1084,Region Hovedstaden,101,Københavns Kommune,1610,København V
1084,Region Hovedstaden,101,Københavns Kommune,1611,København V
1084,Region Hovedstaden,101,Københavns Kommune,1612,København V
1084,Region Hovedstaden,101,Københavns Kommune,1613,København V
1084,Region Hovedstaden,101,Københavns Kommune,1614,København V
1084,Region Hovedstaden,101,Københavns Kommune,1615,København V
1084,Region Hovedstaden,101,Københavns Kommune,1616,København V
1084,Region Hovedstaden,101,Københavns Kommune,1617,København V
1084,Region Hovedstaden,101,Københavns Kommune,1618,København V
1084,Region Hovedstaden,101,Københavns Kommune,1619,København V
1084,Region Hovedstaden,101,Københavns Kommune,1620,København V
1084,Region Hovedstaden,101,Københavns Kommune,1621,København V
1084,Region Hovedstaden,101,Københavns Kommune,1622,København V
1084,Region Hovedstaden,101,Københavns Kommune,1623,København V
1084,Region Hovedstaden,101,Københavns Kommune,1624,København V
1084,Region Hovedstaden,101,Københavns Kommune,1630,København V
1084,Region Hovedstaden,101,Københavns Kommune,1631,København V
1084,Region Hovedstaden,101,Københavns Kommune,1632,København V
1084,Region Hovedstaden,101,Københavns Kommune,1633,København V
1084,Region Hovedstaden,101,Københavns Kommune,1634,København V
1084,Region Hovedstaden,101,Københavns Kommune,1635,København V
1084,Region Hovedstaden,101,Københavns Kommune,1650,København V
1084,Region Hovedstaden,101,Københavns Kommune,1651,København V
1084,Region Hovedstaden,101,Københavns Kommune,1652,København V
1084,Region Hovedstaden,101,Københavns Kommune,1653,København V
1084,Region Hovedstaden,101,Københavns Kommune,1654,København V
1084,Region Hovedstaden,101,Københavns Kommune,1655,København V
1084,Region Hovedstaden,101,Københavns Kommune,1656,København V
1084,Region Hovedstaden,101,Københavns Kommune,1657,København V
1084,Region Hovedstaden,101,Københavns Kommune,1658,København V
1084,Region Hovedstaden,101,Københavns Kommune,1659,København V
1084,Region Hovedstaden,101,Københavns Kommune,1660,København V
1084,Region Hovedstaden,101,Københavns Kommune,1661,København V
1084,Region Hovedstaden,101,Københavns Kommune,1662,København V
1084,Region Hovedstaden,101,Københavns Kommune,1663,København V
1084,Region Hovedstaden,101,Københavns Kommune,1664,København V
1084,Region Hovedstaden,101,Københavns Kommune,1665,København V
1084,Region Hovedstaden,101,Københavns Kommune,1666,København V
1084,Region Hovedstaden,101,Københavns Kommune,1667,København V
1084,Region Hovedstaden,101,Københavns Kommune,1668,København V
1084,Region Hovedstaden,101,Københavns Kommune,1669,København V
1084,Region Hovedstaden,101,Københavns Kommune,1670,København V
1084,Region Hovedstaden,101,Københavns Kommune,1671,København V
1084,Region Hovedstaden,101,Københavns Kommune,1672,København V
1084,Region Hovedstaden,101,Københavns Kommune,1673,København V
1084,Region Hovedstaden,101,Københavns Kommune,1674,København V
1084,Region Hovedstaden,101,Københavns Kommune,1675,København V
1084,Region Hovedstaden,101,Københavns Kommune,1676,København V
1084,Region Hovedstaden,101,Københavns Kommune,1677,København V
1084,Region Hovedstaden,101,Københavns Kommune,1699,København V
1084,Region Hovedstaden,101,Københavns Kommune,1700,København V
1084,Region Hovedstaden,101,Københavns Kommune,1701,København V
1084,Region Hovedstaden,101,Københavns Kommune,1702,København V
1084,Region Hovedstaden,101,Københavns Kommune,1703,København V
1084,Region Hovedstaden,101,Københavns Kommune,1704,København V
1084,Region Hovedstaden,101,Københavns Kommune,1705,København V
1084,Region Hovedstaden,101,Københavns Kommune,1706,København V
1084,Region Hovedstaden,101,Københavns Kommune,1707,København V
1084,Region Hovedstaden,101,Københavns Kommune,1708,København V
1084,Region Hovedstaden,101,Københavns Kommune,1709,København V
1084,Region Hovedstaden,101,Københavns Kommune,1710,København V
1084,Region Hovedstaden,101,Københavns Kommune,1711,København V
1084,Region Hovedstaden,101,Københavns Kommune,1712,København V
1084,Region Hovedstaden,101,Københavns Kommune,1714,København V
1084,Region Hovedstaden,101,Københavns Kommune,1715,København V
1084,Region Hovedstaden,101,Københavns Kommune,1716,København V
1084,Region Hovedstaden,101,Københavns Kommune,1717,København V
1084,Region Hovedstaden,101,Københavns Kommune,1718,København V
1084,Region Hovedstaden,101,Københavns Kommune,1719,København V
1084,Region Hovedstaden,101,Københavns Kommune,1720,København V
1084,Region Hovedstaden,101,Københavns Kommune,1721,København V
1084,Region Hovedstaden,101,Københavns Kommune,1722,København V
1084,Region Hovedstaden,101,Københavns Kommune,1723,København V
1084,Region Hovedstaden,101,Københavns Kommune,1724,København V
1084,Region Hovedstaden,101,Københavns Kommune,1725,København V
1084,Region Hovedstaden,101,Københavns Kommune,1726,København V
1084,Region Hovedstaden,101,Københavns Kommune,1727,København V
1084,Region Hovedstaden,101,Københavns Kommune,1728,København V
1084,Region Hovedstaden,101,Københavns Kommune,1729,København V
1084,Region Hovedstaden,101,Københavns Kommune,1730,København V
1084,Region Hovedstaden,101,Københavns Kommune,1731,København V
1084,Region Hovedstaden,101,Københavns Kommune,1732,København V
1084,Region Hovedstaden,101,Københavns Kommune,1733,København V
1084,Region Hovedstaden,101,Københavns Kommune,1734,København V
1084,Region Hovedstaden,101,Københavns Kommune,1735,København V
1084,Region Hovedstaden,101,Københavns Kommune,1736,København V
1084,Region Hovedstaden,101,Københavns Kommune,1737,København V
1084,Region Hovedstaden,101,Københavns Kommune,1738,København V
1084,Region Hovedstaden,101,Københavns Kommune,1739,København V
1084,Region Hovedstaden,101,Københavns Kommune,1749,København V
1084,Region Hovedstaden,101,Københavns Kommune,1750,København V
1084,Region Hovedstaden,101,Københavns Kommune,1751,København V
1084,Region Hovedstaden,101,Københavns Kommune,1752,København V
1084,Region Hovedstaden,101,Københavns Kommune,1753,København V
1084,Region Hovedstaden,101,Københavns Kommune,1754,København V
1084,Region Hovedstaden,101,Københavns Kommune,1755,København V
1084,Region Hovedstaden,101,Københavns Kommune,1756,København V
1084,Region Hovedstaden,101,Københavns Kommune,1757,København V
1084,Region Hovedstaden,101,Københavns Kommune,1758,København V
1084,Region Hovedstaden,101,Københavns Kommune,1759,København V
1084,Region Hovedstaden,101,Københavns Kommune,1760,København V
1084,Region Hovedstaden,101,Københavns Kommune,1761,København V
1084,Region Hovedstaden,101,Københavns Kommune,1762,København V
1084,Region Hovedstaden,101,Københavns Kommune,1763,København V
1084,Region Hovedstaden,101,Københavns Kommune,1764,København V
1084,Region Hovedstaden,101,Københavns Kommune,1765,København V
1084,Region Hovedstaden,101,Københavns Kommune,1766,København V
1084,Region Hovedstaden,101,Københavns Kommune,1770,København V
1084,Region Hovedstaden,101,Københavns Kommune,1771,København V
1084,Region Hovedstaden,101,Københavns Kommune,1772,København V
1084,Region Hovedstaden,101,Københavns Kommune,1773,København V
1084,Region Hovedstaden,101,Københavns Kommune,1774,København V
1084,Region Hovedstaden,101,Københavns Kommune,1775,København V
1084,Region Hovedstaden,101,Københavns Kommune,1777,København V
1084,Region Hovedstaden,101,Københavns Kommune,1780,København V
1084,Region Hovedstaden,101,Københavns Kommune,1785,København V
1084,Region Hovedstaden,101,Københavns Kommune,1786,København V
1084,Region Hovedstaden,101,Københavns Kommune,1787,København V
1084,Region Hovedstaden,101,Københavns Kommune,1790,København V
1084,Region Hovedstaden,101,Københavns Kommune,1799,København V
1084,Region Hovedstaden,147,Frederiksberg Kommune,1800,Frederiksberg C
1084,Region Hovedstaden,147,Frederiksberg Kommune,1801,Frederiksberg C
1084,Region Hovedstaden,147,Frederiksberg Kommune,1802,Frederiksberg C
1084,Region Hovedstaden,147,Frederiksberg Kommune,1803,Frederiksberg C
1084,Region Hovedstaden,147,Frederiksberg Kommune,1804,Frederiksberg C
1084,Region Hovedstaden,147,Frederiksberg Kommune,1805,Frederiksberg C
1084,Region Hovedstaden,147,Frederiksberg Kommune,1806,Frederiksberg C
1084,Region Hovedstaden,147,Frederiksberg Kommune,1807,Frederiksberg C
1084,Region Hovedstaden,147,Frederiksberg Kommune,1808,Frederiksberg C
1084,Region Hovedstaden,147,Frederiksberg Kommune,1809,Frederiksberg C
1084,Region Hovedstaden,101,Københavns Kommune,1810,Frederiksberg C
1084,Region Hovedstaden,147,Frederiksberg Kommune,1810,Frederiksberg C
1084,Region Hovedstaden,147,Frederiksberg Kommune,1811,Frederiksberg C
1084,Region Hovedstaden,147,Frederiksberg Kommune,1812,Frederiksberg C
1084,Region Hovedstaden,147,Frederiksberg Kommune,1813,Frederiksberg C
1084,Region Hovedstaden,147,Frederiksberg Kommune,1814,Frederiksberg C
1084,Region Hovedstaden,147,Frederiksberg Kommune,1815,Frederiksberg C
1084,Region Hovedstaden,147,Frederiksberg Kommune,1816,Frederiksberg C
1084,Region Hovedstaden,147,Frederiksberg Kommune,1817,Frederiksberg C
1084,Region Hovedstaden,147,Frederiksberg Kommune,1818,Frederiksberg C
1084,Region Hovedstaden,147,Frederiksberg Kommune,1819,Frederiksberg C
1084,Region Hovedstaden,147,Frederiksberg Kommune,1820,Frederiksberg C
1084,Region Hovedstaden,147,Frederiksberg Kommune,1822,Frederiksberg C
1084,Region Hovedstaden,147,Frederiksberg Kommune,1823,Frederiksberg C
1084,Region Hovedstaden,147,Frederiksberg Kommune,1824,Frederiksberg C
1084,Region Hovedstaden,147,Frederiksberg Kommune,1825,Frederiksberg C
1084,Region Hovedstaden,147,Frederiksberg Kommune,1826,Frederiksberg C
1084,Region Hovedstaden,147,Frederiksberg Kommune,1827,Frederiksberg C
1084,Region Hovedstaden,147,Frederiksberg Kommune,1828,Frederiksberg C
1084,Region Hovedstaden,147,Frederiksberg Kommune,1829,Frederiksberg C
1084,Region Hovedstaden,147,Frederiksberg Kommune,1850,Frederiksberg C
1084,Region Hovedstaden,147,Frederiksberg Kommune,1851,Frederiksberg C
1084,Region Hovedstaden,147,Frederiksberg Kommune,1852,Frederiksberg C
1084,Region Hovedstaden,147,Frederiksberg Kommune,1853,Frederiksberg C
1084,Region Hovedstaden,147,Frederiksberg Kommune,1854,Frederiksberg C
1084,Region Hovedstaden,147,Frederiksberg Kommune,1855,Frederiksberg C
1084,Region Hovedstaden,147,Frederiksberg Kommune,1856,Frederiksberg C
1084,Region Hovedstaden,147,Frederiksberg Kommune,1857,Frederiksberg C
1084,Region Hovedstaden,147,Frederiksberg Kommune,1860,Frederiksberg C
1084,Region Hovedstaden,147,Frederiksberg Kommune,1861,Frederiksberg C
1084,Region Hovedstaden,147,Frederiksberg Kommune,1862,Frederiksberg C
1084,Region Hovedstaden,147,Frederiksberg Kommune,1863,Frederiksberg C
1084,Region Hovedstaden,147,Frederiksberg Kommune,1864,Frederiksberg C
1084,Region Hovedstaden,147,Frederiksberg Kommune,1865,Frederiksberg C
1084,Region Hovedstaden,147,Frederiksberg Kommune,1866,Frederiksberg C
1084,Region Hovedstaden,147,Frederiksberg Kommune,1867,Frederiksberg C
1084,Region Hovedstaden,147,Frederiksberg Kommune,1868,Frederiksberg C
1084,Region Hovedstaden,147,Frederiksberg Kommune,1870,Frederiksberg C
1084,Region Hovedstaden,147,Frederiksberg Kommune,1871,Frederiksberg C
1084,Region Hovedstaden,147,Frederiksberg Kommune,1872,Frederiksberg C
1084,Region Hovedstaden,147,Frederiksberg Kommune,1873,Frederiksberg C
1084,Region Hovedstaden,147,Frederiksberg Kommune,1874,Frederiksberg C
1084,Region Hovedstaden,147,Frederiksberg Kommune,1875,Frederiksberg C
1084,Region Hovedstaden,147,Frederiksberg Kommune,1876,Frederiksberg C
1084,Region Hovedstaden,147,Frederiksberg Kommune,1877,Frederiksberg C
1084,Region Hovedstaden,147,Frederiksberg Kommune,1878,Frederiksberg C
1084,Region Hovedstaden,147,Frederiksberg Kommune,1879,Frederiksberg C
1084,Region Hovedstaden,147,Frederiksberg Kommune,1900,Frederiksberg C
1084,Region Hovedstaden,147,Frederiksberg Kommune,1901,Frederiksberg C
1084,Region Hovedstaden,147,Frederiksberg Kommune,1902,Frederiksberg C
1084,Region Hovedstaden,147,Frederiksberg Kommune,1903,Frederiksberg C
1084,Region Hovedstaden,147,Frederiksberg Kommune,1904,Frederiksberg C
1084,Region Hovedstaden,147,Frederiksberg Kommune,1905,Frederiksberg C
1084,Region Hovedstaden,147,Frederiksberg Kommune,1906,Frederiksberg C
1084,Region Hovedstaden,147,Frederiksberg Kommune,1908,Frederiksberg C
1084,Region Hovedstaden,147,Frederiksberg Kommune,1909,Frederiksberg C
1084,Region Hovedstaden,147,Frederiksberg Kommune,1910,Frederiksberg C
1084,Region Hovedstaden,147,Frederiksberg Kommune,1911,Frederiksberg C
1084,Region Hovedstaden,147,Frederiksberg Kommune,1912,Frederiksberg C
1084,Region Hovedstaden,147,Frederiksberg Kommune,1913,Frederiksberg C
1084,Region Hovedstaden,147,Frederiksberg Kommune,1914,Frederiksberg C
1084,Region Hovedstaden,147,Frederiksberg Kommune,1915,Frederiksberg C
1084,Region Hovedstaden,147,Frederiksberg Kommune,1916,Frederiksberg C
1084,Region Hovedstaden,147,Frederiksberg Kommune,1917,Frederiksberg C
1084,Region Hovedstaden,147,Frederiksberg Kommune,1920,Frederiksberg C
1084,Region Hovedstaden,147,Frederiksberg Kommune,1921,Frederiksberg C
1084,Region Hovedstaden,147,Frederiksberg Kommune,1922,Frederiksberg C
1084,Region Hovedstaden,147,Frederiksberg Kommune,1923,Frederiksberg C
1084,Region Hovedstaden,147,Frederiksberg Kommune,1924,Frederiksberg C
1084,Region Hovedstaden,147,Frederiksberg Kommune,1925,Frederiksberg C
1084,Region Hovedstaden,147,Frederiksberg Kommune,1926,Frederiksberg C
1084,Region Hovedstaden,147,Frederiksberg Kommune,1927,Frederiksberg C
1084,Region Hovedstaden,147,Frederiksberg Kommune,1928,Frederiksberg C
1084,Region Hovedstaden,147,Frederiksberg Kommune,1950,Frederiksberg C
1084,Region Hovedstaden,147,Frederiksberg Kommune,1951,Frederiksberg C
1084,Region Hovedstaden,147,Frederiksberg Kommune,1952,Frederiksberg C
1084,Region Hovedstaden,147,Frederiksberg Kommune,1953,Frederiksberg C
1084,Region Hovedstaden,147,Frederiksberg Kommune,1954,Frederiksberg C
1084,Region Hovedstaden,147,Frederiksberg Kommune,1955,Frederiksberg C
1084,Region Hovedstaden,147,Frederiksberg Kommune,1956,Frederiksberg C
1084,Region Hovedstaden,147,Frederiksberg Kommune,1957,Frederiksberg C
1084,Region Hovedstaden,147,Frederiksberg Kommune,1958,Frederiksberg C
1084,Region Hovedstaden,147,Frederiksberg Kommune,1959,Frederiksberg C
1084,Region Hovedstaden,147,Frederiksberg Kommune,1960,Frederiksberg C
1084,Region Hovedstaden,147,Frederiksberg Kommune,1961,Frederiksberg C
1084,Region Hovedstaden,147,Frederiksberg Kommune,1962,Frederiksberg C
1084,Region Hovedstaden,147,Frederiksberg Kommune,1963,Frederiksberg C
1084,Region Hovedstaden,147,Frederiksberg Kommune,1964,Frederiksberg C
1084,Region Hovedstaden,147,Frederiksberg Kommune,1965,Frederiksberg C
1084,Region Hovedstaden,147,Frederiksberg Kommune,1966,Frederiksberg C
1084,Region Hovedstaden,147,Frederiksberg Kommune,1967,Frederiksberg C
1084,Region Hovedstaden,147,Frederiksberg Kommune,1970,Frederiksberg C
1084,Region Hovedstaden,147,Frederiksberg Kommune,1971,Frederiksberg C
1084,Region Hovedstaden,147,Frederiksberg Kommune,1972,Frederiksberg C
1084,Region Hovedstaden,147,Frederiksberg Kommune,1973,Frederiksberg C
1084,Region Hovedstaden,147,Frederiksberg Kommune,1974,Frederiksberg C
1084,Region Hovedstaden,101,Københavns Kommune,2000,Frederiksberg
1084,Region Hovedstaden,147,Frederiksberg Kommune,2000,Frederiksberg
1084,Region Hovedstaden,101,Københavns Kommune,2100,København Ø
1084,Region Hovedstaden,101,Københavns Kommune,2150,Nordhavn
1084,Region Hovedstaden,101,Københavns Kommune,2200,København N
1084,Region Hovedstaden,147,Frederiksberg Kommune,2200,København N
1084,Region Hovedstaden,101,Københavns Kommune,2300,København S
1084,Region Hovedstaden,185,Tårnby Kommune,2300,København S
1084,Region Hovedstaden,101,Københavns Kommune,2400,København NV
1084,Region Hovedstaden,101,Københavns Kommune,2450,København SV
1084,Region Hovedstaden,101,Københavns Kommune,2500,Valby
1084,Region Hovedstaden,147,Frederiksberg Kommune,2500,Valby
1084,Region Hovedstaden,153,Brøndby Kommune,2600,Glostrup
1084,Region Hovedstaden,161,Glostrup Kommune,2600,Glostrup
1084,Region Hovedstaden,165,Albertslund Kommune,2600,Glostrup
1084,Region Hovedstaden,153,Brøndby Kommune,2605,Brøndby
1084,Region Hovedstaden,101,Københavns Kommune,2610,Rødovre
1084,Region Hovedstaden,167,Hvidovre Kommune,2610,Rødovre
1084,Region Hovedstaden,175,Rødovre Kommune,2610,Rødovre
1084,Region Hovedstaden,153,Brøndby Kommune,2620,Albertslund
1084,Region Hovedstaden,165,Albertslund Kommune,2620,Albertslund
1084,Region Hovedstaden,187,Vallensbæk Kommune,2625,Vallensbæk
1084,Region Hovedstaden,169,Høje-Taastrup Kommune,2630,Taastrup
1084,Region Hovedstaden,183,Ishøj Kommune,2635,Ishøj
1084,Region Hovedstaden,169,Høje-Taastrup Kommune,2640,Hedehusene
1084,Region Hovedstaden,183,Ishøj Kommune,2640,Hedehusene
1085,Region Sjælland,253,Greve Kommune,2640,Hedehusene
1085,Region Sjælland,265,Roskilde Kommune,2640,Hedehusene
1084,Region Hovedstaden,153,Brøndby Kommune,2650,Hvidovre
1084,Region Hovedstaden,167,Hvidovre Kommune,2650,Hvidovre
1084,Region Hovedstaden,153,Brøndby Kommune,2660,Brøndby Strand
1084,Region Hovedstaden,167,Hvidovre Kommune,2660,Brøndby Strand
1084,Region Hovedstaden,187,Vallensbæk Kommune,2665,Vallensbæk Strand
1085,Region Sjælland,253,Greve Kommune,2670,Greve
1085,Region Sjælland,269,Solrød Kommune,2680,Solrød Strand
1085,Region Sjælland,253,Greve Kommune,2690,Karlslunde
1085,Region Sjælland,269,Solrød Kommune,2690,Karlslunde
1084,Region Hovedstaden,101,Københavns Kommune,2700,Brønshøj
1084,Region Hovedstaden,101,Københavns Kommune,2720,Vanløse
1084,Region Hovedstaden,147,Frederiksberg Kommune,2720,Vanløse
1084,Region Hovedstaden,151,Ballerup Kommune,2730,Herlev
1084,Region Hovedstaden,159,Gladsaxe Kommune,2730,Herlev
1084,Region Hovedstaden,163,Herlev Kommune,2730,Herlev
1084,Region Hovedstaden,151,Ballerup Kommune,2740,Skovlunde
1084,Region Hovedstaden,163,Herlev Kommune,2740,Skovlunde
1084,Region Hovedstaden,151,Ballerup Kommune,2750,Ballerup
1084,Region Hovedstaden,165,Albertslund Kommune,2750,Ballerup
1084,Region Hovedstaden,240,Egedal Kommune,2750,Ballerup
1084,Region Hovedstaden,151,Ballerup Kommune,2760,Måløv
1084,Region Hovedstaden,240,Egedal Kommune,2765,Smørum
1084,Region Hovedstaden,101,Københavns Kommune,2770,Kastrup
1084,Region Hovedstaden,185,Tårnby Kommune,2770,Kastrup
1084,Region Hovedstaden,155,Dragør Kommune,2791,Dragør
1084,Region Hovedstaden,185,Tårnby Kommune,2791,Dragør
1084,Region Hovedstaden,157,Gentofte Kommune,2800,Kongens Lyngby
1084,Region Hovedstaden,159,Gladsaxe Kommune,2800,Kongens Lyngby
1084,Region Hovedstaden,173,Lyngby-Taarbæk Kommune,2800,Kongens Lyngby
1084,Region Hovedstaden,230,Rudersdal Kommune,2800,Kongens Lyngby
1084,Region Hovedstaden,157,Gentofte Kommune,2820,Gentofte
1084,Region Hovedstaden,159,Gladsaxe Kommune,2820,Gentofte
1084,Region Hovedstaden,173,Lyngby-Taarbæk Kommune,2830,Virum
1084,Region Hovedstaden,230,Rudersdal Kommune,2830,Virum
1084,Region Hovedstaden,173,Lyngby-Taarbæk Kommune,2840,Holte
1084,Region Hovedstaden,230,Rudersdal Kommune,2840,Holte
1084,Region Hovedstaden,230,Rudersdal Kommune,2850,Nærum
1084,Region Hovedstaden,101,Københavns Kommune,2860,Søborg
1084,Region Hovedstaden,159,Gladsaxe Kommune,2860,Søborg
1084,Region Hovedstaden,157,Gentofte Kommune,2870,Dyssegård
1084,Region Hovedstaden,159,Gladsaxe Kommune,2880,Bagsværd
1084,Region Hovedstaden,163,Herlev Kommune,2880,Bagsværd
1084,Region Hovedstaden,190,Furesø Kommune,2880,Bagsværd
1084,Region Hovedstaden,101,Københavns Kommune,2900,Hellerup
1084,Region Hovedstaden,157,Gentofte Kommune,2900,Hellerup
1084,Region Hovedstaden,157,Gentofte Kommune,2920,Charlottenlund
1084,Region Hovedstaden,157,Gentofte Kommune,2930,Klampenborg
1084,Region Hovedstaden,173,Lyngby-Taarbæk Kommune,2930,Klampenborg
1084,Region Hovedstaden,230,Rudersdal Kommune,2942,Skodsborg
1084,Region Hovedstaden,223,Hørsholm Kommune,2950,Vedbæk
1084,Region Hovedstaden,230,Rudersdal Kommune,2950,Vedbæk
1084,Region Hovedstaden,223,Hørsholm Kommune,2960,Rungsted Kyst
1084,Region Hovedstaden,210,Fredensborg Kommune,2970,Hørsholm
1084,Region Hovedstaden,223,Hørsholm Kommune,2970,Hørsholm
1084,Region Hovedstaden,230,Rudersdal Kommune,2970,Hørsholm
1084,Region Hovedstaden,210,Fredensborg Kommune,2980,Kokkedal
1084,Region Hovedstaden,223,Hørsholm Kommune,2980,Kokkedal
1084,Region Hovedstaden,210,Fredensborg Kommune,2990,Nivå
1084,Region Hovedstaden,217,Helsingør Kommune,3000,Helsingør
1084,Region Hovedstaden,210,Fredensborg Kommune,3050,Humlebæk
1084,Region Hovedstaden,210,Fredensborg Kommune,3060,Espergærde
1084,Region Hovedstaden,217,Helsingør Kommune,3060,Espergærde
1084,Region Hovedstaden,217,Helsingør Kommune,3070,Snekkersten
1084,Region Hovedstaden,217,Helsingør Kommune,3080,Tikøb
1084,Region Hovedstaden,217,Helsingør Kommune,3100,Hornbæk
1084,Region Hovedstaden,270,Gribskov Kommune,3100,Hornbæk
1084,Region Hovedstaden,270,Gribskov Kommune,3120,Dronningmølle
1084,Region Hovedstaden,217,Helsingør Kommune,3140,Ålsgårde
1084,Region Hovedstaden,217,Helsingør Kommune,3150,Hellebæk
1084,Region Hovedstaden,219,Hillerød Kommune,3200,Helsinge
1084,Region Hovedstaden,270,Gribskov Kommune,3200,Helsinge
1084,Region Hovedstaden,270,Gribskov Kommune,3210,Vejby
1084,Region Hovedstaden,270,Gribskov Kommune,3220,Tisvildeleje
1084,Region Hovedstaden,217,Helsingør Kommune,3230,Græsted
1084,Region Hovedstaden,219,Hillerød Kommune,3230,Græsted
1084,Region Hovedstaden,270,Gribskov Kommune,3230,Græsted
1084,Region Hovedstaden,270,Gribskov Kommune,3250,Gilleleje
1084,Region Hovedstaden,260,Halsnæs Kommune,3300,Frederiksværk
1084,Region Hovedstaden,270,Gribskov Kommune,3300,Frederiksværk
1084,Region Hovedstaden,219,Hillerød Kommune,3310,Ølsted
1084,Region Hovedstaden,260,Halsnæs Kommune,3310,Ølsted
1084,Region Hovedstaden,219,Hillerød Kommune,3320,Skævinge
1084,Region Hovedstaden,260,Halsnæs Kommune,3320,Skævinge
1084,Region Hovedstaden,219,Hillerød Kommune,3330,Gørløse
1084,Region Hovedstaden,260,Halsnæs Kommune,3360,Liseleje
1084,Region Hovedstaden,260,Halsnæs Kommune,3370,Melby
1084,Region Hovedstaden,260,Halsnæs Kommune,3390,Hundested
1084,Region Hovedstaden,201,Allerød Kommune,3400,Hillerød
1084,Region Hovedstaden,210,Fredensborg Kommune,3400,Hillerød
1084,Region Hovedstaden,219,Hillerød Kommune,3400,Hillerød
1084,Region Hovedstaden,201,Allerød Kommune,3450,Allerød
1084,Region Hovedstaden,210,Fredensborg Kommune,3450,Allerød
1084,Region Hovedstaden,219,Hillerød Kommune,3450,Allerød
1084,Region Hovedstaden,190,Furesø Kommune,3460,Birkerød
1084,Region Hovedstaden,201,Allerød Kommune,3460,Birkerød
1084,Region Hovedstaden,230,Rudersdal Kommune,3460,Birkerød
1084,Region Hovedstaden,210,Fredensborg Kommune,3480,Fredensborg
1084,Region Hovedstaden,217,Helsingør Kommune,3480,Fredensborg
1084,Region Hovedstaden,219,Hillerød Kommune,3480,Fredensborg
1084,Region Hovedstaden,210,Fredensborg Kommune,3490,Kvistgård
1084,Region Hovedstaden,217,Helsingør Kommune,3490,Kvistgård
1084,Region Hovedstaden,151,Ballerup Kommune,3500,Værløse
1084,Region Hovedstaden,159,Gladsaxe Kommune,3500,Værløse
1084,Region Hovedstaden,173,Lyngby-Taarbæk Kommune,3500,Værløse
1084,Region Hovedstaden,190,Furesø Kommune,3500,Værløse
1084,Region Hovedstaden,240,Egedal Kommune,3500,Værløse
1084,Region Hovedstaden,190,Furesø Kommune,3520,Farum
1084,Region Hovedstaden,201,Allerød Kommune,3520,Farum
1084,Region Hovedstaden,240,Egedal Kommune,3520,Farum
1084,Region Hovedstaden,190,Furesø Kommune,3540,Lynge
1084,Region Hovedstaden,201,Allerød Kommune,3540,Lynge
1084,Region Hovedstaden,219,Hillerød Kommune,3540,Lynge
1084,Region Hovedstaden,240,Egedal Kommune,3540,Lynge
1084,Region Hovedstaden,201,Allerød Kommune,3550,Slangerup
1084,Region Hovedstaden,219,Hillerød Kommune,3550,Slangerup
1084,Region Hovedstaden,240,Egedal Kommune,3550,Slangerup
1084,Region Hovedstaden,250,Frederikssund Kommune,3550,Slangerup
1084,Region Hovedstaden,219,Hillerød Kommune,3600,Frederikssund
1084,Region Hovedstaden,250,Frederikssund Kommune,3600,Frederikssund
1084,Region Hovedstaden,260,Halsnæs Kommune,3600,Frederikssund
1084,Region Hovedstaden,250,Frederikssund Kommune,3630,Jægerspris
1084,Region Hovedstaden,240,Egedal Kommune,3650,Ølstykke
1084,Region Hovedstaden,240,Egedal Kommune,3660,Stenløse
1084,Region Hovedstaden,240,Egedal Kommune,3670,Veksø Sjælland
1085,Region Sjælland,265,Roskilde Kommune,3670,Veksø Sjælland
1084,Region Hovedstaden,400,Bornholm Kommune,3700,Rønne
1084,Region Hovedstaden,400,Bornholm Kommune,3720,Aakirkeby
1084,Region Hovedstaden,400,Bornholm Kommune,3730,Nexø
1084,Region Hovedstaden,400,Bornholm Kommune,3740,Svaneke
1084,Region Hovedstaden,400,Bornholm Kommune,3751,Østermarie
1084,Region Hovedstaden,400,Bornholm Kommune,3760,Gudhjem
1084,Region Hovedstaden,411,Christiansø,3760,Gudhjem
1084,Region Hovedstaden,400,Bornholm Kommune,3770,Allinge
1084,Region Hovedstaden,400,Bornholm Kommune,3782,Klemensker
1084,Region Hovedstaden,400,Bornholm Kommune,3790,Hasle
1084,Region Hovedstaden,169,Høje-Taastrup Kommune,4000,Roskilde
1085,Region Sjælland,265,Roskilde Kommune,4000,Roskilde
1085,Region Sjælland,350,Lejre Kommune,4000,Roskilde
1085,Region Sjælland,253,Greve Kommune,4030,Tune
1085,Region Sjælland,265,Roskilde Kommune,4030,Tune
1085,Region Sjælland,265,Roskilde Kommune,4040,Jyllinge
1084,Region Hovedstaden,250,Frederikssund Kommune,4050,Skibby
1085,Region Sjælland,350,Lejre Kommune,4060,Kirke Såby
1085,Region Sjælland,350,Lejre Kommune,4070,Kirke Hyllinge
1085,Region Sjælland,259,Køge Kommune,4100,Ringsted
1085,Region Sjælland,316,Holbæk Kommune,4100,Ringsted
1085,Region Sjælland,320,Faxe Kommune,4100,Ringsted
1085,Region Sjælland,329,Ringsted Kommune,4100,Ringsted
1085,Region Sjælland,340,Sorø Kommune,4100,Ringsted
1085,Region Sjælland,370,Næstved Kommune,4100,Ringsted
1085,Region Sjælland,259,Køge Kommune,4130,Viby Sjælland
1085,Region Sjælland,265,Roskilde Kommune,4130,Viby Sjælland
1085,Region Sjælland,259,Køge Kommune,4140,Borup
1085,Region Sjælland,265,Roskilde Kommune,4140,Borup
1085,Region Sjælland,329,Ringsted Kommune,4140,Borup
1085,Region Sjælland,320,Faxe Kommune,4160,Herlufmagle
1085,Region Sjælland,370,Næstved Kommune,4160,Herlufmagle
1085,Region Sjælland,370,Næstved Kommune,4171,Glumsø
1085,Region Sjælland,329,Ringsted Kommune,4173,Fjenneslev
1085,Region Sjælland,340,Sorø Kommune,4173,Fjenneslev
1085,Region Sjælland,259,Køge Kommune,4174,Jystrup Midtsj
1085,Region Sjælland,329,Ringsted Kommune,4174,Jystrup Midtsj
1085,Region Sjælland,329,Ringsted Kommune,4180,Sorø
1085,Region Sjælland,330,Slagelse Kommune,4180,Sorø
1085,Region Sjælland,340,Sorø Kommune,4180,Sorø
1085,Region Sjælland,330,Slagelse Kommune,4190,Munke Bjergby
1085,Region Sjælland,340,Sorø Kommune,4190,Munke Bjergby
1085,Region Sjælland,326,Kalundborg Kommune,4200,Slagelse
1085,Region Sjælland,330,Slagelse Kommune,4200,Slagelse
1085,Region Sjælland,340,Sorø Kommune,4200,Slagelse
1085,Region Sjælland,370,Næstved Kommune,4200,Slagelse
1085,Region Sjælland,330,Slagelse Kommune,4220,Korsør
1085,Region Sjælland,330,Slagelse Kommune,4230,Skælskør
1085,Region Sjælland,330,Slagelse Kommune,4241,Vemmelev
1085,Region Sjælland,330,Slagelse Kommune,4242,Boeslunde
1085,Region Sjælland,330,Slagelse Kommune,4243,Rude
1085,Region Sjælland,370,Næstved Kommune,4243,Rude
1085,Region Sjælland,330,Slagelse Kommune,4250,Fuglebjerg
1085,Region Sjælland,370,Næstved Kommune,4250,Fuglebjerg
1085,Region Sjælland,330,Slagelse Kommune,4261,Dalmose
1085,Region Sjælland,370,Næstved Kommune,4261,Dalmose
1085,Region Sjælland,330,Slagelse Kommune,4262,Sandved
1085,Region Sjælland,370,Næstved Kommune,4262,Sandved
1085,Region Sjælland,326,Kalundborg Kommune,4270,Høng
1085,Region Sjælland,330,Slagelse Kommune,4270,Høng
1085,Region Sjælland,326,Kalundborg Kommune,4281,Gørlev
1085,Region Sjælland,326,Kalundborg Kommune,4291,Ruds Vedby
1085,Region Sjælland,340,Sorø Kommune,4291,Ruds Vedby
1085,Region Sjælland,326,Kalundborg Kommune,4293,Dianalund
1085,Region Sjælland,340,Sorø Kommune,4293,Dianalund
1085,Region Sjælland,316,Holbæk Kommune,4295,Stenlille
1085,Region Sjælland,340,Sorø Kommune,4295,Stenlille
1085,Region Sjælland,316,Holbæk Kommune,4296,Nyrup
1085,Region Sjælland,340,Sorø Kommune,4296,Nyrup
1085,Region Sjælland,316,Holbæk Kommune,4300,Holbæk
1085,Region Sjælland,259,Køge Kommune,4320,Lejre
1085,Region Sjælland,265,Roskilde Kommune,4320,Lejre
1085,Region Sjælland,350,Lejre Kommune,4320,Lejre
1085,Region Sjælland,316,Holbæk Kommune,4330,Hvalsø
1085,Region Sjælland,329,Ringsted Kommune,4330,Hvalsø
1085,Region Sjælland,350,Lejre Kommune,4330,Hvalsø
1085,Region Sjælland,316,Holbæk Kommune,4340,Tølløse
1085,Region Sjælland,350,Lejre Kommune,4340,Tølløse
1085,Region Sjælland,316,Holbæk Kommune,4350,Ugerløse
1085,Region Sjælland,316,Holbæk Kommune,4360,Kirke Eskilstrup
1085,Region Sjælland,329,Ringsted Kommune,4360,Kirke Eskilstrup
1085,Region Sjælland,316,Holbæk Kommune,4370,Store Merløse
1085,Region Sjælland,329,Ringsted Kommune,4370,Store Merløse
1085,Region Sjælland,340,Sorø Kommune,4370,Store Merløse
1085,Region Sjælland,316,Holbæk Kommune,4390,Vipperød
1085,Region Sjælland,326,Kalundborg Kommune,4400,Kalundborg
1085,Region Sjælland,316,Holbæk Kommune,4420,Regstrup
1085,Region Sjælland,316,Holbæk Kommune,4440,Mørkøv
1085,Region Sjælland,316,Holbæk Kommune,4450,Jyderup
1085,Region Sjælland,326,Kalundborg Kommune,4450,Jyderup
1085,Region Sjælland,316,Holbæk Kommune,4460,Snertinge
1085,Region Sjælland,326,Kalundborg Kommune,4460,Snertinge
1085,Region Sjælland,316,Holbæk Kommune,4470,Svebølle
1085,Region Sjælland,326,Kalundborg Kommune,4470,Svebølle
1085,Region Sjælland,326,Kalundborg Kommune,4480,Store Fuglede
1085,Region Sjælland,326,Kalundborg Kommune,4490,Jerslev Sjælland
1085,Region Sjælland,306,Odsherred Kommune,4500,Nykøbing Sj
1085,Region Sjælland,316,Holbæk Kommune,4520,Svinninge
1085,Region Sjælland,316,Holbæk Kommune,4532,Gislinge
1085,Region Sjælland,306,Odsherred Kommune,4534,Hørve
1085,Region Sjælland,326,Kalundborg Kommune,4534,Hørve
1085,Region Sjælland,306,Odsherred Kommune,4540,Fårevejle
1085,Region Sjælland,306,Odsherred Kommune,4550,Asnæs
1085,Region Sjælland,306,Odsherred Kommune,4560,Vig
1085,Region Sjælland,306,Odsherred Kommune,4571,Grevinge
1085,Region Sjælland,306,Odsherred Kommune,4572,Nørre Asmindrup
1085,Region Sjælland,306,Odsherred Kommune,4573,Højby
1085,Region Sjælland,306,Odsherred Kommune,4581,Rørvig
1085,Region Sjælland,306,Odsherred Kommune,4583,Sjællands Odde
1085,Region Sjælland,306,Odsherred Kommune,4591,Føllenslev
1085,Region Sjælland,326,Kalundborg Kommune,4591,Føllenslev
1085,Region Sjælland,326,Kalundborg Kommune,4592,Sejerø
1085,Region Sjælland,326,Kalundborg Kommune,4593,Eskebjerg
1085,Region Sjælland,259,Køge Kommune,4600,Køge
1085,Region Sjælland,336,Stevns Kommune,4600,Køge
1085,Region Sjælland,265,Roskilde Kommune,4621,Gadstrup
1085,Region Sjælland,265,Roskilde Kommune,4622,Havdrup
1085,Region Sjælland,269,Solrød Kommune,4622,Havdrup
1085,Region Sjælland,259,Køge Kommune,4623,Lille Skensved
1085,Region Sjælland,265,Roskilde Kommune,4623,Lille Skensved
1085,Region Sjælland,269,Solrød Kommune,4623,Lille Skensved
1085,Region Sjælland,259,Køge Kommune,4632,Bjæverskov
1085,Region Sjælland,320,Faxe Kommune,4640,Faxe
1085,Region Sjælland,370,Næstved Kommune,4640,Faxe
1085,Region Sjælland,320,Faxe Kommune,4652,Hårlev
1085,Region Sjælland,336,Stevns Kommune,4652,Hårlev
1085,Region Sjælland,320,Faxe Kommune,4653,Karise
1085,Region Sjælland,336,Stevns Kommune,4653,Karise
1085,Region Sjælland,320,Faxe Kommune,4654,Faxe Ladeplads
1085,Region Sjælland,336,Stevns Kommune,4660,Store Heddinge
1085,Region Sjælland,336,Stevns Kommune,4671,Strøby
1085,Region Sjælland,336,Stevns Kommune,4672,Klippinge
1085,Region Sjælland,336,Stevns Kommune,4673,Rødvig Stevns
1085,Region Sjælland,259,Køge Kommune,4681,Herfølge
1085,Region Sjælland,259,Køge Kommune,4682,Tureby
1085,Region Sjælland,320,Faxe Kommune,4682,Tureby
1085,Region Sjælland,336,Stevns Kommune,4682,Tureby
1085,Region Sjælland,320,Faxe Kommune,4683,Rønnede
1085,Region Sjælland,370,Næstved Kommune,4683,Rønnede
1085,Region Sjælland,320,Faxe Kommune,4684,Holmegaard
1085,Region Sjælland,370,Næstved Kommune,4684,Holmegaard
1085,Region Sjælland,320,Faxe Kommune,4690,Haslev
1085,Region Sjælland,329,Ringsted Kommune,4690,Haslev
1085,Region Sjælland,370,Næstved Kommune,4690,Haslev
1085,Region Sjælland,370,Næstved Kommune,4700,Næstved
1085,Region Sjælland,390,Vordingborg Kommune,4720,Præstø
1085,Region Sjælland,320,Faxe Kommune,4733,Tappernøje
1085,Region Sjælland,370,Næstved Kommune,4733,Tappernøje
1085,Region Sjælland,390,Vordingborg Kommune,4733,Tappernøje
1085,Region Sjælland,390,Vordingborg Kommune,4735,Mern
1085,Region Sjælland,370,Næstved Kommune,4736,Karrebæksminde
1085,Region Sjælland,370,Næstved Kommune,4750,Lundby
1085,Region Sjælland,390,Vordingborg Kommune,4750,Lundby
1085,Region Sjælland,390,Vordingborg Kommune,4760,Vordingborg
1085,Region Sjælland,390,Vordingborg Kommune,4771,Kalvehave
1085,Region Sjælland,390,Vordingborg Kommune,4772,Langebæk
1085,Region Sjælland,390,Vordingborg Kommune,4773,Stensved
1085,Region Sjælland,390,Vordingborg Kommune,4780,Stege
1085,Region Sjælland,390,Vordingborg Kommune,4791,Borre
1085,Region Sjælland,390,Vordingborg Kommune,4792,Askeby
1085,Region Sjælland,390,Vordingborg Kommune,4793,Bogø By
1085,Region Sjælland,376,Guldborgsund Kommune,4800,Nykøbing F
1085,Region Sjælland,376,Guldborgsund Kommune,4840,Nørre Alslev
1085,Region Sjælland,376,Guldborgsund Kommune,4850,Stubbekøbing
1085,Region Sjælland,376,Guldborgsund Kommune,4862,Guldborg
1085,Region Sjælland,376,Guldborgsund Kommune,4863,Eskilstrup
1085,Region Sjælland,376,Guldborgsund Kommune,4871,Horbelev
1085,Region Sjælland,376,Guldborgsund Kommune,4872,Idestrup
1085,Region Sjælland,376,Guldborgsund Kommune,4873,Væggerløse
1085,Region Sjælland,376,Guldborgsund Kommune,4874,Gedser
1085,Region Sjælland,376,Guldborgsund Kommune,4880,Nysted
1085,Region Sjælland,376,Guldborgsund Kommune,4891,Toreby L
1085,Region Sjælland,376,Guldborgsund Kommune,4892,Kettinge
1085,Region Sjælland,360,Lolland Kommune,4894,Øster Ulslev
1085,Region Sjælland,376,Guldborgsund Kommune,4894,Øster Ulslev
1085,Region Sjælland,360,Lolland Kommune,4895,Errindlev
1085,Region Sjælland,360,Lolland Kommune,4900,Nakskov
1085,Region Sjælland,360,Lolland Kommune,4912,Harpelunde
1085,Region Sjælland,360,Lolland Kommune,4913,Horslunde
1085,Region Sjælland,360,Lolland Kommune,4920,Søllested
1085,Region Sjælland,360,Lolland Kommune,4930,Maribo
1085,Region Sjælland,376,Guldborgsund Kommune,4930,Maribo
1085,Region Sjælland,360,Lolland Kommune,4941,Bandholm
1085,Region Sjælland,360,Lolland Kommune,4943,Torrig L
1085,Region Sjælland,360,Lolland Kommune,4944,Fejø
1085,Region Sjælland,360,Lolland Kommune,4951,Nørreballe
1085,Region Sjælland,360,Lolland Kommune,4952,Stokkemarke
1085,Region Sjælland,360,Lolland Kommune,4953,Vesterborg
1085,Region Sjælland,360,Lolland Kommune,4960,Holeby
1085,Region Sjælland,360,Lolland Kommune,4970,Rødby
1085,Region Sjælland,360,Lolland Kommune,4983,Dannemare
1085,Region Sjælland,376,Guldborgsund Kommune,4990,Sakskøbing
1083,Region Syddanmark,461,Odense Kommune,5000,Odense C
1083,Region Syddanmark,461,Odense Kommune,5200,Odense V
1083,Region Syddanmark,461,Odense Kommune,5210,Odense NV
1083,Region Syddanmark,461,Odense Kommune,5220,Odense SØ
1083,Region Syddanmark,461,Odense Kommune,5230,Odense M
1083,Region Syddanmark,461,Odense Kommune,5240,Odense NØ
1083,Region Syddanmark,461,Odense Kommune,5250,Odense SV
1083,Region Syddanmark,461,Odense Kommune,5260,Odense S
1083,Region Syddanmark,461,Odense Kommune,5270,Odense N
1083,Region Syddanmark,480,Nordfyns Kommune,5270,Odense N
1083,Region Syddanmark,440,Kerteminde Kommune,5290,Marslev
1083,Region Syddanmark,440,Kerteminde Kommune,5300,Kerteminde
1083,Region Syddanmark,461,Odense Kommune,5320,Agedrup
1083,Region Syddanmark,440,Kerteminde Kommune,5330,Munkebo
1083,Region Syddanmark,461,Odense Kommune,5330,Munkebo
1083,Region Syddanmark,440,Kerteminde Kommune,5350,Rynkeby
1083,Region Syddanmark,440,Kerteminde Kommune,5370,Mesinge
1083,Region Syddanmark,440,Kerteminde Kommune,5380,Dalby
1083,Region Syddanmark,440,Kerteminde Kommune,5390,Martofte
1083,Region Syddanmark,480,Nordfyns Kommune,5400,Bogense
1083,Region Syddanmark,480,Nordfyns Kommune,5450,Otterup
1083,Region Syddanmark,480,Nordfyns Kommune,5462,Morud
1083,Region Syddanmark,410,Middelfart Kommune,5463,Harndrup
1083,Region Syddanmark,410,Middelfart Kommune,5464,Brenderup Fyn
1083,Region Syddanmark,410,Middelfart Kommune,5466,Asperup
1083,Region Syddanmark,480,Nordfyns Kommune,5471,Søndersø
1083,Region Syddanmark,480,Nordfyns Kommune,5474,Veflinge
1083,Region Syddanmark,480,Nordfyns Kommune,5485,Skamby
1083,Region Syddanmark,461,Odense Kommune,5491,Blommenslyst
1083,Region Syddanmark,480,Nordfyns Kommune,5491,Blommenslyst
1083,Region Syddanmark,420,Assens Kommune,5492,Vissenbjerg
1083,Region Syddanmark,461,Odense Kommune,5492,Vissenbjerg
1083,Region Syddanmark,480,Nordfyns Kommune,5492,Vissenbjerg
1083,Region Syddanmark,410,Middelfart Kommune,5500,Middelfart
1083,Region Syddanmark,440,Kerteminde Kommune,5540,Ullerslev
1083,Region Syddanmark,450,Nyborg Kommune,5540,Ullerslev
1083,Region Syddanmark,430,Faaborg-Midtfyn Kommune,5550,Langeskov
1083,Region Syddanmark,440,Kerteminde Kommune,5550,Langeskov
1083,Region Syddanmark,450,Nyborg Kommune,5550,Langeskov
1083,Region Syddanmark,410,Middelfart Kommune,5560,Aarup
1083,Region Syddanmark,420,Assens Kommune,5560,Aarup
1083,Region Syddanmark,480,Nordfyns Kommune,5560,Aarup
1083,Region Syddanmark,410,Middelfart Kommune,5580,Nørre Aaby
1083,Region Syddanmark,410,Middelfart Kommune,5591,Gelsted
1083,Region Syddanmark,410,Middelfart Kommune,5592,Ejby
1083,Region Syddanmark,430,Faaborg-Midtfyn Kommune,5600,Faaborg
1083,Region Syddanmark,420,Assens Kommune,5610,Assens
1083,Region Syddanmark,420,Assens Kommune,5620,Glamsbjerg
1083,Region Syddanmark,420,Assens Kommune,5631,Ebberup
1083,Region Syddanmark,420,Assens Kommune,5642,Millinge
1083,Region Syddanmark,430,Faaborg-Midtfyn Kommune,5642,Millinge
1083,Region Syddanmark,430,Faaborg-Midtfyn Kommune,5672,Broby
1083,Region Syddanmark,420,Assens Kommune,5683,Haarby
1083,Region Syddanmark,420,Assens Kommune,5690,Tommerup
1083,Region Syddanmark,479,Svendborg Kommune,5700,Svendborg
1083,Region Syddanmark,430,Faaborg-Midtfyn Kommune,5750,Ringe
1083,Region Syddanmark,430,Faaborg-Midtfyn Kommune,5762,Vester Skerninge
1083,Region Syddanmark,479,Svendborg Kommune,5762,Vester Skerninge
1083,Region Syddanmark,430,Faaborg-Midtfyn Kommune,5771,Stenstrup
1083,Region Syddanmark,479,Svendborg Kommune,5771,Stenstrup
1083,Region Syddanmark,430,Faaborg-Midtfyn Kommune,5772,Kværndrup
1083,Region Syddanmark,479,Svendborg Kommune,5772,Kværndrup
1083,Region Syddanmark,430,Faaborg-Midtfyn Kommune,5792,Årslev
1083,Region Syddanmark,450,Nyborg Kommune,5800,Nyborg
1083,Region Syddanmark,430,Faaborg-Midtfyn Kommune,5853,Ørbæk
1083,Region Syddanmark,450,Nyborg Kommune,5853,Ørbæk
1083,Region Syddanmark,430,Faaborg-Midtfyn Kommune,5854,Gislev
1083,Region Syddanmark,479,Svendborg Kommune,5854,Gislev
1083,Region Syddanmark,430,Faaborg-Midtfyn Kommune,5856,Ryslinge
1083,Region Syddanmark,430,Faaborg-Midtfyn Kommune,5863,Ferritslev Fyn
1083,Region Syddanmark,440,Kerteminde Kommune,5863,Ferritslev Fyn
1083,Region Syddanmark,450,Nyborg Kommune,5871,Frørup
1083,Region Syddanmark,450,Nyborg Kommune,5874,Hesselager
1083,Region Syddanmark,479,Svendborg Kommune,5874,Hesselager
1083,Region Syddanmark,479,Svendborg Kommune,5881,Skårup Fyn
1083,Region Syddanmark,479,Svendborg Kommune,5882,Vejstrup
1083,Region Syddanmark,479,Svendborg Kommune,5883,Oure
1083,Region Syddanmark,479,Svendborg Kommune,5884,Gudme
1083,Region Syddanmark,479,Svendborg Kommune,5892,Gudbjerg Sydfyn
1083,Region Syddanmark,482,Langeland Kommune,5900,Rudkøbing
1083,Region Syddanmark,482,Langeland Kommune,5932,Humble
1083,Region Syddanmark,482,Langeland Kommune,5935,Bagenkop
1083,Region Syddanmark,482,Langeland Kommune,5953,Tranekær
1083,Region Syddanmark,492,Ærø Kommune,5960,Marstal
1083,Region Syddanmark,492,Ærø Kommune,5970,Ærøskøbing
1083,Region Syddanmark,492,Ærø Kommune,5985,Søby Ærø
1083,Region Syddanmark,621,Kolding Kommune,6000,Kolding
1083,Region Syddanmark,621,Kolding Kommune,6040,Egtved
1083,Region Syddanmark,630,Vejle Kommune,6040,Egtved
1083,Region Syddanmark,621,Kolding Kommune,6051,Almind
1083,Region Syddanmark,621,Kolding Kommune,6052,Viuf
1083,Region Syddanmark,630,Vejle Kommune,6052,Viuf
1083,Region Syddanmark,621,Kolding Kommune,6064,Jordrup
1083,Region Syddanmark,510,Haderslev Kommune,6070,Christiansfeld
1083,Region Syddanmark,621,Kolding Kommune,6070,Christiansfeld
1083,Region Syddanmark,621,Kolding Kommune,6091,Bjert
1083,Region Syddanmark,621,Kolding Kommune,6092,Sønder Stenderup
1083,Region Syddanmark,621,Kolding Kommune,6093,Sjølund
1083,Region Syddanmark,510,Haderslev Kommune,6094,Hejls
1083,Region Syddanmark,621,Kolding Kommune,6094,Hejls
1083,Region Syddanmark,510,Haderslev Kommune,6100,Haderslev
1083,Region Syddanmark,621,Kolding Kommune,6100,Haderslev
1083,Region Syddanmark,580,Aabenraa Kommune,6200,Aabenraa
1083,Region Syddanmark,580,Aabenraa Kommune,6230,Rødekro
1083,Region Syddanmark,550,Tønder Kommune,6240,Løgumkloster
1083,Region Syddanmark,550,Tønder Kommune,6261,Bredebro
1083,Region Syddanmark,550,Tønder Kommune,6270,Tønder
1083,Region Syddanmark,550,Tønder Kommune,6280,Højer
1083,Region Syddanmark,540,Sønderborg Kommune,6300,Gråsten
1083,Region Syddanmark,540,Sønderborg Kommune,6310,Broager
1083,Region Syddanmark,540,Sønderborg Kommune,6320,Egernsund
1083,Region Syddanmark,580,Aabenraa Kommune,6330,Padborg
1083,Region Syddanmark,580,Aabenraa Kommune,6340,Kruså
1083,Region Syddanmark,580,Aabenraa Kommune,6360,Tinglev
1083,Region Syddanmark,580,Aabenraa Kommune,6372,Bylderup-Bov
1083,Region Syddanmark,580,Aabenraa Kommune,6392,Bolderslev
1083,Region Syddanmark,540,Sønderborg Kommune,6400,Sønderborg
1083,Region Syddanmark,540,Sønderborg Kommune,6430,Nordborg
1083,Region Syddanmark,621,Kolding Kommune,6430,Nordborg
1083,Region Syddanmark,540,Sønderborg Kommune,6440,Augustenborg
1083,Region Syddanmark,540,Sønderborg Kommune,6470,Sydals
1083,Region Syddanmark,510,Haderslev Kommune,6500,Vojens
1083,Region Syddanmark,510,Haderslev Kommune,6510,Gram
1083,Region Syddanmark,510,Haderslev Kommune,6520,Toftlund
1083,Region Syddanmark,550,Tønder Kommune,6520,Toftlund
1083,Region Syddanmark,510,Haderslev Kommune,6534,Agerskov
1083,Region Syddanmark,550,Tønder Kommune,6534,Agerskov
1083,Region Syddanmark,580,Aabenraa Kommune,6534,Agerskov
1083,Region Syddanmark,550,Tønder Kommune,6535,Branderup J
1083,Region Syddanmark,510,Haderslev Kommune,6541,Bevtoft
1083,Region Syddanmark,550,Tønder Kommune,6541,Bevtoft
1083,Region Syddanmark,510,Haderslev Kommune,6560,Sommersted
1083,Region Syddanmark,621,Kolding Kommune,6560,Sommersted
1083,Region Syddanmark,621,Kolding Kommune,6580,Vamdrup
1083,Region Syddanmark,575,Vejen Kommune,6600,Vejen
1083,Region Syddanmark,575,Vejen Kommune,6621,Gesten
1083,Region Syddanmark,575,Vejen Kommune,6622,Bække
1083,Region Syddanmark,530,Billund Kommune,6623,Vorbasse
1083,Region Syddanmark,575,Vejen Kommune,6623,Vorbasse
1083,Region Syddanmark,630,Vejle Kommune,6623,Vorbasse
1083,Region Syddanmark,510,Haderslev Kommune,6630,Rødding
1083,Region Syddanmark,575,Vejen Kommune,6630,Rødding
1083,Region Syddanmark,621,Kolding Kommune,6640,Lunderskov
1083,Region Syddanmark,575,Vejen Kommune,6650,Brørup
1083,Region Syddanmark,575,Vejen Kommune,6660,Lintrup
1083,Region Syddanmark,561,Esbjerg Kommune,6670,Holsted
1083,Region Syddanmark,575,Vejen Kommune,6670,Holsted
1083,Region Syddanmark,530,Billund Kommune,6682,Hovborg
1083,Region Syddanmark,573,Varde Kommune,6682,Hovborg
1083,Region Syddanmark,575,Vejen Kommune,6682,Hovborg
1083,Region Syddanmark,561,Esbjerg Kommune,6683,Føvling
1083,Region Syddanmark,575,Vejen Kommune,6683,Føvling
1083,Region Syddanmark,561,Esbjerg Kommune,6690,Gørding
1083,Region Syddanmark,575,Vejen Kommune,6690,Gørding
1083,Region Syddanmark,561,Esbjerg Kommune,6700,Esbjerg
1083,Region Syddanmark,561,Esbjerg Kommune,6705,Esbjerg Ø
1083,Region Syddanmark,561,Esbjerg Kommune,6710,Esbjerg V
1083,Region Syddanmark,561,Esbjerg Kommune,6715,Esbjerg N
1083,Region Syddanmark,563,Fanø Kommune,6720,Fanø
1083,Region Syddanmark,561,Esbjerg Kommune,6731,Tjæreborg
1083,Region Syddanmark,561,Esbjerg Kommune,6740,Bramming
1083,Region Syddanmark,575,Vejen Kommune,6752,Glejbjerg
1083,Region Syddanmark,573,Varde Kommune,6753,Agerbæk
1083,Region Syddanmark,575,Vejen Kommune,6753,Agerbæk
1083,Region Syddanmark,561,Esbjerg Kommune,6760,Ribe
1083,Region Syddanmark,561,Esbjerg Kommune,6771,Gredstedbro
1083,Region Syddanmark,550,Tønder Kommune,6780,Skærbæk
1083,Region Syddanmark,550,Tønder Kommune,6792,Rømø
1083,Region Syddanmark,573,Varde Kommune,6800,Varde
1083,Region Syddanmark,561,Esbjerg Kommune,6818,Årre
1083,Region Syddanmark,573,Varde Kommune,6818,Årre
1083,Region Syddanmark,530,Billund Kommune,6823,Ansager
1083,Region Syddanmark,573,Varde Kommune,6823,Ansager
1082,Region Midtjylland,760,Ringkøbing-Skjern Kommune,6830,Nørre Nebel
1083,Region Syddanmark,573,Varde Kommune,6830,Nørre Nebel
1083,Region Syddanmark,573,Varde Kommune,6840,Oksbøl
1083,Region Syddanmark,573,Varde Kommune,6851,Janderup Vestj
1083,Region Syddanmark,573,Varde Kommune,6852,Billum
1083,Region Syddanmark,573,Varde Kommune,6853,Vejers Strand
1083,Region Syddanmark,573,Varde Kommune,6854,Henne
1083,Region Syddanmark,573,Varde Kommune,6855,Outrup
1083,Region Syddanmark,573,Varde Kommune,6857,Blåvand
1083,Region Syddanmark,573,Varde Kommune,6862,Tistrup
1082,Region Midtjylland,760,Ringkøbing-Skjern Kommune,6870,Ølgod
1083,Region Syddanmark,573,Varde Kommune,6870,Ølgod
1082,Region Midtjylland,760,Ringkøbing-Skjern Kommune,6880,Tarm
1083,Region Syddanmark,573,Varde Kommune,6880,Tarm
1082,Region Midtjylland,760,Ringkøbing-Skjern Kommune,6893,Hemmet
1082,Region Midtjylland,760,Ringkøbing-Skjern Kommune,6900,Skjern
1082,Region Midtjylland,760,Ringkøbing-Skjern Kommune,6920,Videbæk
1082,Region Midtjylland,657,Herning Kommune,6933,Kibæk
1082,Region Midtjylland,760,Ringkøbing-Skjern Kommune,6933,Kibæk
1082,Region Midtjylland,760,Ringkøbing-Skjern Kommune,6940,Lem St
1082,Region Midtjylland,760,Ringkøbing-Skjern Kommune,6950,Ringkøbing
1082,Region Midtjylland,760,Ringkøbing-Skjern Kommune,6960,Hvide Sande
1082,Region Midtjylland,760,Ringkøbing-Skjern Kommune,6971,Spjald
1082,Region Midtjylland,657,Herning Kommune,6973,Ørnhøj
1082,Region Midtjylland,760,Ringkøbing-Skjern Kommune,6973,Ørnhøj
1082,Region Midtjylland,760,Ringkøbing-Skjern Kommune,6980,Tim
1082,Region Midtjylland,657,Herning Kommune,6990,Ulfborg
1082,Region Midtjylland,661,Holstebro Kommune,6990,Ulfborg
1082,Region Midtjylland,665,Lemvig Kommune,6990,Ulfborg
1082,Region Midtjylland,760,Ringkøbing-Skjern Kommune,6990,Ulfborg
1083,Region Syddanmark,607,Fredericia Kommune,7000,Fredericia
1083,Region Syddanmark,630,Vejle Kommune,7000,Fredericia
1083,Region Syddanmark,607,Fredericia Kommune,7007,Fredericia
1083,Region Syddanmark,630,Vejle Kommune,7080,Børkop
1082,Region Midtjylland,766,Hedensted Kommune,7100,Vejle
1083,Region Syddanmark,630,Vejle Kommune,7100,Vejle
1082,Region Midtjylland,766,Hedensted Kommune,7120,Vejle Øst
1083,Region Syddanmark,630,Vejle Kommune,7120,Vejle Øst
1082,Region Midtjylland,766,Hedensted Kommune,7130,Juelsminde
1082,Region Midtjylland,766,Hedensted Kommune,7140,Stouby
1082,Region Midtjylland,766,Hedensted Kommune,7150,Barrit
1082,Region Midtjylland,766,Hedensted Kommune,7160,Tørring
1083,Region Syddanmark,630,Vejle Kommune,7160,Tørring
1082,Region Midtjylland,766,Hedensted Kommune,7171,Uldum
1083,Region Syddanmark,630,Vejle Kommune,7173,Vonge
1083,Region Syddanmark,630,Vejle Kommune,7182,Bredsten
1083,Region Syddanmark,630,Vejle Kommune,7183,Randbøl
1083,Region Syddanmark,630,Vejle Kommune,7184,Vandel
1083,Region Syddanmark,530,Billund Kommune,7190,Billund
1083,Region Syddanmark,630,Vejle Kommune,7190,Billund
1083,Region Syddanmark,530,Billund Kommune,7200,Grindsted
1083,Region Syddanmark,573,Varde Kommune,7200,Grindsted
1083,Region Syddanmark,630,Vejle Kommune,7200,Grindsted
1083,Region Syddanmark,530,Billund Kommune,7250,Hejnsvig
1082,Region Midtjylland,657,Herning Kommune,7260,Sønder Omme
1083,Region Syddanmark,530,Billund Kommune,7260,Sønder Omme
1082,Region Midtjylland,657,Herning Kommune,7270,Stakroge
1082,Region Midtjylland,760,Ringkøbing-Skjern Kommune,7270,Stakroge
1083,Region Syddanmark,530,Billund Kommune,7270,Stakroge
1082,Region Midtjylland,657,Herning Kommune,7280,Sønder Felding
1082,Region Midtjylland,760,Ringkøbing-Skjern Kommune,7280,Sønder Felding
1083,Region Syddanmark,630,Vejle Kommune,7300,Jelling
1083,Region Syddanmark,630,Vejle Kommune,7321,Gadbjerg
1082,Region Midtjylland,756,Ikast-Brande Kommune,7323,Give
1083,Region Syddanmark,630,Vejle Kommune,7323,Give
1082,Region Midtjylland,657,Herning Kommune,7330,Brande
1082,Region Midtjylland,756,Ikast-Brande Kommune,7330,Brande
1083,Region Syddanmark,630,Vejle Kommune,7330,Brande
1082,Region Midtjylland,756,Ikast-Brande Kommune,7361,Ejstrupholm
1083,Region Syddanmark,630,Vejle Kommune,7361,Ejstrupholm
1082,Region Midtjylland,740,Silkeborg Kommune,7362,Hampen
1082,Region Midtjylland,756,Ikast-Brande Kommune,7362,Hampen
1082,Region Midtjylland,657,Herning Kommune,7400,Herning
1082,Region Midtjylland,756,Ikast-Brande Kommune,7400,Herning
1082,Region Midtjylland,760,Ringkøbing-Skjern Kommune,7400,Herning
1082,Region Midtjylland,756,Ikast-Brande Kommune,7430,Ikast
1082,Region Midtjylland,740,Silkeborg Kommune,7441,Bording
1082,Region Midtjylland,756,Ikast-Brande Kommune,7441,Bording
1082,Region Midtjylland,740,Silkeborg Kommune,7442,Engesvang
1082,Region Midtjylland,756,Ikast-Brande Kommune,7442,Engesvang
1082,Region Midtjylland,657,Herning Kommune,7451,Sunds
1082,Region Midtjylland,756,Ikast-Brande Kommune,7451,Sunds
1082,Region Midtjylland,657,Herning Kommune,7470,Karup J
1082,Region Midtjylland,740,Silkeborg Kommune,7470,Karup J
1082,Region Midtjylland,791,Viborg Kommune,7470,Karup J
1082,Region Midtjylland,657,Herning Kommune,7480,Vildbjerg
1082,Region Midtjylland,760,Ringkøbing-Skjern Kommune,7480,Vildbjerg
1082,Region Midtjylland,657,Herning Kommune,7490,Aulum
1082,Region Midtjylland,657,Herning Kommune,7500,Holstebro
1082,Region Midtjylland,661,Holstebro Kommune,7500,Holstebro
1082,Region Midtjylland,671,Struer Kommune,7500,Holstebro
1082,Region Midtjylland,657,Herning Kommune,7540,Haderup
1082,Region Midtjylland,661,Holstebro Kommune,7540,Haderup
1082,Region Midtjylland,791,Viborg Kommune,7540,Haderup
1082,Region Midtjylland,657,Herning Kommune,7550,Sørvad
1082,Region Midtjylland,661,Holstebro Kommune,7560,Hjerm
1082,Region Midtjylland,671,Struer Kommune,7560,Hjerm
1082,Region Midtjylland,661,Holstebro Kommune,7570,Vemb
1082,Region Midtjylland,665,Lemvig Kommune,7570,Vemb
1082,Region Midtjylland,661,Holstebro Kommune,7600,Struer
1082,Region Midtjylland,665,Lemvig Kommune,7600,Struer
1082,Region Midtjylland,671,Struer Kommune,7600,Struer
1082,Region Midtjylland,665,Lemvig Kommune,7620,Lemvig
1082,Region Midtjylland,665,Lemvig Kommune,7650,Bøvlingbjerg
1082,Region Midtjylland,665,Lemvig Kommune,7660,Bækmarksbro
1082,Region Midtjylland,671,Struer Kommune,7660,Bækmarksbro
1082,Region Midtjylland,665,Lemvig Kommune,7673,Harboøre
1082,Region Midtjylland,665,Lemvig Kommune,7680,Thyborøn
1081,Region Nordjylland,787,Thisted Kommune,7700,Thisted
1081,Region Nordjylland,787,Thisted Kommune,7730,Hanstholm
1081,Region Nordjylland,787,Thisted Kommune,7741,Frøstrup
1081,Region Nordjylland,787,Thisted Kommune,7742,Vesløs
1081,Region Nordjylland,787,Thisted Kommune,7752,Snedsted
1081,Region Nordjylland,787,Thisted Kommune,7755,Bedsted Thy
1081,Region Nordjylland,787,Thisted Kommune,7760,Hurup Thy
1082,Region Midtjylland,671,Struer Kommune,7760,Hurup Thy
1081,Region Nordjylland,787,Thisted Kommune,7770,Vestervig
1082,Region Midtjylland,671,Struer Kommune,7790,Thyholm
1082,Region Midtjylland,661,Holstebro Kommune,7800,Skive
1082,Region Midtjylland,779,Skive Kommune,7800,Skive
1082,Region Midtjylland,791,Viborg Kommune,7800,Skive
1082,Region Midtjylland,657,Herning Kommune,7830,Vinderup
1082,Region Midtjylland,661,Holstebro Kommune,7830,Vinderup
1082,Region Midtjylland,671,Struer Kommune,7830,Vinderup
1082,Region Midtjylland,779,Skive Kommune,7830,Vinderup
1082,Region Midtjylland,779,Skive Kommune,7840,Højslev
1082,Region Midtjylland,791,Viborg Kommune,7840,Højslev
1082,Region Midtjylland,791,Viborg Kommune,7850,Stoholm Jyll
1082,Region Midtjylland,779,Skive Kommune,7860,Spøttrup
1082,Region Midtjylland,779,Skive Kommune,7870,Roslev
1082,Region Midtjylland,779,Skive Kommune,7884,Fur
1081,Region Nordjylland,773,Morsø Kommune,7900,Nykøbing M
1081,Region Nordjylland,773,Morsø Kommune,7950,Erslev
1081,Region Nordjylland,773,Morsø Kommune,7960,Karby
1081,Region Nordjylland,773,Morsø Kommune,7970,Redsted M
1081,Region Nordjylland,773,Morsø Kommune,7980,Vils
1081,Region Nordjylland,773,Morsø Kommune,7990,Øster Assels
1082,Region Midtjylland,751,Aarhus Kommune,8000,Aarhus C
1082,Region Midtjylland,751,Aarhus Kommune,8200,Aarhus N
1082,Region Midtjylland,751,Aarhus Kommune,8210,Aarhus V
1082,Region Midtjylland,751,Aarhus Kommune,8220,Brabrand
1082,Region Midtjylland,751,Aarhus Kommune,8230,Åbyhøj
1082,Region Midtjylland,751,Aarhus Kommune,8240,Risskov
1082,Region Midtjylland,751,Aarhus Kommune,8245,Risskov Ø
1082,Region Midtjylland,751,Aarhus Kommune,8250,Egå
1082,Region Midtjylland,751,Aarhus Kommune,8260,Viby J
1082,Region Midtjylland,751,Aarhus Kommune,8270,Højbjerg
1082,Region Midtjylland,727,Odder Kommune,8300,Odder
1082,Region Midtjylland,751,Aarhus Kommune,8300,Odder
1082,Region Midtjylland,741,Samsø Kommune,8305,Samsø
1082,Region Midtjylland,751,Aarhus Kommune,8310,Tranbjerg J
1082,Region Midtjylland,751,Aarhus Kommune,8320,Mårslet
1082,Region Midtjylland,751,Aarhus Kommune,8330,Beder
1082,Region Midtjylland,727,Odder Kommune,8340,Malling
1082,Region Midtjylland,751,Aarhus Kommune,8340,Malling
1082,Region Midtjylland,727,Odder Kommune,8350,Hundslund
1082,Region Midtjylland,751,Aarhus Kommune,8355,Solbjerg
1082,Region Midtjylland,751,Aarhus Kommune,8361,Hasselager
1082,Region Midtjylland,746,Skanderborg Kommune,8362,Hørning
1082,Region Midtjylland,751,Aarhus Kommune,8362,Hørning
1082,Region Midtjylland,710,Favrskov Kommune,8370,Hadsten
1082,Region Midtjylland,710,Favrskov Kommune,8380,Trige
1082,Region Midtjylland,751,Aarhus Kommune,8380,Trige
1082,Region Midtjylland,751,Aarhus Kommune,8381,Tilst
1082,Region Midtjylland,710,Favrskov Kommune,8382,Hinnerup
1082,Region Midtjylland,751,Aarhus Kommune,8382,Hinnerup
1082,Region Midtjylland,706,Syddjurs Kommune,8400,Ebeltoft
1082,Region Midtjylland,706,Syddjurs Kommune,8410,Rønde
1082,Region Midtjylland,706,Syddjurs Kommune,8420,Knebel
1082,Region Midtjylland,706,Syddjurs Kommune,8444,Balle
1082,Region Midtjylland,707,Norddjurs Kommune,8444,Balle
1082,Region Midtjylland,710,Favrskov Kommune,8450,Hammel
1082,Region Midtjylland,740,Silkeborg Kommune,8450,Hammel
1082,Region Midtjylland,751,Aarhus Kommune,8462,Harlev J
1082,Region Midtjylland,746,Skanderborg Kommune,8464,Galten
1082,Region Midtjylland,751,Aarhus Kommune,8464,Galten
1082,Region Midtjylland,710,Favrskov Kommune,8471,Sabro
1082,Region Midtjylland,746,Skanderborg Kommune,8471,Sabro
1082,Region Midtjylland,751,Aarhus Kommune,8471,Sabro
1082,Region Midtjylland,710,Favrskov Kommune,8472,Sporup
1082,Region Midtjylland,740,Silkeborg Kommune,8472,Sporup
1082,Region Midtjylland,746,Skanderborg Kommune,8472,Sporup
1082,Region Midtjylland,707,Norddjurs Kommune,8500,Grenaa
1082,Region Midtjylland,751,Aarhus Kommune,8520,Lystrup
1082,Region Midtjylland,751,Aarhus Kommune,8530,Hjortshøj
1082,Region Midtjylland,751,Aarhus Kommune,8541,Skødstrup
1082,Region Midtjylland,706,Syddjurs Kommune,8543,Hornslet
1082,Region Midtjylland,751,Aarhus Kommune,8543,Hornslet
1082,Region Midtjylland,706,Syddjurs Kommune,8544,Mørke
1082,Region Midtjylland,706,Syddjurs Kommune,8550,Ryomgård
1082,Region Midtjylland,707,Norddjurs Kommune,8550,Ryomgård
1082,Region Midtjylland,706,Syddjurs Kommune,8560,Kolind
1082,Region Midtjylland,707,Norddjurs Kommune,8560,Kolind
1082,Region Midtjylland,706,Syddjurs Kommune,8570,Trustrup
1082,Region Midtjylland,707,Norddjurs Kommune,8570,Trustrup
1082,Region Midtjylland,706,Syddjurs Kommune,8581,Nimtofte
1082,Region Midtjylland,707,Norddjurs Kommune,8581,Nimtofte
1082,Region Midtjylland,707,Norddjurs Kommune,8585,Glesborg
1082,Region Midtjylland,707,Norddjurs Kommune,8586,Ørum Djurs
1082,Region Midtjylland,707,Norddjurs Kommune,8592,Anholt
1082,Region Midtjylland,740,Silkeborg Kommune,8600,Silkeborg
1082,Region Midtjylland,746,Skanderborg Kommune,8600,Silkeborg
1082,Region Midtjylland,756,Ikast-Brande Kommune,8600,Silkeborg
1082,Region Midtjylland,740,Silkeborg Kommune,8620,Kjellerup
1082,Region Midtjylland,791,Viborg Kommune,8620,Kjellerup
1082,Region Midtjylland,740,Silkeborg Kommune,8632,Lemming
1082,Region Midtjylland,710,Favrskov Kommune,8641,Sorring
1082,Region Midtjylland,740,Silkeborg Kommune,8641,Sorring
1082,Region Midtjylland,740,Silkeborg Kommune,8643,Ans By
1082,Region Midtjylland,791,Viborg Kommune,8643,Ans By
1082,Region Midtjylland,740,Silkeborg Kommune,8653,Them
1082,Region Midtjylland,615,Horsens Kommune,8654,Bryrup
1082,Region Midtjylland,740,Silkeborg Kommune,8654,Bryrup
1082,Region Midtjylland,756,Ikast-Brande Kommune,8654,Bryrup
1082,Region Midtjylland,615,Horsens Kommune,8660,Skanderborg
1082,Region Midtjylland,727,Odder Kommune,8660,Skanderborg
1082,Region Midtjylland,746,Skanderborg Kommune,8660,Skanderborg
1082,Region Midtjylland,751,Aarhus Kommune,8660,Skanderborg
1082,Region Midtjylland,746,Skanderborg Kommune,8670,Låsby
1082,Region Midtjylland,615,Horsens Kommune,8680,Ry
1082,Region Midtjylland,740,Silkeborg Kommune,8680,Ry
1082,Region Midtjylland,746,Skanderborg Kommune,8680,Ry
1082,Region Midtjylland,615,Horsens Kommune,8700,Horsens
1082,Region Midtjylland,766,Hedensted Kommune,8700,Horsens
1082,Region Midtjylland,766,Hedensted Kommune,8721,Daugård
1082,Region Midtjylland,766,Hedensted Kommune,8722,Hedensted
1082,Region Midtjylland,766,Hedensted Kommune,8723,Løsning
1082,Region Midtjylland,615,Horsens Kommune,8732,Hovedgård
1082,Region Midtjylland,615,Horsens Kommune,8740,Brædstrup
1082,Region Midtjylland,740,Silkeborg Kommune,8740,Brædstrup
1082,Region Midtjylland,615,Horsens Kommune,8751,Gedved
1082,Region Midtjylland,746,Skanderborg Kommune,8751,Gedved
1082,Region Midtjylland,615,Horsens Kommune,8752,Østbirk
1082,Region Midtjylland,615,Horsens Kommune,8762,Flemming
1082,Region Midtjylland,766,Hedensted Kommune,8762,Flemming
1082,Region Midtjylland,766,Hedensted Kommune,8763,Rask Mølle
1082,Region Midtjylland,615,Horsens Kommune,8765,Klovborg
1082,Region Midtjylland,756,Ikast-Brande Kommune,8765,Klovborg
1082,Region Midtjylland,756,Ikast-Brande Kommune,8766,Nørre Snede
1082,Region Midtjylland,766,Hedensted Kommune,8766,Nørre Snede
1082,Region Midtjylland,615,Horsens Kommune,8781,Stenderup
1082,Region Midtjylland,766,Hedensted Kommune,8781,Stenderup
1082,Region Midtjylland,615,Horsens Kommune,8783,Hornsyld
1082,Region Midtjylland,766,Hedensted Kommune,8783,Hornsyld
1082,Region Midtjylland,740,Silkeborg Kommune,8800,Viborg
1082,Region Midtjylland,791,Viborg Kommune,8800,Viborg
1082,Region Midtjylland,791,Viborg Kommune,8830,Tjele
1082,Region Midtjylland,791,Viborg Kommune,8831,Løgstrup
1082,Region Midtjylland,791,Viborg Kommune,8832,Skals
1082,Region Midtjylland,740,Silkeborg Kommune,8840,Rødkærsbro
1082,Region Midtjylland,791,Viborg Kommune,8840,Rødkærsbro
1082,Region Midtjylland,710,Favrskov Kommune,8850,Bjerringbro
1082,Region Midtjylland,791,Viborg Kommune,8850,Bjerringbro
1082,Region Midtjylland,710,Favrskov Kommune,8860,Ulstrup
1082,Region Midtjylland,730,Randers Kommune,8860,Ulstrup
1082,Region Midtjylland,791,Viborg Kommune,8860,Ulstrup
1082,Region Midtjylland,710,Favrskov Kommune,8870,Langå
1082,Region Midtjylland,730,Randers Kommune,8870,Langå
1082,Region Midtjylland,710,Favrskov Kommune,8881,Thorsø
1082,Region Midtjylland,740,Silkeborg Kommune,8881,Thorsø
1082,Region Midtjylland,710,Favrskov Kommune,8882,Fårvang
1082,Region Midtjylland,740,Silkeborg Kommune,8882,Fårvang
1082,Region Midtjylland,740,Silkeborg Kommune,8883,Gjern
1082,Region Midtjylland,730,Randers Kommune,8900,Randers C
1082,Region Midtjylland,730,Randers Kommune,8920,Randers NV
1082,Region Midtjylland,710,Favrskov Kommune,8930,Randers NØ
1082,Region Midtjylland,730,Randers Kommune,8930,Randers NØ
1082,Region Midtjylland,710,Favrskov Kommune,8940,Randers SV
1082,Region Midtjylland,730,Randers Kommune,8940,Randers SV
1082,Region Midtjylland,707,Norddjurs Kommune,8950,Ørsted
1082,Region Midtjylland,710,Favrskov Kommune,8960,Randers SØ
1082,Region Midtjylland,730,Randers Kommune,8960,Randers SØ
1082,Region Midtjylland,707,Norddjurs Kommune,8961,Allingåbro
1082,Region Midtjylland,706,Syddjurs Kommune,8963,Auning
1082,Region Midtjylland,707,Norddjurs Kommune,8963,Auning
1081,Region Nordjylland,846,Mariagerfjord Kommune,8970,Havndal
1082,Region Midtjylland,730,Randers Kommune,8970,Havndal
1082,Region Midtjylland,730,Randers Kommune,8981,Spentrup
1082,Region Midtjylland,730,Randers Kommune,8983,Gjerlev J
1081,Region Nordjylland,846,Mariagerfjord Kommune,8990,Fårup
1082,Region Midtjylland,730,Randers Kommune,8990,Fårup
1081,Region Nordjylland,851,Aalborg Kommune,9000,Aalborg
1081,Region Nordjylland,851,Aalborg Kommune,9200,Aalborg SV
1081,Region Nordjylland,851,Aalborg Kommune,9210,Aalborg SØ
1081,Region Nordjylland,851,Aalborg Kommune,9220,Aalborg Øst
1081,Region Nordjylland,840,Rebild Kommune,9230,Svenstrup J
1081,Region Nordjylland,851,Aalborg Kommune,9230,Svenstrup J
1081,Region Nordjylland,820,Vesthimmerlands Kommune,9240,Nibe
1081,Region Nordjylland,840,Rebild Kommune,9240,Nibe
1081,Region Nordjylland,851,Aalborg Kommune,9240,Nibe
1081,Region Nordjylland,840,Rebild Kommune,9260,Gistrup
1081,Region Nordjylland,851,Aalborg Kommune,9260,Gistrup
1081,Region Nordjylland,851,Aalborg Kommune,9270,Klarup
1081,Region Nordjylland,851,Aalborg Kommune,9280,Storvorde
1081,Region Nordjylland,840,Rebild Kommune,9293,Kongerslev
1081,Region Nordjylland,851,Aalborg Kommune,9293,Kongerslev
1081,Region Nordjylland,813,Frederikshavn Kommune,9300,Sæby
1081,Region Nordjylland,851,Aalborg Kommune,9310,Vodskov
1081,Region Nordjylland,810,Brønderslev Kommune,9320,Hjallerup
1081,Region Nordjylland,851,Aalborg Kommune,9320,Hjallerup
1081,Region Nordjylland,810,Brønderslev Kommune,9330,Dronninglund
1081,Region Nordjylland,813,Frederikshavn Kommune,9330,Dronninglund
1081,Region Nordjylland,810,Brønderslev Kommune,9340,Asaa
1081,Region Nordjylland,813,Frederikshavn Kommune,9340,Asaa
1081,Region Nordjylland,810,Brønderslev Kommune,9352,Dybvad
1081,Region Nordjylland,813,Frederikshavn Kommune,9352,Dybvad
1081,Region Nordjylland,851,Aalborg Kommune,9362,Gandrup
1081,Region Nordjylland,810,Brønderslev Kommune,9370,Hals
1081,Region Nordjylland,851,Aalborg Kommune,9370,Hals
1081,Region Nordjylland,851,Aalborg Kommune,9380,Vestbjerg
1081,Region Nordjylland,849,Jammerbugt Kommune,9381,Sulsted
1081,Region Nordjylland,851,Aalborg Kommune,9381,Sulsted
1081,Region Nordjylland,810,Brønderslev Kommune,9382,Tylstrup
1081,Region Nordjylland,849,Jammerbugt Kommune,9382,Tylstrup
1081,Region Nordjylland,851,Aalborg Kommune,9382,Tylstrup
1081,Region Nordjylland,851,Aalborg Kommune,9400,Nørresundby
1081,Region Nordjylland,849,Jammerbugt Kommune,9430,Vadum
1081,Region Nordjylland,851,Aalborg Kommune,9430,Vadum
1081,Region Nordjylland,810,Brønderslev Kommune,9440,Aabybro
1081,Region Nordjylland,849,Jammerbugt Kommune,9440,Aabybro
1081,Region Nordjylland,851,Aalborg Kommune,9440,Aabybro
1081,Region Nordjylland,849,Jammerbugt Kommune,9460,Brovst
1081,Region Nordjylland,810,Brønderslev Kommune,9480,Løkken
1081,Region Nordjylland,849,Jammerbugt Kommune,9480,Løkken
1081,Region Nordjylland,860,Hjørring Kommune,9480,Løkken
1081,Region Nordjylland,849,Jammerbugt Kommune,9490,Pandrup
1081,Region Nordjylland,849,Jammerbugt Kommune,9492,Blokhus
1081,Region Nordjylland,849,Jammerbugt Kommune,9493,Saltum
1081,Region Nordjylland,840,Rebild Kommune,9500,Hobro
1081,Region Nordjylland,846,Mariagerfjord Kommune,9500,Hobro
1082,Region Midtjylland,791,Viborg Kommune,9500,Hobro
1081,Region Nordjylland,840,Rebild Kommune,9510,Arden
1081,Region Nordjylland,846,Mariagerfjord Kommune,9510,Arden
1081,Region Nordjylland,840,Rebild Kommune,9520,Skørping
1081,Region Nordjylland,840,Rebild Kommune,9530,Støvring
1081,Region Nordjylland,851,Aalborg Kommune,9530,Støvring
1081,Region Nordjylland,820,Vesthimmerlands Kommune,9541,Suldrup
1081,Region Nordjylland,840,Rebild Kommune,9541,Suldrup
1081,Region Nordjylland,846,Mariagerfjord Kommune,9550,Mariager
1082,Region Midtjylland,730,Randers Kommune,9550,Mariager
1081,Region Nordjylland,840,Rebild Kommune,9560,Hadsund
1081,Region Nordjylland,846,Mariagerfjord Kommune,9560,Hadsund
1081,Region Nordjylland,840,Rebild Kommune,9574,Bælum
1081,Region Nordjylland,840,Rebild Kommune,9575,Terndrup
1081,Region Nordjylland,820,Vesthimmerlands Kommune,9600,Aars
1081,Region Nordjylland,840,Rebild Kommune,9600,Aars
1081,Region Nordjylland,820,Vesthimmerlands Kommune,9610,Nørager
1081,Region Nordjylland,840,Rebild Kommune,9610,Nørager
1081,Region Nordjylland,820,Vesthimmerlands Kommune,9620,Aalestrup
1081,Region Nordjylland,840,Rebild Kommune,9620,Aalestrup
1081,Region Nordjylland,846,Mariagerfjord Kommune,9620,Aalestrup
1082,Region Midtjylland,791,Viborg Kommune,9620,Aalestrup
1081,Region Nordjylland,820,Vesthimmerlands Kommune,9631,Gedsted
1082,Region Midtjylland,791,Viborg Kommune,9631,Gedsted
1081,Region Nordjylland,846,Mariagerfjord Kommune,9632,Møldrup
1082,Region Midtjylland,791,Viborg Kommune,9632,Møldrup
1081,Region Nordjylland,820,Vesthimmerlands Kommune,9640,Farsø
1081,Region Nordjylland,820,Vesthimmerlands Kommune,9670,Løgstør
1081,Region Nordjylland,849,Jammerbugt Kommune,9670,Løgstør
1081,Region Nordjylland,820,Vesthimmerlands Kommune,9681,Ranum
1081,Region Nordjylland,849,Jammerbugt Kommune,9690,Fjerritslev
1081,Region Nordjylland,810,Brønderslev Kommune,9700,Brønderslev
1081,Region Nordjylland,849,Jammerbugt Kommune,9700,Brønderslev
1081,Region Nordjylland,810,Brønderslev Kommune,9740,Jerslev J
1081,Region Nordjylland,860,Hjørring Kommune,9740,Jerslev J
1081,Region Nordjylland,810,Brønderslev Kommune,9750,Østervrå
1081,Region Nordjylland,813,Frederikshavn Kommune,9750,Østervrå
1081,Region Nordjylland,860,Hjørring Kommune,9750,Østervrå
1081,Region Nordjylland,810,Brønderslev Kommune,9760,Vrå
1081,Region Nordjylland,860,Hjørring Kommune,9760,Vrå
1081,Region Nordjylland,860,Hjørring Kommune,9800,Hjørring
1081,Region Nordjylland,813,Frederikshavn Kommune,9830,Tårs
1081,Region Nordjylland,860,Hjørring Kommune,9830,Tårs
1081,Region Nordjylland,860,Hjørring Kommune,9850,Hirtshals
1081,Region Nordjylland,813,Frederikshavn Kommune,9870,Sindal
1081,Region Nordjylland,860,Hjørring Kommune,9870,Sindal
1081,Region Nordjylland,813,Frederikshavn Kommune,9881,Bindslev
1081,Region Nordjylland,860,Hjørring Kommune,9881,Bindslev
1081,Region Nordjylland,813,Frederikshavn Kommune,9900,Frederikshavn
1081,Region Nordjylland,860,Hjørring Kommune,9900,Frederikshavn
1081,Region Nordjylland,825,Læsø Kommune,9940,Læsø
1081,Region Nordjylland,813,Frederikshavn Kommune,9970,Strandby
1081,Region Nordjylland,813,Frederikshavn Kommune,9981,Jerup
1081,Region Nordjylland,813,Frederikshavn Kommune,9982,Ålbæk
1081,Region Nordjylland,860,Hjørring Kommune,9982,Ålbæk
1081,Region Nordjylland,813,Frederikshavn Kommune,9990,Skagen