FID,wkb_geometry,long,lat,name,vejnavn,husnr,address,chargeType,betalingszone,ladestandertype,antal_udtag,operator,bem
elbil_ladestander.1,MULTIPOINT ((12.598284226099 55.676634371546804)),12.59828423,55.67663437,Bodenhoffs Plads elbil_ladestander.1,Bodenhoffs Plads,,Bodenhoffs Plads , ,,,2,,Opstillet 1. juli 2015
elbil_ladestander.2,MULTIPOINT ((12.561984006579376 55.67637674327139)),12.56198401,55.67637674,Vester Farimagsgade elbil_ladestander.2,Vester Farimagsgade,17,Vester Farimagsgade 17,Grøn betalingszone ,Grøn betalingszone,,2,CLEVER,Quick Charge stander
elbil_ladestander.3,MULTIPOINT ((12.599515346298215 55.66496309599651)),12.59951535,55.6649631,Hollænderdybet elbil_ladestander.3,Hollænderdybet,2,Hollænderdybet 2,Blå betalingszone ,Blå betalingszone,,2,E-On,
elbil_ladestander.4,MULTIPOINT ((12.573054534493345 55.67906348898651)),12.57305453,55.67906349,Dyrkøb elbil_ladestander.4,Dyrkøb,3,Dyrkøb 3,Rød betalingszone ,Rød betalingszone,,2,Lets Go/Delebilfonden,ChoosEV
elbil_ladestander.5,MULTIPOINT ((12.573121211720052 55.67907827840602)),12.57312121,55.67907828,Dyrkøb elbil_ladestander.5,Dyrkøb,3,Dyrkøb 3,Rød betalingszone ,Rød betalingszone,,2,E-On,
elbil_ladestander.6,MULTIPOINT ((12.573192976626617 55.679094633371825)),12.57319298,55.67909463,Dyrkøb elbil_ladestander.6,Dyrkøb,3,Dyrkøb 3,Rød betalingszone ,Rød betalingszone,,2,E-On,
elbil_ladestander.7,MULTIPOINT ((12.573259223027174 55.6791111491119)),12.57325922,55.67911115,Dyrkøb elbil_ladestander.7,Dyrkøb,1,Dyrkøb 1,Rød betalingszone ,Rød betalingszone,,2,MoveAbout,
elbil_ladestander.8,MULTIPOINT ((12.573324479616886 55.67912894425247)),12.57332448,55.67912894,Dyrkøb elbil_ladestander.8,Dyrkøb,1,Dyrkøb 1,Rød betalingszone ,Rød betalingszone,,2,MoveAbout,
elbil_ladestander.9,MULTIPOINT ((12.586166468489829 55.699132713610595)),12.58616647,55.69913271,Livjægergade elbil_ladestander.9,Livjægergade,37,Livjægergade 37,Blå betalingszone ,Blå betalingszone,,1,E-On,Opstillet 2. nov. 2011
elbil_ladestander.10,MULTIPOINT ((12.586200623389912 55.69908730777065)),12.58620062,55.69908731,Livjægergade elbil_ladestander.10,Livjægergade,37,Livjægergade 37,Blå betalingszone ,Blå betalingszone,,1,E-On,Opstillet 2. nov. 2011
elbil_ladestander.11,MULTIPOINT ((12.58623468204548 55.69904126769314)),12.58623468,55.69904127,Livjægergade elbil_ladestander.11,Livjægergade,37,Livjægergade 37,Blå betalingszone ,Blå betalingszone,,2,E-On,Opstilet 2. nov. 2011
elbil_ladestander.12,MULTIPOINT ((12.592898567198864 55.67321435687856)),12.59289857,55.67321436,Sankt Annæ Gade elbil_ladestander.12,Sankt Annæ Gade,13,Sankt Annæ Gade 13,Grøn betalingszone ,Grøn betalingszone,,2,E-On,
elbil_ladestander.13,MULTIPOINT ((12.59295935656069 55.673182201215695)),12.59295936,55.6731822,Sankt Annæ Gade elbil_ladestander.13,Sankt Annæ Gade,13,Sankt Annæ Gade 13,Grøn betalingszone ,Grøn betalingszone,,2,E-On,
elbil_ladestander.14,MULTIPOINT ((12.551290967566398 55.70589487612353)),12.55129097,55.70589488,Sigynsgade elbil_ladestander.14,Sigynsgade,64,Sigynsgade 64,Uden for betalingszonen 11kW,Uden for betalingszonen,11kW,2,E.On Danmark,Afventer opstilling
elbil_ladestander.15,MULTIPOINT ((12.570589839171888 55.69324100512045)),12.57058984,55.69324101,Lundingsgade elbil_ladestander.15,Lundingsgade,1,Lundingsgade 1,Blå betalingszone 11kW,Blå betalingszone,11kW,2,E.On Danmark,Afventer opstilling
elbil_ladestander.16,MULTIPOINT ((12.482757005422249 55.66551418351656)),12.48275701,55.66551418,Hansstedvej elbil_ladestander.16,Hansstedvej,18,Hansstedvej 18,Uden for betalingszonen 11kW,Uden for betalingszonen,11kW,2,E.On Danmark,Afventer opstilling
elbil_ladestander.17,MULTIPOINT ((12.568881399281459 55.70349660227469)),12.5688814,55.7034966,Øster Allé elbil_ladestander.17,Øster Allé,,Øster Allé ,Blå betalingszone 11kW,Blå betalingszone,11kW,2,E.On Danmark,Afventer opstilling
elbil_ladestander.18,MULTIPOINT ((12.552231825133966 55.69470635500662)),12.55223183,55.69470636,Asnæsgade elbil_ladestander.18,Asnæsgade,2,Asnæsgade 2,Blå betalingszone ,Blå betalingszone,,2,E-On,
elbil_ladestander.19,MULTIPOINT ((12.552327925642832 55.694728623554816)),12.55232793,55.69472862,Asnæsgade elbil_ladestander.19,Asnæsgade,2,Asnæsgade 2,Blå betalingszone ,Blå betalingszone,,2,E-On,
elbil_ladestander.20,MULTIPOINT ((12.563607795407318 55.68315269298166)),12.5636078,55.68315269,Kjels Langes Gade elbil_ladestander.20,Kjels Langes Gade,8,Kjels Langes Gade 8,Grøn betalingszone 11kW,Grøn betalingszone,11kW,2,E.On Danmark,
elbil_ladestander.21,MULTIPOINT ((12.597295962114167 55.68870575795846)),12.59729596,55.68870576,Churchillparken elbil_ladestander.21,Churchillparken,6,Churchillparken 6,Grøn betalingszone ,Grøn betalingszone,,2,E-On,
elbil_ladestander.22,MULTIPOINT ((12.597333293472182 55.688748759436564)),12.59733329,55.68874876,Churchillparken elbil_ladestander.22,Churchillparken,6,Churchillparken 6,Grøn betalingszone ,Grøn betalingszone,,2,E-On,
elbil_ladestander.23,MULTIPOINT ((12.569148311167178 55.70335296865668)),12.56914831,55.70335297,Øster Allé elbil_ladestander.23,Øster Allé,,Øster Allé ,Blå betalingszone 11kW,Blå betalingszone,11kW,2,E.On Danmark,Afventer opstilling
elbil_ladestander.24,MULTIPOINT ((12.564862219351886 55.67096548275428)),12.56486222,55.67096548,Reventlowsgade elbil_ladestander.24,Reventlowsgade,30,Reventlowsgade 30,Grøn betalingszone 11kW,Grøn betalingszone,11kW,2,E.On Danmark,Afventer opstilling
elbil_ladestander.25,MULTIPOINT ((12.582210270567744 55.68692864768825)),12.58221027,55.68692865,Rigensgade elbil_ladestander.25,Rigensgade,9F,Rigensgade 9F,Grøn betalingszone ,Grøn betalingszone,,2,E-On,
elbil_ladestander.26,MULTIPOINT ((12.582255433999881 55.686979986092254)),12.58225543,55.68697999,Rigensgade elbil_ladestander.26,Rigensgade,9F,Rigensgade 9F,Grøn betalingszone ,Grøn betalingszone,,2,E-On,
elbil_ladestander.27,MULTIPOINT ((12.582298398334 55.68703098052178)),12.5822984,55.68703098,Rigensgade elbil_ladestander.27,Rigensgade,9F,Rigensgade 9F,Grøn betalingszone ,Grøn betalingszone,,2,E-On,
elbil_ladestander.28,MULTIPOINT ((12.517635312437294 55.6627685997119)),12.51763531,55.6627686,Rasmus Rask Vej elbil_ladestander.28,Rasmus Rask Vej,10,Rasmus Rask Vej 10,Udenfor betalingsområdet ,Udenfor betalingsområdet,,2,E-On,
elbil_ladestander.29,MULTIPOINT ((12.517678105633507 55.66281964687341)),12.51767811,55.66281965,Rasmus Rask Vej elbil_ladestander.29,Rasmus Rask Vej,8,Rasmus Rask Vej 8,Udenfor betalingsområdet ,Udenfor betalingsområdet,,2,E-On,
elbil_ladestander.30,MULTIPOINT ((12.517722396132353 55.66287503339587)),12.5177224,55.66287503,Rasmus Rask Vej elbil_ladestander.30,Rasmus Rask Vej,10,Rasmus Rask Vej 10,Udenfor betalingsområdet ,Udenfor betalingsområdet,,2,E-On,
elbil_ladestander.31,MULTIPOINT ((12.554146551972691 55.66876889434979)),12.55414655,55.66876889,Skydebanegade elbil_ladestander.31,Skydebanegade,14,Skydebanegade 14,Blå betalingszone ,Blå betalingszone,,2,E-On,
elbil_ladestander.32,MULTIPOINT ((12.554169684995426 55.66871162336772)),12.55416968,55.66871162,Skydebanegade elbil_ladestander.32,Skydebanegade,14,Skydebanegade 14,Blå betalingszone ,Blå betalingszone,,2,E-On,
elbil_ladestander.33,MULTIPOINT ((12.583200559193045 55.6753989960389)),12.58320056,55.675399,Slotsholmsgade elbil_ladestander.33,Slotsholmsgade,8,Slotsholmsgade 8,Blå betalingszone ,Blå betalingszone,,2,E-On,
elbil_ladestander.34,MULTIPOINT ((12.583325004289524 55.675370513082605)),12.583325,55.67537051,Slotsholmsgade elbil_ladestander.34,Slotsholmsgade,8,Slotsholmsgade 8,Blå betalingszone ,Blå betalingszone,,2,E-On,
elbil_ladestander.35,MULTIPOINT ((12.569197495229497 55.67086093877322)),12.5691975,55.67086094,Stoltenbergsgade elbil_ladestander.35,Stoltenbergsgade,11,Stoltenbergsgade 11,Blå betalingszone ,Blå betalingszone,,2,E-On,Opstillet 2009
elbil_ladestander.36,MULTIPOINT ((12.569149593539361 55.670829077672344)),12.56914959,55.67082908,Stoltenbergsgade elbil_ladestander.36,Stoltenbergsgade,11,Stoltenbergsgade 11,Blå betalingszone ,Blå betalingszone,,2,E-On,Opstillet 2009
elbil_ladestander.37,MULTIPOINT ((12.564821606819972 55.671008829391035)),12.56482161,55.67100883,Reventlowsgade elbil_ladestander.37,Reventlowsgade,30,Reventlowsgade 30,Grøn betalingszone 11kW,Grøn betalingszone,11kW,2,E.On Danmark,Afventer opstilling
elbil_ladestander.38,MULTIPOINT ((12.559048232091401 55.67611111672526)),12.55904823,55.67611112,Vester Søgade elbil_ladestander.38,Vester Søgade,10,Vester Søgade 10,Grøn betalingszone ,Grøn betalingszone,,2,E-On,
elbil_ladestander.39,MULTIPOINT ((12.5590363530588 55.676070770812245)),12.55903635,55.67607077,Vester Søgade elbil_ladestander.39,Vester Søgade,10,Vester Søgade 10,Grøn betalingszone ,Grøn betalingszone,,2,E-On,
elbil_ladestander.40,MULTIPOINT ((12.569549991671378 55.67614349718307)),12.56954999,55.6761435,Rådhuspladsen elbil_ladestander.40,Rådhuspladsen,-,Rådhuspladsen -,Rød betalingszone ,Rød betalingszone,,2,E-On,Opstillet i 2012
elbil_ladestander.41,MULTIPOINT ((12.569435072711652 55.67620181443079)),12.56943507,55.67620181,Rådhuspladsen elbil_ladestander.41,Rådhuspladsen,-,Rådhuspladsen -,Rød betalingszone ,Rød betalingszone,,2,E-On,Opstillet i 2012
elbil_ladestander.42,MULTIPOINT ((12.568183783683276 55.68061987460758)),12.56818378,55.68061987,Nørre Voldgade elbil_ladestander.42,Nørre Voldgade,30,Nørre Voldgade 30,Rød betalingszone ,Rød betalingszone,,2,E-On,
elbil_ladestander.43,MULTIPOINT ((12.568143714461428 55.680587725841924)),12.56814371,55.68058773,Nørre Voldgade elbil_ladestander.43,Nørre Voldgade,30,Nørre Voldgade 30,Rød betalingszone ,Rød betalingszone,,2,E-On,
elbil_ladestander.44,MULTIPOINT ((12.56809953170199 55.680552451819786)),12.56809953,55.68055245,Nørre Voldgade elbil_ladestander.44,Nørre Voldgade,30,Nørre Voldgade 30,Rød betalingszone ,Rød betalingszone,,2,E-On,
elbil_ladestander.45,MULTIPOINT ((12.561618800988226 55.671382831950815)),12.5616188,55.67138283,Helgolandsgade elbil_ladestander.45,Helgolandsgade,17,Helgolandsgade 17,Grøn betalingszone ,Grøn betalingszone,,2,CLEVER,
elbil_ladestander.46,MULTIPOINT ((12.555753166332423 55.684258683986855)),12.55575317,55.68425868,Blågårdsgade elbil_ladestander.46,Blågårdsgade,57,Blågårdsgade 57,Blå betalingszone ,Blå betalingszone,,2,E-On,Ialt 4 El-bil pladser
elbil_ladestander.47,MULTIPOINT ((12.555723647527637 55.684246074861726)),12.55572365,55.68424607,Blågårdsgade elbil_ladestander.47,Blågårdsgade,57,Blågårdsgade 57,Blå betalingszone ,Blå betalingszone,,2,E-On,Ialt 4 El-bil pladser
elbil_ladestander.48,MULTIPOINT ((12.55569650883428 55.684234679102524)),12.55569651,55.68423468,Blågårdsgade elbil_ladestander.48,Blågårdsgade,57,Blågårdsgade 57,Blå betalingszone ,Blå betalingszone,,2,E-On,Ialt 4 El-bil pladser
elbil_ladestander.49,MULTIPOINT ((12.555669428251255 55.68422392284541)),12.55566943,55.68422392,Blågårdsgade elbil_ladestander.49,Blågårdsgade,57,Blågårdsgade 57,Blå betalingszone ,Blå betalingszone,,2,E-On,Ialt 4 El-bil pladser
elbil_ladestander.50,MULTIPOINT ((12.555646817391638 55.68421239578999)),12.55564682,55.6842124,Blågårdsgade elbil_ladestander.50,Blågårdsgade,57,Blågårdsgade 57,Blå betalingszone ,Blå betalingszone,,2,E-On,Ialt 4 El-bil pladser
elbil_ladestander.51,MULTIPOINT ((12.555622058832064 55.68420221338822)),12.55562206,55.68420221,Blågårdsgade elbil_ladestander.51,Blågårdsgade,57,Blågårdsgade 57,Blå betalingszone ,Blå betalingszone,,2,E-On,Ialt 4 El-bil pladser
elbil_ladestander.52,MULTIPOINT ((12.564774025481404 55.671055306811425)),12.56477403,55.67105531,Reventlowsgade elbil_ladestander.52,Reventlowsgade,28,Reventlowsgade 28,Grøn betalingszone 11kW,Grøn betalingszone,11kW,2,E.On Danmark,Afventer opstilling
elbil_ladestander.53,MULTIPOINT ((12.575510217545322 55.71600483596399)),12.57551022,55.71600484,Edvard Griegs Gade elbil_ladestander.53,Edvard Griegs Gade,2,Edvard Griegs Gade 2,Uden for betalingszonen 11kW,Uden for betalingszonen,11kW,2,E.On Danmark,Afventer opstilling
elbil_ladestander.54,MULTIPOINT ((12.584769965899627 55.6833330746254)),12.58476997,55.68333307,Borgergade elbil_ladestander.54,Borgergade,14,Borgergade 14,Grøn betalingszone ,Grøn betalingszone,,2,Københavns Kommune,
elbil_ladestander.55,MULTIPOINT ((12.58474786687209 55.683344453151314)),12.58474787,55.68334445,Borgergade elbil_ladestander.55,Borgergade,14,Borgergade 14,Grøn betalingszone ,Grøn betalingszone,,2,Københavns Kommune,
elbil_ladestander.56,MULTIPOINT ((12.584778488852693 55.68334316769265)),12.58477849,55.68334317,Borgergade elbil_ladestander.56,Borgergade,14,Borgergade 14,Grøn betalingszone ,Grøn betalingszone,,2,Københavns Kommune,
elbil_ladestander.57,MULTIPOINT ((12.584970374326048 55.683561993939236)),12.58497037,55.68356199,Borgergade elbil_ladestander.57,Borgergade,16,Borgergade 16,Grøn betalingszone ,Grøn betalingszone,,2,Københavns Kommune,
elbil_ladestander.58,MULTIPOINT ((12.563687223394432 55.68312887126555)),12.56368722,55.68312887,Kjeld Langes Gade elbil_ladestander.58,Kjeld Langes Gade,6,Kjeld Langes Gade 6,Grøn betalingszone 11kW,Grøn betalingszone,11kW,2,E.On Danmark,
elbil_ladestander.59,MULTIPOINT ((12.605423231755912 55.66061215653914)),12.60542323,55.66061216,Frankrigsgade elbil_ladestander.59,Frankrigsgade,2,Frankrigsgade 2,Blå betalingszone ,Blå betalingszone,,2,E-On,
elbil_ladestander.60,MULTIPOINT ((12.605499908078794 55.66064767306284)),12.60549991,55.66064767,Frankrigsgade elbil_ladestander.60,Frankrigsgade,2,Frankrigsgade 2,Blå betalingszone ,Blå betalingszone,,2,E-On,
elbil_ladestander.61,MULTIPOINT ((12.570343657301 55.69640440325815)),12.57034366,55.6964044,Frederik V's Vej elbil_ladestander.61,Frederik V's Vej,2,Frederik V's Vej 2,Blå betalingszone ,Blå betalingszone,,2,E-On,
elbil_ladestander.62,MULTIPOINT ((12.570293599252341 55.696435511179)),12.5702936,55.69643551,Frederik V's Vej elbil_ladestander.62,Frederik V's Vej,2,Frederik V's Vej 2,Blå betalingszone ,Blå betalingszone,,2,E-On,
elbil_ladestander.63,MULTIPOINT ((12.575409872893653 55.715996633350045)),12.57540987,55.71599663,Edvard Griegs Gade elbil_ladestander.63,Edvard Griegs Gade,2,Edvard Griegs Gade 2,Uden for betalingszonen 11kW,Uden for betalingszonen,11kW,2,E.On Danmark,Afventer opstilling
elbil_ladestander.64,MULTIPOINT ((12.580812899936534 55.706733189600115)),12.5808129,55.70673319,Koldinggade elbil_ladestander.64,Koldinggade,18,Koldinggade 18,Blå betalingszone 11kW,Blå betalingszone,11kW,2,E.On Danmark,
elbil_ladestander.65,MULTIPOINT ((12.604766927801492 55.645864140681596)),12.60476693,55.64586414,Sundbyvestervej elbil_ladestander.65,Sundbyvestervej,59,Sundbyvestervej 59,Uden for betalingszonen 11kW,Uden for betalingszonen,11kW,2,E.On Danmark,
elbil_ladestander.66,MULTIPOINT ((12.488340431960152 55.68263940833202)),12.48834043,55.68263941,Hyltebjerg Allé elbil_ladestander.66,Hyltebjerg Allé,12,Hyltebjerg Allé 12,Udenfor betalingsområdet ,Udenfor betalingsområdet,,2,E-On,
elbil_ladestander.67,MULTIPOINT ((12.488438470188967 55.68264047574066)),12.48843847,55.68264048,Hyltebjerg Allé elbil_ladestander.67,Hyltebjerg Allé,12,Hyltebjerg Allé 12,Udenfor betalingsområdet ,Udenfor betalingsområdet,,2,E-On,
elbil_ladestander.68,MULTIPOINT ((12.579902237583115 55.66930694317324)),12.57990224,55.66930694,Islands Brygge elbil_ladestander.68,Islands Brygge,1B,Islands Brygge 1B,Blå betalingszone ,Blå betalingszone,,2,E-On,
elbil_ladestander.69,MULTIPOINT ((12.579967414227683 55.66928818072914)),12.57996741,55.66928818,Islands Brygge elbil_ladestander.69,Islands Brygge,1B,Islands Brygge 1B,Blå betalingszone ,Blå betalingszone,,2,E-On,
elbil_ladestander.70,MULTIPOINT ((12.50958398004916 55.66632032403999)),12.50958398,55.66632032,Horsekildevej elbil_ladestander.70,Horsekildevej,3,Horsekildevej 3,Udenfor betalingsområdet ,Udenfor betalingsområdet,,2,E-On,
elbil_ladestander.71,MULTIPOINT ((12.50958638559499 55.66626187836803)),12.50958639,55.66626188,Horsekildevej elbil_ladestander.71,Horsekildevej,3,Horsekildevej 3,Udenfor betalingsområdet ,Udenfor betalingsområdet,,2,E-On,
elbil_ladestander.72,MULTIPOINT ((12.556062285519513 55.68222206434415)),12.55606229,55.68222206,Herman Triers Plads elbil_ladestander.72,Herman Triers Plads,1,Herman Triers Plads 1,Blå betalingszone ,Blå betalingszone,,2,E-On,
elbil_ladestander.73,MULTIPOINT ((12.555965434283687 55.682242556647694)),12.55596543,55.68224256,Herman Triers Plads elbil_ladestander.73,Herman Triers Plads,1,Herman Triers Plads 1,Blå betalingszone ,Blå betalingszone,,2,E-On,
elbil_ladestander.74,MULTIPOINT ((12.555799131156736 55.68428117252852)),12.55579913,55.68428117,Blågårdsgade elbil_ladestander.74,Blågårdsgade,57,Blågårdsgade 57,Blå betalingszone ,Blå betalingszone,,2,Delebilfonden,Ialt 4 El-bil pladser
elbil_ladestander.75,MULTIPOINT ((12.587964640807614 55.696448409683)),12.58796464,55.69644841,Kastelsvej elbil_ladestander.75,Kastelsvej,60,Kastelsvej 60,Blå betalingszone ,Blå betalingszone,,2,E-On,
elbil_ladestander.76,MULTIPOINT ((12.588047548466337 55.696461523081695)),12.58804755,55.69646152,Kastelsvej elbil_ladestander.76,Kastelsvej,60,Kastelsvej 60,Blå betalingszone ,Blå betalingszone,,2,E-On,
elbil_ladestander.77,MULTIPOINT ((12.588132491841511 55.696474105994945)),12.58813249,55.69647411,Kastelsvej elbil_ladestander.77,Kastelsvej,60,Kastelsvej 60,Blå betalingszone ,Blå betalingszone,,2,E-On,
elbil_ladestander.78,MULTIPOINT ((12.544656457577808 55.693923536953776)),12.54465646,55.69392354,Husumgade elbil_ladestander.78,Husumgade,32,Husumgade 32,Udenfor betalingsområdet ,Udenfor betalingsområdet,,2,E-On,
elbil_ladestander.79,MULTIPOINT ((12.544709408213194 55.693886917635055)),12.54470941,55.69388692,Husumgade elbil_ladestander.79,Husumgade,30,Husumgade 30,Udenfor betalingsområdet ,Udenfor betalingsområdet,,2,E-On,
elbil_ladestander.80,MULTIPOINT ((12.587182931322587 55.670161153153)),12.58718293,55.67016115,Overgaden oven Vandet elbil_ladestander.80,Overgaden oven Vandet,2,Overgaden oven Vandet 2,Grøn betalingszone ,Grøn betalingszone,,2,E-On,
elbil_ladestander.81,MULTIPOINT ((12.587230034189197 55.6701557056345)),12.58723003,55.67015571,Overgaden oven Vandet elbil_ladestander.81,Overgaden oven Vandet,2,Overgaden oven Vandet 2,Grøn betalingszone ,Grøn betalingszone,,2,E-On,
elbil_ladestander.82,MULTIPOINT ((12.539174391113304 55.66846970035165)),12.53917439,55.6684697,Lundbyesgade elbil_ladestander.82,Lundbyesgade,12,Lundbyesgade 12,Blå betalingszone 22kW,Blå betalingszone,22kW,2,CleanCharge,Afventer opstilling
elbil_ladestander.83,MULTIPOINT ((12.58986402609804 55.706194275353845)),12.58986403,55.70619428,Hjørringgade elbil_ladestander.83,Hjørringgade,18B,Hjørringgade 18B,Blå betalingszone ,Blå betalingszone,,2,E-On,
elbil_ladestander.84,MULTIPOINT ((12.589771657033735 55.70618564677664)),12.58977166,55.70618565,Hjørringgade elbil_ladestander.84,Hjørringgade,18B,Hjørringgade 18B,Blå betalingszone ,Blå betalingszone,,2,E-On,
elbil_ladestander.85,MULTIPOINT ((12.518071954984789 55.70646238307264)),12.51807195,55.70646238,Frederikssundsvej elbil_ladestander.85,Frederikssundsvej,109,Frederikssundsvej 109,Udenfor betalingsområdet ,Udenfor betalingsområdet,,2,E-On,
elbil_ladestander.86,MULTIPOINT ((12.518175114408685 55.706448044517096)),12.51817511,55.70644804,Frederikssundsvej elbil_ladestander.86,Frederikssundsvej,109,Frederikssundsvej 109,Udenfor betalingsområdet ,Udenfor betalingsområdet,,2,E-On,
elbil_ladestander.87,MULTIPOINT ((12.539996043647783 55.654396547404886)),12.53999604,55.65439655,Gamle Vasbygade elbil_ladestander.87,Gamle Vasbygade,49,Gamle Vasbygade 49,Udenfor betalingsområdet ,Udenfor betalingsområdet,,2,E-On,
elbil_ladestander.88,MULTIPOINT ((12.54002491594355 55.65435860988559)),12.54002492,55.65435861,Gamle Vasbygade elbil_ladestander.88,Gamle Vasbygade,49,Gamle Vasbygade 49,Udenfor betalingsområdet ,Udenfor betalingsområdet,,2,E-On,
elbil_ladestander.89,MULTIPOINT ((12.581989871677429 55.68240384590205)),12.58198987,55.68240385,Gothersgade elbil_ladestander.89,Gothersgade,52,Gothersgade 52,Rød betalingszone ,Rød betalingszone,,2,E-On,
elbil_ladestander.90,MULTIPOINT ((12.581887581233882 55.68243162226125)),12.58188758,55.68243162,Gothersgade elbil_ladestander.90,Gothersgade,52,Gothersgade 52,Rød betalingszone ,Rød betalingszone,,2,E-On,
elbil_ladestander.91,MULTIPOINT ((12.575447767910129 55.66555024393807)),12.57544777,55.66555024,Halfdansgade elbil_ladestander.91,Halfdansgade,1,Halfdansgade 1,Blå betalingszone ,Blå betalingszone,,2,E-On,Færdig 2009
elbil_ladestander.92,MULTIPOINT ((12.575528550591343 55.6655165306771)),12.57552855,55.66551653,Haldansgade elbil_ladestander.92,Haldansgade,1,Haldansgade 1,Blå betalingszone ,Blå betalingszone,,2,E-On,Færdig 2009
elbil_ladestander.93,MULTIPOINT ((12.612314768753123 55.667280633865104)),12.61231477,55.66728063,Prags Boulevard elbil_ladestander.93,Prags Boulevard,,Prags Boulevard ,Uden for betalingszonen 11kW,Uden for betalingszonen,11kW,2,E.On Dnmark,
elbil_ladestander.94,MULTIPOINT ((12.612390217126562 55.667296851241815)),12.61239022,55.66729685,Prags Boulevard elbil_ladestander.94,Prags Boulevard,,Prags Boulevard ,Uden for betalingszonen 11kW,Uden for betalingszonen,11kW,2,E.On Danmark,
elbil_ladestander.95,MULTIPOINT ((12.612240348489356 55.66726377146659)),12.61224035,55.66726377,Prags Boulevard elbil_ladestander.95,Prags Boulevard,,Prags Boulevard ,Uden for betalingszonen 11kW,Uden for betalingszonen,11kW,2,E.On Danmark,
elbil_ladestander.96,MULTIPOINT ((12.558977684281999 55.70862011001072)),12.55897768,55.70862011,Ragnagade elbil_ladestander.96,Ragnagade,11,Ragnagade 11,Uden for betalignszonen 11kW,Uden for betalignszonen,11kW,2,E.On Danmark,
elbil_ladestander.97,MULTIPOINT ((12.565541855938925 55.67832052676275)),12.56554186,55.67832053,Jarmers Plads elbil_ladestander.97,Jarmers Plads,,Jarmers Plads ,Rød betalingszone ,Rød betalingszone,,2,E-On,færdig 2009
elbil_ladestander.98,MULTIPOINT ((12.565596480625786 55.67828866265773)),12.56559648,55.67828866,Jarmers Plads elbil_ladestander.98,Jarmers Plads,,Jarmers Plads ,Rød betalingszone ,Rød betalingszone,,2,E-On,færdig 2009
elbil_ladestander.99,MULTIPOINT ((12.558886196135349 55.70860770491724)),12.5588862,55.7086077,Ragnagade elbil_ladestander.99,Ragnagade,15,Ragnagade 15,Uden for betalingszonen 11kW,Uden for betalingszonen,11kW,2,E.On Danmark,
elbil_ladestander.100,MULTIPOINT ((12.613548822904518 55.652810289264785)),12.61354882,55.65281029,Parmagade elbil_ladestander.100,Parmagade,18,Parmagade 18,Udenfor betalingsområdet ,Udenfor betalingsområdet,,2,E-On,
elbil_ladestander.101,MULTIPOINT ((12.613466293490442 55.65279577682551)),12.61346629,55.65279578,Parmagade elbil_ladestander.101,Parmagade,18,Parmagade 18,Udenfor betalingsområdet ,Udenfor betalingsområdet,,2,E-On,
elbil_ladestander.102,MULTIPOINT ((12.530880756383143 55.69970625763935)),12.53088076,55.69970626,Vibevej elbil_ladestander.102,Vibevej,20,Vibevej 20,Uden for betalingszonen 11kW,Uden for betalingszonen,11kW,2,E.On Danmark,
elbil_ladestander.103,MULTIPOINT ((12.58040035206814 55.68073616366155)),12.58040035,55.68073616,Pilestræde elbil_ladestander.103,Pilestræde,34,Pilestræde 34,Rød betalingszone ,Rød betalingszone,,2,E-On,
elbil_ladestander.104,MULTIPOINT ((12.575106181695 55.70828899893836)),12.57510618,55.708289,Borgmester Jensens Allé elbil_ladestander.104,Borgmester Jensens Allé,5,Borgmester Jensens Allé 5,Blå betalingszone ,Blå betalingszone,,2,E.On Danmark,
elbil_ladestander.105,MULTIPOINT ((12.57174905938228 55.684854462412886)),12.57174906,55.68485446,Linnésgade elbil_ladestander.105,Linnésgade,28,Linnésgade 28,Rød betalingszone ,Rød betalingszone,,2,E-On,
elbil_ladestander.106,MULTIPOINT ((12.571691282676193 55.68480593926447)),12.57169128,55.68480594,Linnésgade elbil_ladestander.106,Linnésgade,28,Linnésgade 28,Rød betalingszone ,Rød betalingszone,,2,E-On,
elbil_ladestander.107,MULTIPOINT ((12.561180835496874 55.71138927806324)),12.56118084,55.71138928,Omøgade elbil_ladestander.107,Omøgade,1,Omøgade 1,Uden for betalingszonen 11kW,Uden for betalingszonen,11kW,2,E.On Danmark,Afventer opstilling
elbil_ladestander.108,MULTIPOINT ((12.543486828232306 55.668738485892185)),12.54348683,55.66873849,Rejsbygade elbil_ladestander.108,Rejsbygade,,Rejsbygade ,Blå betalingszone ,Blå betalingszone,,2,E-On,I Rejsbygade P-anlæg
elbil_ladestander.109,MULTIPOINT ((12.54346321474925 55.66873376861854)),12.54346321,55.66873377,Rejsbygade elbil_ladestander.109,Rejsbygade,,Rejsbygade ,Blå betalingszone ,Blå betalingszone,,2,E-On,I Rejsbygade P-anlæg
elbil_ladestander.110,MULTIPOINT ((12.56126198757984 55.71140331996236)),12.56126199,55.71140332,Omøgade elbil_ladestander.110,Omøgade,1,Omøgade 1,Uden for betalingszonen 11kW,Uden for betalingszonen,11kW,2,E.On Danmark,Afventer opstilling
elbil_ladestander.111,MULTIPOINT ((12.578323915947704 55.69944620393017)),12.57832392,55.6994462,Odensegade elbil_ladestander.111,Odensegade,2,Odensegade 2,Blå betalingszone ,Blå betalingszone,,2,E-On,
elbil_ladestander.112,MULTIPOINT ((12.586590195104774 55.68541454739064)),12.5865902,55.68541455,Borgergade elbil_ladestander.112,Borgergade,30,Borgergade 30,Grøn betalingszone 11kW,Grøn betalingszone,11kW,2,E.On Danmark,
elbil_ladestander.113,MULTIPOINT ((12.578420341539443 55.699470773684006)),12.57842034,55.69947077,Odensegade elbil_ladestander.113,Odensegade,2,Odensegade 2,Blå betalingszone ,Blå betalingszone,,2,E-On,
elbil_ladestander.114,MULTIPOINT ((12.540227723800932 55.698616827440475)),12.54022772,55.69861683,Esromgade elbil_ladestander.114,Esromgade,12,Esromgade 12,Udenfor betalingsområdet ,Udenfor betalingsområdet,,2,E-On,
elbil_ladestander.115,MULTIPOINT ((12.545508353792837 55.70292589506664)),12.54550835,55.7029259,Heimdalsgade elbil_ladestander.115,Heimdalsgade,43,Heimdalsgade 43, 11kW,,11kW,2,E.On Danmark,Afventer opstilling
elbil_ladestander.116,MULTIPOINT ((12.545451584353334 55.70289474415024)),12.54545158,55.70289474,Heimdalsgade elbil_ladestander.116,Heimdalsgade,43,Heimdalsgade 43, 11kW,,11kW,2,E.On Danmark,Afventer opstilling
elbil_ladestander.117,MULTIPOINT ((12.562228924444726 55.686952188718024)),12.56222892,55.68695219,Peblinge Dossering elbil_ladestander.117,Peblinge Dossering,1B,Peblinge Dossering 1B,Blå betalingszone 11kW,Blå betalingszone,11kW,2,E.On Danmark,Afventer opstilling
elbil_ladestander.118,MULTIPOINT ((12.562313277191697 55.68702408346074)),12.56231328,55.68702408,Peblinge Dossering elbil_ladestander.118,Peblinge Dossering,1B,Peblinge Dossering 1B,Blå betalingszone 11kW,Blå betalingszone,11kW,2,E.On Danmark,Afventer opstilling
elbil_ladestander.119,MULTIPOINT ((12.53576631935449 55.64854718932171)),12.53576632,55.64854719,Borgmester Christiansens Gade elbil_ladestander.119,Borgmester Christiansens Gade,32,Borgmester Christiansens Gade 32,Uden for betalingszonen 11kW,Uden for betalingszonen,11kW,2,E.On Danmark,Afventer opstilling
elbil_ladestander.120,MULTIPOINT ((12.535869536521163 55.64851056683241)),12.53586954,55.64851057,Borgmester Christiansens Gade elbil_ladestander.120,Borgmester Christiansens Gade,32,Borgmester Christiansens Gade 32,Uden for betalingszonen 11kW,Uden for betalingszonen,11kW,2,E.On Danmark,Afventer opstilling
elbil_ladestander.121,MULTIPOINT ((12.59938397188672 55.6649282241552)),12.59938397,55.66492822,Hollænderdybet elbil_ladestander.121,Hollænderdybet,2,Hollænderdybet 2,Blå betalingszone 11kW,Blå betalingszone,11kW,2,E.On Danmark,
elbil_ladestander.122,MULTIPOINT ((12.570524003547291 55.69629362929928)),12.570524,55.69629363,Frederik V?s Vej elbil_ladestander.122,Frederik V?s Vej,,Frederik V?s Vej ,Blå betalingszone 11kW,Blå betalingszone,11kW,2,,
elbil_ladestander.123,MULTIPOINT ((12.57047171385076 55.696323393971085)),12.57047171,55.69632339,Frederik V?s Vej elbil_ladestander.123,Frederik V?s Vej,,Frederik V?s Vej ,Blå betalingszone 11kW,Blå betalingszone,11kW,2,,
elbil_ladestander.124,MULTIPOINT ((12.581794843553599 55.682458694870185)),12.58179484,55.68245869,Gothersgade elbil_ladestander.124,Gothersgade,52,Gothersgade 52,Rød betalingszone 11kW,Rød betalingszone,11kW,2,E.On Danmark,
elbil_ladestander.125,MULTIPOINT ((12.526224010784993 55.64755829695406)),12.52622401,55.6475583,Hammelstrupvej elbil_ladestander.125,Hammelstrupvej,8,Hammelstrupvej 8, 11kW,,11kW,2,E.On Danmark,
elbil_ladestander.126,MULTIPOINT ((12.636525538866444 55.64540968147101)),12.63652554,55.64540968,Hedegaardsvej elbil_ladestander.126,Hedegaardsvej,,Hedegaardsvej ,Uden for betalingszonen 11kW,Uden for betalingszonen,11kW,2,E.On Danmark,
elbil_ladestander.127,MULTIPOINT ((12.63663107739955 55.6454225318302)),12.63663108,55.64542253,Hedegaardsvej elbil_ladestander.127,Hedegaardsvej,,Hedegaardsvej ,Uden for betalingszonen 11kW,Uden for betalingszonen,11kW,2,E.On Danmark,
elbil_ladestander.128,MULTIPOINT ((12.589683692288327 55.70617733276315)),12.58968369,55.70617733,Hjørringgade elbil_ladestander.128,Hjørringgade,18B,Hjørringgade 18B, 11kW,,11kW,2,E.On Danmark,
elbil_ladestander.129,MULTIPOINT ((12.587125428481606 55.670166697897976)),12.58712543,55.6701667,Overgaden oven Vandet elbil_ladestander.129,Overgaden oven Vandet,,Overgaden oven Vandet ,Grøn betalingszone 11kW,Grøn betalingszone,11kW,2,E.On Danmark,
elbil_ladestander.130,MULTIPOINT ((12.592611500928761 55.67267007873495)),12.5926115,55.67267008,Mikkel Vibes Gade elbil_ladestander.130,Mikkel Vibes Gade,5,Mikkel Vibes Gade 5,Grøn betalingszone 22kW,Grøn betalingszone,22kW,2,CLEVER A/S,
elbil_ladestander.131,MULTIPOINT ((12.59302818174812 55.673145308409005)),12.59302818,55.67314531,SAntk Annæ GAde elbil_ladestander.131,SAntk Annæ GAde,15,SAntk Annæ GAde 15,Grøn betalingszone 11kW,Grøn betalingszone,11kW,2,E.On Danmark,
elbil_ladestander.132,MULTIPOINT ((12.592835244751328 55.673247466793306)),12.59283524,55.67324747,Sankt Annæ Gade elbil_ladestander.132,Sankt Annæ Gade,13,Sankt Annæ Gade 13,Grøn betalingszone 11kW,Grøn betalingszone,11kW,2,E.On Danmark,Reserveret til el-delebiler
elbil_ladestander.133,MULTIPOINT ((12.540872621328921 55.692626794471714)),12.54087262,55.69262679,Stefansgade elbil_ladestander.133,Stefansgade,44,Stefansgade 44,Uden for betalingszonen 11kW,Uden for betalingszonen,11kW,2,E.On Danmark,
elbil_ladestander.134,MULTIPOINT ((12.540827160819907 55.692581392456894)),12.54082716,55.69258139,Stefansgade elbil_ladestander.134,Stefansgade,46,Stefansgade 46,Uden for betalingszonen 11kW,Uden for betalingszonen,11kW,2,E.On Danmark,
elbil_ladestander.135,MULTIPOINT ((12.509578781242894 55.66637561134131)),12.50957878,55.66637561,Horsekildevej elbil_ladestander.135,Horsekildevej,5,Horsekildevej 5,Uden for betalingszonen 11kW,Uden for betalingszonen,11kW,2,E.On Danmark,
elbil_ladestander.136,MULTIPOINT ((12.607969070287535 55.63939318612246)),12.60796907,55.63939319,Irlandsvej elbil_ladestander.136,Irlandsvej,121,Irlandsvej 121,Uden for betalingszonen 11kW,Uden for betalingszonen,11kW,2,E.On Danmark,
elbil_ladestander.137,MULTIPOINT ((12.553246583423926 55.68953364977512)),12.55324658,55.68953365,Kapelvej elbil_ladestander.137,Kapelvej,15,Kapelvej 15,Blå betalingszone 11kW,Blå betalingszone,11kW,2,E.On Danmark,
elbil_ladestander.138,MULTIPOINT ((12.586633227063254 55.68546484243452)),12.58663323,55.68546484,Borgergade elbil_ladestander.138,Borgergade,30,Borgergade 30,Grøn betalingszone 11kW,Grøn betalingszone,11kW,2,E.On Danmark,
elbil_ladestander.139,MULTIPOINT ((12.58667515233253 55.685513541824015)),12.58667515,55.68551354,Borgergade elbil_ladestander.139,Borgergade,30,Borgergade 30,Grøn betalingszone 11kW,Grøn betalingszone,11kW,2,E.On Danmark,
elbil_ladestander.140,MULTIPOINT ((12.543897792350654 55.6662755091732)),12.54389779,55.66627551,Enghave Plads elbil_ladestander.140,Enghave Plads,25,Enghave Plads 25,Blå betalingszone 11kW,Blå betalingszone,11kW,2,E.On Danmark,
elbil_ladestander.141,MULTIPOINT ((12.543842977909442 55.6662539780038)),12.54384298,55.66625398,Enghave Plads elbil_ladestander.141,Enghave Plads,25,Enghave Plads 25,Blå betalingszone 11kW,Blå betalingszone,11kW,2,E.On Danmark,Reserveret til el-delebiler
elbil_ladestander.142,MULTIPOINT ((12.576650222044238 55.720196701156155)),12.57665022,55.7201967,Vangehusvej elbil_ladestander.142,Vangehusvej,1B,Vangehusvej 1B,Uden for betalingszonen 11kW,Uden for betalingszonen,11kW,2,E.On Danmark,
elbil_ladestander.143,MULTIPOINT ((12.575161859083924 55.70832159291291)),12.57516186,55.70832159,Borgmester Jensens Allé elbil_ladestander.143,Borgmester Jensens Allé,5,Borgmester Jensens Allé 5,Blå betalingszone ,Blå betalingszone,,2,E.On Danmark,
elbil_ladestander.144,MULTIPOINT ((12.57163108011032 55.68475775356167)),12.57163108,55.68475775,Linnésgade elbil_ladestander.144,Linnésgade,28,Linnésgade 28,Grøn betalingszone 11kW,Grøn betalingszone,11kW,2,E.On Danmark,
elbil_ladestander.145,MULTIPOINT ((12.568036715148203 55.68050129322464)),12.56803672,55.68050129,Nørre Voldgade elbil_ladestander.145,Nørre Voldgade,,Nørre Voldgade ,Rød betalingszone 11kW,Rød betalingszone,11kW,2,E.On Danmark,
elbil_ladestander.146,MULTIPOINT ((12.587051051570098 55.693211857027535)),12.58705105,55.69321186,Bergensgade elbil_ladestander.146,Bergensgade,1,Bergensgade 1,Grøn betalingszone ,Grøn betalingszone,,2,E.On Danmark,
elbil_ladestander.147,MULTIPOINT ((12.587002181164202 55.69325286678394)),12.58700218,55.69325287,Bergensgade elbil_ladestander.147,Bergensgade,1,Bergensgade 1,Grøn betalingszone ,Grøn betalingszone,,2,E.On Danmark,
elbil_ladestander.148,MULTIPOINT ((12.586943450977786 55.69330415768024)),12.58694345,55.69330416,Bergensgade elbil_ladestander.148,Bergensgade,1,Bergensgade 1,Grøn betalingszone ,Grøn betalingszone,,2,E.On Danmark,
elbil_ladestander.149,MULTIPOINT ((12.573699031617886 55.689180621575154)),12.57369903,55.68918062,Rørholmsgade elbil_ladestander.149,Rørholmsgade,2A,Rørholmsgade 2A,Grøn betalingszone 11kW,Grøn betalingszone,11kW,2,E.On Danmark,
elbil_ladestander.150,MULTIPOINT ((12.500735984637299 55.65590419762355)),12.50073598,55.6559042,Retortvej elbil_ladestander.150,Retortvej,16,Retortvej 16,Uden for betalingszonen 11kW,Uden for betalingszonen,11kW,2,E.On Danmark,
elbil_ladestander.151,MULTIPOINT ((12.500775329094612 55.65582132466077)),12.50077533,55.65582132,Retortvej elbil_ladestander.151,Retortvej,18,Retortvej 18,Uden for betalingszonen 11kW,Uden for betalingszonen,11kW,2,E.On Danmark,
elbil_ladestander.152,MULTIPOINT ((12.500813161886997 55.6557458707369)),12.50081316,55.65574587,Retortvej elbil_ladestander.152,Retortvej,18,Retortvej 18,Uden for betalingszonen 11kW,Uden for betalingszonen,11kW,2,E.On Danmark,
elbil_ladestander.153,MULTIPOINT ((12.548803242000478 55.70096232969833)),12.54880324,55.70096233,Ægirsgade elbil_ladestander.153,Ægirsgade,65A,Ægirsgade 65A,Uden for betalingszonen 11kW,Uden for betalingszonen,11kW,2,E.On Danmark,
elbil_ladestander.154,MULTIPOINT ((12.562000220828104 55.67644273206062)),12.56200022,55.67644273,Vester Farimagsgade elbil_ladestander.154,Vester Farimagsgade,17,Vester Farimagsgade 17,Grøn betalingszone 11kW,Grøn betalingszone,11kW,2,CLEVER,
elbil_ladestander.155,MULTIPOINT ((12.562017663627493 55.67650975364409)),12.56201766,55.67650975,Vester Farimagsgade elbil_ladestander.155,Vester Farimagsgade,17,Vester Farimagsgade 17,Grøn betalingszone 11kW,Grøn betalingszone,11kW,2,CLEVER,
elbil_ladestander.156,MULTIPOINT ((12.599451459743888 55.66494340115158)),12.59945146,55.6649434,Hollænderdybet elbil_ladestander.156,Hollænderdybet,2,Hollænderdybet 2,Blå betalingszone 1kW,Blå betalingszone,1kW,2,E-On,
elbil_ladestander.157,MULTIPOINT ((12.577676650727721 55.69165365984598)),12.57767665,55.69165366,Upsalagade elbil_ladestander.157,Upsalagade,,Upsalagade ,Grøn betalingszone ,Grøn betalingszone,,2,E-On,
elbil_ladestander.158,MULTIPOINT ((12.577726322041832 55.691695655207454)),12.57772632,55.69169566,Upsalagade elbil_ladestander.158,Upsalagade,,Upsalagade ,Grøn betalingszone ,Grøn betalingszone,,2,E-On,
elbil_ladestander.159,MULTIPOINT ((12.577776989991087 55.69173702634684)),12.57777699,55.69173703,Upsalagade elbil_ladestander.159,Upsalagade,,Upsalagade ,Grøn betalingszone ,Grøn betalingszone,,2,E-On,
elbil_ladestander.160,MULTIPOINT ((12.579194955176163 55.66750058485866)),12.57919496,55.66750058,Thorshavnsgade elbil_ladestander.160,Thorshavnsgade,23,Thorshavnsgade 23,Blå betalingszone ,Blå betalingszone,,2,CLEVER,
elbil_ladestander.161,MULTIPOINT ((12.59475585423401 55.68792936403208)),12.59475585,55.68792936,Esplanaden elbil_ladestander.161,Esplanaden,-,Esplanaden -,Grøn betalingszone ,Grøn betalingszone,,2,Clever,
elbil_ladestander.162,MULTIPOINT ((12.591321053027778 55.681866831179754)),12.59132105,55.68186683,Amaliegade elbil_ladestander.162,Amaliegade,,Amaliegade ,Grøn betalingszone ,Grøn betalingszone,,2,E-On,"ingen færdigmeldingsdato, omtrentlig placedring, ingen skitse"
elbil_ladestander.163,MULTIPOINT ((12.591351600837719 55.68190382155045)),12.5913516,55.68190382,Amaliegade elbil_ladestander.163,Amaliegade,,Amaliegade ,Grøn betalingszone ,Grøn betalingszone,,2,E-On,"ingen færdigmeldingsdato, omtrentlig placedring, ingen skitse"
elbil_ladestander.164,MULTIPOINT ((12.58930034596463 55.6879267758715)),12.58930035,55.68792678,Tigergade elbil_ladestander.164,Tigergade,6,Tigergade 6,Grøn betalingszone ,Grøn betalingszone,,2,E-On,
elbil_ladestander.165,MULTIPOINT ((12.579429356635515 55.68184243209295)),12.57942936,55.68184243,Møntergade elbil_ladestander.165,Møntergade,5,Møntergade 5,Rød betalingszone 22kW,Rød betalingszone,22kW,2,Clever,
elbil_ladestander.166,MULTIPOINT ((12.577859848876201 55.70587045147059)),12.57785985,55.70587045,Århusgade elbil_ladestander.166,Århusgade,2,Århusgade 2,Blå betalingszone ,Blå betalingszone,,2,CLEVER,
elbil_ladestander.167,MULTIPOINT ((12.583369254552787 55.675491177438865)),12.58336925,55.67549118,Slotsholmsgade elbil_ladestander.167,Slotsholmsgade,1A,Slotsholmsgade 1A,Grøn betalingszone ,Grøn betalingszone,,2,Clever,
elbil_ladestander.168,MULTIPOINT ((12.590189533825551 55.67894629867368)),12.59018953,55.6789463,Herluf Trolles Gade elbil_ladestander.168,Herluf Trolles Gade,11,Herluf Trolles Gade 11,Grøn betalingszone ,Grøn betalingszone,,2,E-On,
elbil_ladestander.169,MULTIPOINT ((12.590285101583174 55.67891915981283)),12.5902851,55.67891916,Herluf Trolles Gade elbil_ladestander.169,Herluf Trolles Gade,11,Herluf Trolles Gade 11,Grøn betalingszone ,Grøn betalingszone,,2,E-On,
elbil_ladestander.170,MULTIPOINT ((12.590379437688592 55.678894139066024)),12.59037944,55.67889414,Herluf Trolles Gade elbil_ladestander.170,Herluf Trolles Gade,11,Herluf Trolles Gade 11,Grøn betalingszone ,Grøn betalingszone,,2,E-On,
elbil_ladestander.171,MULTIPOINT ((12.48288921544174 55.66550971165161)),12.48288922,55.66550971,Hansstedvej elbil_ladestander.171,Hansstedvej,,Hansstedvej , ,,,2,,Afventer opstilling
elbil_ladestander.172,MULTIPOINT ((12.581270940551722 55.70142542420324)),12.58127094,55.70142542,Petersborgvej elbil_ladestander.172,Petersborgvej,1,Petersborgvej 1,Blå betalingszone ,Blå betalingszone,,2,E.On Danmark,
elbil_ladestander.173,MULTIPOINT ((12.540660453645271 55.70039170249724)),12.54066045,55.7003917,Ole Jørgensens Gade elbil_ladestander.173,Ole Jørgensens Gade,5,Ole Jørgensens Gade 5,Uden for betalingszonen 11kW,Uden for betalingszonen,11kW,2,E.On Danmark,Afventer opstilling
elbil_ladestander.174,MULTIPOINT ((12.580418202249403 55.704846952918146)),12.5804182,55.70484695,Nøjsomhedsvej elbil_ladestander.174,Nøjsomhedsvej,19,Nøjsomhedsvej 19,Blå betalingszone ,Blå betalingszone,,2,E.On,
elbil_ladestander.175,MULTIPOINT ((12.575855539468826 55.68979735298935)),12.57585554,55.68979735,Stockholmsgade elbil_ladestander.175,Stockholmsgade,7,Stockholmsgade 7,Grøn betalingszone ,Grøn betalingszone,,2,CLEVER,
elbil_ladestander.176,MULTIPOINT ((12.555466784497577 55.67407081689584)),12.55546678,55.67407082,Gammel Kongevej elbil_ladestander.176,Gammel Kongevej,-,Gammel Kongevej -,Grøn betalingszone ,Grøn betalingszone,,2,CLEVER,P-areal ved Vodroffsvej
elbil_ladestander.177,MULTIPOINT ((12.57085009520099 55.674415023641195)),12.5708501,55.67441502,H.C. Andersens Boulevard elbil_ladestander.177,H.C. Andersens Boulevard,23,H.C. Andersens Boulevard 23,Rød betalingszone 22kW,Rød betalingszone,22kW,2,CLEVER,
elbil_ladestander.178,MULTIPOINT ((12.602095071050218 55.66507124575586)),12.60209507,55.66507125,Prags Boulevard elbil_ladestander.178,Prags Boulevard,,Prags Boulevard ,Blå betalingszone 22kW,Blå betalingszone,22kW,2,Clever,
elbil_ladestander.179,MULTIPOINT ((12.604881290472202 55.64586077677016)),12.60488129,55.64586078,Sundbyvestervej elbil_ladestander.179,Sundbyvestervej,,Sundbyvestervej , ,,,2,,Afventer opstilling
elbil_ladestander.180,MULTIPOINT ((12.573776288289324 55.68914487038818)),12.57377629,55.68914487,Rørholmsgade elbil_ladestander.180,Rørholmsgade,,Rørholmsgade , ,,,2,,Afventer opstilling
elbil_ladestander.181,MULTIPOINT ((12.548854902677876 55.70099187564235)),12.5488549,55.70099188,Ægirsgade elbil_ladestander.181,Ægirsgade,65A,Ægirsgade 65A,Uden for betalingszonen 11kW,Uden for betalingszonen,11kW,2,E.On Danmark,
elbil_ladestander.182,MULTIPOINT ((12.575597658463423 55.6654855652852)),12.57559766,55.66548557,Halfdansgade elbil_ladestander.182,Halfdansgade,1,Halfdansgade 1,Blå betalingszone 11kW,Blå betalingszone,11kW,2,E.On,
elbil_ladestander.183,MULTIPOINT ((12.580704477880023 55.706732051670166)),12.58070448,55.70673205,Koldinggade elbil_ladestander.183,Koldinggade,18,Koldinggade 18,Blå betalingszone 11kW,Blå betalingszone,11kW,2,E.On Danmark,
elbil_ladestander.184,MULTIPOINT ((12.561166578189106 55.692298773042964)),12.56116658,55.69229877,Nørre Allé elbil_ladestander.184,Nørre Allé,,Nørre Allé ,Blå betalingszone ,Blå betalingszone,,2,E-On,Ved underjordisk P-anlæg
elbil_ladestander.185,MULTIPOINT ((12.605579395245545 55.66068693052723)),12.6055794,55.66068693,Frankrigsgade elbil_ladestander.185,Frankrigsgade,4,Frankrigsgade 4, 11kW,,11kW,2,,
elbil_ladestander.186,MULTIPOINT ((12.570663513551665 55.69320196843296)),12.57066351,55.69320197,Lundingsgade elbil_ladestander.186,Lundingsgade,1,Lundingsgade 1,Blå betalingszone 11kW,Blå betalingszone,11kW,2,E.On Danmark,Afventer opstilling
elbil_ladestander.187,MULTIPOINT ((12.561172829714215 55.692352064189386)),12.56117283,55.69235206,Nørre Allé elbil_ladestander.187,Nørre Allé,,Nørre Allé ,Blå betalingszone ,Blå betalingszone,,2,E-On,Ved underjordisk P-anlæg
elbil_ladestander.188,MULTIPOINT ((12.543951713735176 55.66629819372589)),12.54395171,55.66629819,Enghave Plads elbil_ladestander.188,Enghave Plads,25,Enghave Plads 25,Blå betalingszone 11kW,Blå betalingszone,11kW,2,E.On Danmark,
elbil_ladestander.189,MULTIPOINT ((12.576729749470621 55.72020298792714)),12.57672975,55.72020299,Vangehusvej elbil_ladestander.189,Vangehusvej,,Vangehusvej , ,,,2,,Afventer opstilling
elbil_ladestander.190,MULTIPOINT ((12.537528377125112 55.65529767542431)),12.53752838,55.65529768,Ernst Kapers Vej elbil_ladestander.190,Ernst Kapers Vej,2,Ernst Kapers Vej 2,Uden for betalingszonen 11kW,Uden for betalingszonen,11kW,2,E.ON Danmark,
elbil_ladestander.191,MULTIPOINT ((12.537460649390233 55.65530949062605)),12.53746065,55.65530949,Ernst Kapers Vej elbil_ladestander.191,Ernst Kapers Vej,2,Ernst Kapers Vej 2,Uden for betalingszonen 11kW,Uden for betalingszonen,11kW,2,E.On Danmark,
elbil_ladestander.192,MULTIPOINT ((12.540609893514397 55.700342694667874)),12.54060989,55.70034269,Ole Jørgensens Gade elbil_ladestander.192,Ole Jørgensens Gade,3,Ole Jørgensens Gade 3,Uden for betalingszonen 11kW,Uden for betalingszonen,11kW,2,E.On Danmark,Afventer opstilling
elbil_ladestander.193,MULTIPOINT ((12.537393838704599 55.65532073150913)),12.53739384,55.65532073,Ernst Kapers Vej elbil_ladestander.193,Ernst Kapers Vej,2,Ernst Kapers Vej 2,Uden for betalingszonen 11kW,Uden for betalingszonen,11kW,2,E.On Danmark,
elbil_ladestander.194,MULTIPOINT ((12.561160613650163 55.692250189891766)),12.56116061,55.69225019,Nørre Allé elbil_ladestander.194,Nørre Allé,,Nørre Allé ,Blå betalingszone ,Blå betalingszone,,2,E-On,Ved underjordisk P-anlæg
elbil_ladestander.195,MULTIPOINT ((12.551196564171486 55.70588850289057)),12.55119656,55.7058885,Sigynsgade elbil_ladestander.195,Sigynsgade,64,Sigynsgade 64,Uden for betalingszonen 11kW,Uden for betalingszonen,11kW,2,E.On Danmark,Afventer opstilling
elbil_ladestander.196,MULTIPOINT ((12.567609108189334 55.68688642956372)),12.56760911,55.68688643,Bartholinsgade elbil_ladestander.196,Bartholinsgade,,Bartholinsgade , ,,,2,,Afventer opstilling
elbil_ladestander.197,MULTIPOINT ((12.539958369456231 55.664160424199395)),12.53995837,55.66416042,Angelgade elbil_ladestander.197,Angelgade,3,Angelgade 3, ,,,2,,Afventer opstilling
elbil_ladestander.198,MULTIPOINT ((12.560072317733347 55.67608710478112)),12.56007232,55.6760871,Herholdtsgade elbil_ladestander.198,Herholdtsgade,,Herholdtsgade ,Grøn betalingszone 11kW,Grøn betalingszone,11kW,2,E.On Danmark,Afventer opstilling
elbil_ladestander.199,MULTIPOINT ((12.560159748288537 55.67607964888865)),12.56015975,55.67607965,Herholdtsgade elbil_ladestander.199,Herholdtsgade,,Herholdtsgade ,Grøn betalingszone 11kW,Grøn betalingszone,11kW,2,E.On Danmark,Afventer opstilling
elbil_ladestander.200,MULTIPOINT ((12.567698806065199 55.68683569152612)),12.56769881,55.68683569,Bartholinsgade elbil_ladestander.200,Bartholinsgade,9,Bartholinsgade 9, ,,,2,,Afventer opstilling
elbil_ladestander.201,MULTIPOINT ((12.567655253134275 55.68686075371264)),12.56765525,55.68686075,Bartholinsgade elbil_ladestander.201,Bartholinsgade,9,Bartholinsgade 9, ,,,2,,Afventer opstilling
elbil_ladestander.202,MULTIPOINT ((12.539769997485681 55.66418815277526)),12.53977,55.66418815,Angelgade elbil_ladestander.202,Angelgade,2,Angelgade 2, ,,,2,,Afventer opstilling
elbil_ladestander.203,MULTIPOINT ((12.539855683520432 55.66417728050767)),12.53985568,55.66417728,Angelgade elbil_ladestander.203,Angelgade,3,Angelgade 3, ,,,2,,Afventer opstilling
elbil_ladestander.204,MULTIPOINT ((12.526295741142738 55.647600488928425)),12.52629574,55.64760049,Hammelstrupvej elbil_ladestander.204,Hammelstrupvej,,Hammelstrupvej , ,,,2,E.On Danmark,
elbil_ladestander.205,MULTIPOINT ((12.530839374934832 55.699663807707296)),12.53083937,55.69966381,Vibevej elbil_ladestander.205,Vibevej,,Vibevej , ,,,2,,Afventer opstilling
elbil_ladestander.206,MULTIPOINT ((12.560235356457829 55.6760737655467)),12.56023536,55.67607377,Herholdtsgade elbil_ladestander.206,Herholdtsgade,,Herholdtsgade ,Grøn betalingszone 11kW,Grøn betalingszone,11kW,2,E.On Danmark,Afventer opstilling
elbil_ladestander.207,MULTIPOINT ((12.58898448828597 55.700058721032086)),12.58898449,55.70005872,Holsteinsgade elbil_ladestander.207,Holsteinsgade,57,Holsteinsgade 57,Blå betalingszone 11kW,Blå betalingszone,11kW,2,E.On Danmark,Afventer opstilling
elbil_ladestander.208,MULTIPOINT ((12.636425848380643 55.64539542790406)),12.63642585,55.64539543,Hedegaardsvej elbil_ladestander.208,Hedegaardsvej,,Hedegaardsvej , ,,,2,,Afventer opstilling
elbil_ladestander.209,MULTIPOINT ((12.540782243081829 55.69253597457196)),12.54078224,55.69253597,Stefansgade elbil_ladestander.209,Stefansgade,,Stefansgade , ,,,2,,Afventer opstilling
elbil_ladestander.210,MULTIPOINT ((12.607985397616417 55.639352136072304)),12.6079854,55.63935214,Irlandsvej elbil_ladestander.210,Irlandsvej,,Irlandsvej , ,,,2,,Afventer opstilling
elbil_ladestander.211,MULTIPOINT ((12.553202434403914 55.68949681933135)),12.55320243,55.68949682,Kapelvej elbil_ladestander.211,Kapelvej,,Kapelvej , ,,,2,,Afventer opstilling
elbil_ladestander.212,MULTIPOINT ((12.58689948099162 55.693346559290426)),12.58689948,55.69334656,Bergensgade elbil_ladestander.212,Bergensgade,1,Bergensgade 1,Grøn betalingszone ,Grøn betalingszone,,2,E.On Danmark,
elbil_ladestander.213,MULTIPOINT ((12.61759695859533 55.65447550967981)),12.61759696,55.65447551,Elbagade elbil_ladestander.213,Elbagade,73,Elbagade 73, ,,,2,,Afventer opstilling
elbil_ladestander.214,MULTIPOINT ((12.617663841300452 55.65448706722462)),12.61766384,55.65448707,Elbagade elbil_ladestander.214,Elbagade,73,Elbagade 73, ,,,2,,Afventer opstilling
elbil_ladestander.215,MULTIPOINT ((12.557531351658705 55.665381973890156)),12.55753135,55.66538197,Dybbølsgade elbil_ladestander.215,Dybbølsgade,9,Dybbølsgade 9, ,,,2,,Afventer opstilling
elbil_ladestander.216,MULTIPOINT ((12.557612472488868 55.6653662891818)),12.55761247,55.66536629,Dybbølsgade elbil_ladestander.216,Dybbølsgade,9,Dybbølsgade 9, 22kW,,22kW,2,CLEVER A/S,
elbil_ladestander.217,MULTIPOINT ((12.563110598197998 55.69186625312327)),12.5631106,55.69186625,Blegdamsvej elbil_ladestander.217,Blegdamsvej,12A,Blegdamsvej 12A, ,,,2,CLEVER A/S,
elbil_ladestander.218,MULTIPOINT ((12.541227445149739 55.71134904864154)),12.54122745,55.71134905,Bispebjerg Bakke elbil_ladestander.218,Bispebjerg Bakke,19,Bispebjerg Bakke 19, ,,,2,,Afventer opstilling
elbil_ladestander.219,MULTIPOINT ((12.54131460212357 55.711383763469854)),12.5413146,55.71138376,Bispebjerg Bakke elbil_ladestander.219,Bispebjerg Bakke,19,Bispebjerg Bakke 19, ,,,2,,Afventer opstilling
elbil_ladestander.220,MULTIPOINT ((12.598223481102833 55.6766629296956)),12.59822348,55.67666293,Bodenhoffs Plads elbil_ladestander.220,Bodenhoffs Plads,2,Bodenhoffs Plads 2, ,,,2,,Opstillet 1. juli 2015
elbil_ladestander.221,MULTIPOINT ((12.519161413670313 55.66705432545667)),12.51916141,55.66705433,Bykildevej elbil_ladestander.221,Bykildevej,6,Bykildevej 6, ,,,2,E.On Danmark,Afventer opstilling
elbil_ladestander.222,MULTIPOINT ((12.519155282958039 55.66701433777407)),12.51915528,55.66701434,Bykildevej elbil_ladestander.222,Bykildevej,4,Bykildevej 4, ,,,2,E.On Danmark,Afventer opstilling
elbil_ladestander.223,MULTIPOINT ((12.519150882651623 55.66697477856127)),12.51915088,55.66697478,Byildevej elbil_ladestander.223,Byildevej,4,Byildevej 4, ,,,2,E.On Danmark,Afventer opstilling
elbil_ladestander.224,MULTIPOINT ((12.565394543690603 55.711448151931435)),12.56539454,55.71144815,Bryggervangen elbil_ladestander.224,Bryggervangen,39,Bryggervangen 39, ,,,2,,
elbil_ladestander.225,MULTIPOINT ((12.565421955694946 55.7114842084849)),12.56542196,55.71148421,Bryggervangen elbil_ladestander.225,Bryggervangen,39,Bryggervangen 39, ,,,2,,
elbil_ladestander.226,MULTIPOINT ((12.526673210299283 55.65209512600917)),12.52667321,55.65209513,Carl Jacobsens Vej elbil_ladestander.226,Carl Jacobsens Vej,,Carl Jacobsens Vej , ,,,2,,
elbil_ladestander.227,MULTIPOINT ((12.526770699665567 55.65210431863413)),12.5267707,55.65210432,Carl Jacobsens Vej elbil_ladestander.227,Carl Jacobsens Vej,,Carl Jacobsens Vej , ,,,2,,
elbil_ladestander.228,MULTIPOINT ((12.541417813576757 55.71142617494832)),12.54141781,55.71142617,Bispebjerg Bakke elbil_ladestander.228,Bispebjerg Bakke,19,Bispebjerg Bakke 19, ,,,2,,
elbil_ladestander.229,MULTIPOINT ((12.57529798709701 55.70840352420167)),12.57529799,55.70840352,Borgmester Jensens Alle elbil_ladestander.229,Borgmester Jensens Alle,2,Borgmester Jensens Alle 2,Blå betalingszone 11kW,Blå betalingszone,11kW,2,E.On Danmark,
elbil_ladestander.230,MULTIPOINT ((12.575244606487846 55.708370630094024)),12.57524461,55.70837063,Borgmester Jensens Alle elbil_ladestander.230,Borgmester Jensens Alle,2,Borgmester Jensens Alle 2,Blå betalingszone 11kW,Blå betalingszone,11kW,2,E.On Danmark,
elbil_ladestander.231,MULTIPOINT ((12.51490926743561 55.66416687026945)),12.51490927,55.66416687,Mellemtoftevej elbil_ladestander.231,Mellemtoftevej,6,Mellemtoftevej 6,Uden for betalingszonen 11kW,Uden for betalingszonen,11kW,2,E.On Danmark,
elbil_ladestander.232,MULTIPOINT ((12.514799594502676 55.664241315078925)),12.51479959,55.66424132,Mellemtoftevej elbil_ladestander.232,Mellemtoftevej,8,Mellemtoftevej 8,Uden for betalingszonen 11kW,Uden for betalingszonen,11kW,2,E.On Danmark,
elbil_ladestander.233,MULTIPOINT ((12.558021293786414 55.70751932384826)),12.55802129,55.70751932,Rønnegade elbil_ladestander.233,Rønnegade,7,Rønnegade 7,Uden for betalingszonen 11kW,Uden for betalingszonen,11kW,2,E.On Danmark,Privat fællesvej
elbil_ladestander.234,MULTIPOINT ((12.498360862210468 55.70513793957358)),12.49836086,55.70513794,Brønshøj Kirkevej elbil_ladestander.234,Brønshøj Kirkevej,,Brønshøj Kirkevej ,Uden for betalingszonen 11kW,Uden for betalingszonen,11kW,2,E.On Danmark,Afventer opstilling
elbil_ladestander.235,MULTIPOINT ((12.498386920619048 55.70507634574266)),12.49838692,55.70507635,Brønshøj Kirkevej elbil_ladestander.235,Brønshøj Kirkevej,,Brønshøj Kirkevej ,Uden for betalingszonen 11kW,Uden for betalingszonen,11kW,2,E.On Danmark,Afventer opstilling
elbil_ladestander.236,MULTIPOINT ((12.569244029662434 55.67089324980703)),12.56924403,55.67089325,Stoltenbergsgade elbil_ladestander.236,Stoltenbergsgade,,Stoltenbergsgade ,Grøn betalingszone 22kW,Grøn betalingszone,22kW,2,E.On Danmark,
elbil_ladestander.237,MULTIPOINT ((12.588895452749842 55.700037353937454)),12.58889545,55.70003735,Holsteinsgade elbil_ladestander.237,Holsteinsgade,57,Holsteinsgade 57,Blå betalingszone 11kW,Blå betalingszone,11kW,2,E.On Danmark,Afventer opstilling
elbil_ladestander.238,MULTIPOINT ((12.546279383602123 55.6928006521337)),12.54627938,55.69280065,Husumgade elbil_ladestander.238,Husumgade,4,Husumgade 4,Uden for betalingszonen 11kW,Uden for betalingszonen,11kW,2,E.On Danmark,Afventer opstilling
elbil_ladestander.239,MULTIPOINT ((12.54622757249724 55.69283534200312)),12.54622757,55.69283534,Husumgade elbil_ladestander.239,Husumgade,4,Husumgade 4,Uden for betalingszonen 11kW,Uden for betalingszonen,11kW,2,E.ON Danmark,Afventer opstilling
elbil_ladestander.240,MULTIPOINT ((12.580964650231113 55.62953870896059)),12.58096465,55.62953871,Kay Fiskers Plads elbil_ladestander.240,Kay Fiskers Plads,,Kay Fiskers Plads ,Uden for betalingszonen 11kW,Uden for betalingszonen,11kW,2,E.On Danmark,Afventer opstilling
elbil_ladestander.241,MULTIPOINT ((12.631430644804187 55.656631918257474)),12.63143064,55.65663192,Roselillevej elbil_ladestander.241,Roselillevej,,Roselillevej ,Uden for betalingszonen 11kW,Uden for betalingszonen,11kW,2,E.On Danmark,Afventer opstilling
elbil_ladestander.242,MULTIPOINT ((12.631456856703469 55.65658626941777)),12.63145686,55.65658627,Roselillevej elbil_ladestander.242,Roselillevej,,Roselillevej ,Uden for betalingszonen 11kW,Uden for betalingszonen,11kW,2,E.On Danmark,Afventer opstilling
elbil_ladestander.243,MULTIPOINT ((12.56081391320997 55.67419451421131)),12.56081391,55.67419451,Trommesalen elbil_ladestander.243,Trommesalen,2,Trommesalen 2,Grøn betalingszone 11kW,Grøn betalingszone,11kW,2,E.On Danmark,Afventer opstilling
elbil_ladestander.244,MULTIPOINT ((12.560840664949557 55.67415378372752)),12.56084066,55.67415378,Trommesalen elbil_ladestander.244,Trommesalen,2,Trommesalen 2,Grøn betalingszone 11kW,Grøn betalingszone,11kW,2,E.On Danmark,Afventer opstilling
elbil_ladestander.245,MULTIPOINT ((12.617182543907111 55.66122752658986)),12.61718254,55.66122753,Østrigsgade elbil_ladestander.245,Østrigsgade,50,Østrigsgade 50,Uden for betalingszonen 11kW,Uden for betalingszonen,11kW,2,E.On Danmark,Afventer opstilling
elbil_ladestander.246,MULTIPOINT ((12.617203418831341 55.66117097428338)),12.61720342,55.66117097,Østrigsgade elbil_ladestander.246,Østrigsgade,50,Østrigsgade 50,Uden for betalingszonen 11kW,Uden for betalingszonen,11kW,2,E.On Danmark,Afventer opstilling
elbil_ladestander.247,MULTIPOINT ((12.578065893249049 55.671502189818675)),12.57806589,55.67150219,Christians Brygge elbil_ladestander.247,Christians Brygge,24,Christians Brygge 24,Grøn betalingszone 11kW,Grøn betalingszone,11kW,2,E.On Danmark,Afventer opstilling
elbil_ladestander.248,MULTIPOINT ((12.578140771077386 55.67154794923598)),12.57814077,55.67154795,Christians Brygge elbil_ladestander.248,Christians Brygge,24,Christians Brygge 24,Grøn betalingszone 11kW,Grøn betalingszone,11kW,2,E.On Danmark,Afventer færdigmelding
elbil_ladestander.249,MULTIPOINT ((12.578216845865787 55.67159490302678)),12.57821685,55.6715949,Christians Brygge elbil_ladestander.249,Christians Brygge,24,Christians Brygge 24,Grøn betalingszone 11kW,Grøn betalingszone,11kW,2,E.On Danmark,Afventer opstilling