institution_enhed,title,vejnavn,husnr,opsyn,drift_ansvarlig,FID,adresse,postnr,toilet_type,handicapadgang,mandag,tirsdag,onsdag,torsdag,fredag,loerdag,soendag,opening_hours,aabningstid_bemrk,placering,longitude,latitude
"DRIFT, INDRE",Christianshavns Voldgade toilet.1,Christianshavns Voldgade,36,Nej,Udliciteret,toilet.1,"Christianshavns Vold, Elefantens Bastion",,H+D+handicap,Ja,ca. 9.00 - 22.00,ca. 9.00 - 22.00,ca. 9.00 - 22.00,ca. 9.00 - 22.00,ca. 9.00 - 22.00,ca. 9.00 - 22.00,ca. 9.00 - 22.00,Monday: ca. 9.00 - 22.00 Tuesday: ca. 9.00 - 22.00 Wednesday: ca. 9.00 - 22.00 Thursday: ca. 9.00 - 22.00 Friday: ca. 9.00 - 22.00 Saturday: ca. 9.00 - 22.00 Sunday: ca. 9.00 - 22.00,,Park,12.592711,55.669983
"DRIFT, INDRE",Christianshavns Voldgade toilet.2,Christianshavns Voldgade,36,Nej,Udliciteret,toilet.2,"Christianshavns Vold, Elefantens bastion",,H+D,Nej,9.30 - 17.00,9.30 - 17.00,9.30 - 17.00,9.30 - 17.00,10.00 - 17.00,lukket,lukket,Monday: 9.30 - 17.00 Tuesday: 9.30 - 17.00 Wednesday: 9.30 - 17.00 Thursday: 9.30 - 17.00 Friday: 10.00 - 17.00 Saturday: lukket Sunday: lukket,,Andet,12.592762,55.669931
"DRIFT, NORD",Damhusdæmningen toilet.3,Damhusdæmningen,14,Nej,Udliciteret,toilet.3,Damhusdæmningen 14  Engen,,H+D,Nej,ca. 9.00 - 22.00,ca. 9.00 - 22.00,ca. 9.00 - 22.00,ca. 9.00 - 22.00,ca. 9.00 - 22.00,ca. 9.00 - 22.00,ca. 9.00 - 22.00,Monday: ca. 9.00 - 22.00 Tuesday: ca. 9.00 - 22.00 Wednesday: ca. 9.00 - 22.00 Thursday: ca. 9.00 - 22.00 Friday: ca. 9.00 - 22.00 Saturday: ca. 9.00 - 22.00 Sunday: ca. 9.00 - 22.00,Åbent fra 1. april til 30. september,Park,12.468016,55.682449
"DRIFT, SYD",Amager Strandvej toilet.4,Amager Strandvej,240,Nej,Udliciteret,toilet.4,"Kastrup Fort, Kasemat nord",2300,H+D+handicap,Ja,ca. 9.00 - 22.00,ca. 9.00 - 22.00,ca. 9.00 - 22.00,ca. 9.00 - 22.00,ca. 9.00 - 22.00,ca. 9.00 - 22.00,ca. 9.00 - 22.00,Monday: ca. 9.00 - 22.00 Tuesday: ca. 9.00 - 22.00 Wednesday: ca. 9.00 - 22.00 Thursday: ca. 9.00 - 22.00 Friday: ca. 9.00 - 22.00 Saturday: ca. 9.00 - 22.00 Sunday: ca. 9.00 - 22.00,Åbent fra 1. april til 30. september,Park,12.638736,55.648955
"DRIFT, SYD",Amager Strandvej toilet.5,Amager Strandvej,11,Nej,Udliciteret,toilet.5,Søstjernen Amager Strandvej 11,2300,H+D+handicap,Ja,ca. 9.00 - 22.00,ca. 9.00 - 22.00,ca. 9.00 - 22.00,ca. 9.00 - 22.00,ca. 9.00 - 22.00,ca. 9.00 - 22.00,ca. 9.00 - 22.00,Monday: ca. 9.00 - 22.00 Tuesday: ca. 9.00 - 22.00 Wednesday: ca. 9.00 - 22.00 Thursday: ca. 9.00 - 22.00 Friday: ca. 9.00 - 22.00 Saturday: ca. 9.00 - 22.00 Sunday: ca. 9.00 - 22.00,Åbent fra 1. april til 30. september,Park,12.632197,55.666373
"DRIFT, SYD",Amager Strandvej toilet.6,Amager Strandvej,55,Nej,Udliciteret,toilet.6,Amager Strandvej 55 v. Øresundsvej,2300,H+D+handicap,?,8.00 - 22.00 / 18.00,8.00 - 22.00 / 18.00,8.00 - 22.00 / 18.00,8.00 - 22.00 / 18.00,8.00 - 22.00 / 18.00,8.00 - 22.00 / 18.00,8.00 - 22.00 / 18.00,Monday: 8.00 - 22.00 / 18.00 Tuesday: 8.00 - 22.00 / 18.00 Wednesday: 8.00 - 22.00 / 18.00 Thursday: 8.00 - 22.00 / 18.00 Friday: 8.00 - 22.00 / 18.00 Saturday: 8.00 - 22.00 / 18.00 Sunday: 8.00 - 22.00 / 18.00,Åbent til 22.00 fra 15.maj til 31. august,Park,12.632405,55.662019
"DRIFT, SYD",Amager Strandvej toilet.7,Amager Strandvej,175,Nej,Udliciteret,toilet.7,Amager Strandvej 175 v. Svend Vonveds Vej,2300,H+D+handicap,?,8.00 - 22.00 / 18.00,8.00 - 22.00 / 18.00,8.00 - 22.00 / 18.00,8.00 - 22.00 / 18.00,8.00 - 22.00 / 18.00,8.00 - 22.00 / 18.00,8.00 - 22.00 / 18.00,Monday: 8.00 - 22.00 / 18.00 Tuesday: 8.00 - 22.00 / 18.00 Wednesday: 8.00 - 22.00 / 18.00 Thursday: 8.00 - 22.00 / 18.00 Friday: 8.00 - 22.00 / 18.00 Saturday: 8.00 - 22.00 / 18.00 Sunday: 8.00 - 22.00 / 18.00,Åbent til 22.00 fra 15.maj til 31. august,Park,12.640629,55.651242
"DRIFT, SYD",Amager Strandvej toilet.8,Amager Strandvej,125,Nej,Udliciteret,toilet.8,Amager Strandvej 125 v. Italiensvej,2300,H+D+handicap,?,8.00 - 22.00 / 18.00,8.00 - 22.00 / 18.00,8.00 - 22.00 / 18.00,8.00 - 22.00 / 18.00,8.00 - 22.00 / 18.00,8.00 - 22.00 / 18.00,8.00 - 22.00 / 18.00,Monday: 8.00 - 22.00 / 18.00 Tuesday: 8.00 - 22.00 / 18.00 Wednesday: 8.00 - 22.00 / 18.00 Thursday: 8.00 - 22.00 / 18.00 Friday: 8.00 - 22.00 / 18.00 Saturday: 8.00 - 22.00 / 18.00 Sunday: 8.00 - 22.00 / 18.00,Åbent til 22.00 fra 15.maj til 31. august,Park,12.636567,55.657597
"DRIFT, SYD",Amagerbrogade toilet.9,Amagerbrogade,185,Nej,Egen drift,toilet.9,"Sundbyøster Plads, Amagerbrogade 185",2300,Danfo toiletenhed,Ja,aldrig lukket,aldrig lukket,aldrig lukket,aldrig lukket,aldrig lukket,aldrig lukket,aldrig lukket,Monday: aldrig lukket Tuesday: aldrig lukket Wednesday: aldrig lukket Thursday: aldrig lukket Friday: aldrig lukket Saturday: aldrig lukket Sunday: aldrig lukket,,Gade,12.612123,55.651841
"DRIFT, INDRE",Amagertorv toilet.10,Amagertorv,1F,Ja,Egen drift,toilet.10,Amagertorv 1F,,H+D,Nej,9.00 - 22.30,9.00 - 22.30,9.00 - 22.30,9.00 - 22.30,9.00 - 22.30,9.00 - 22.30,9.00 - 22.30,Monday: 9.00 - 22.30 Tuesday: 9.00 - 22.30 Wednesday: 9.00 - 22.30 Thursday: 9.00 - 22.30 Friday: 9.00 - 22.30 Saturday: 9.00 - 22.30 Sunday: 9.00 - 22.30,,Gade,12.579556,55.678826
Vesterbro Svømmehal,Angelgade toilet.11,Angelgade,4,Nej,,toilet.11,Angelgade 4 ,1765,H+D,Nej,,,,,,,,Monday:  Tuesday:  Wednesday:  Thursday:  Friday:  Saturday:  Sunday: ,"Skiftende åbningstider, se dem på: http://teambade.kk.dk/indhold/%C3%A5bningstider-lukkedage-og-driftinfo",Kommunal institution,12.538757,55.664562
Valby Bibliotek,Annexstræde toilet.12,Annexstræde,2,Nej,,toilet.12,Annexstræde 2,,H+D+handicap,Ja,7:00 - 18:00,7:00 - 18:00,7:00 - 18:00,7:00 - 18:00,7:00 - 18:00,7:00 - 15:00,,Monday: 7:00 - 18:00 Tuesday: 7:00 - 18:00 Wednesday: 7:00 - 18:00 Thursday: 7:00 - 18:00 Friday: 7:00 - 18:00 Saturday: 7:00 - 15:00 Sunday: ,,Kommunal institution,12.513107,55.665343
Ørestad Bibliotek,Arne Jacobsens Allé toilet.13,Arne Jacobsens Allé,19,Nej,,toilet.13,Arne Jacobsens Allé 19,,H+D+handicap,Ja,13 - 18,13 - 18,13 - 18,13 - 18,13 - 18,10 til 13,,Monday: 13 - 18 Tuesday: 13 - 18 Wednesday: 13 - 18 Thursday: 13 - 18 Friday: 13 - 18 Saturday: 10 til 13 Sunday: ,,Kommunal institution,12.580964,55.631286
Center for Arbejdsfastholdelse (JKA),Baldersgade toilet.14,Baldersgade,24,Nej,,toilet.14,Baldersgade 24,2200,H+D,Nej,9.00-15.00,9.00-15.00,9.00-15.00,9.00-15.00,9.00-14.00,,,Monday: 9.00-15.00 Tuesday: 9.00-15.00 Wednesday: 9.00-15.00 Thursday: 9.00-15.00 Friday: 9.00-14.00 Saturday:  Sunday: ,Lukket weekender og helligdage,Kommunal institution,12.545456,55.699565
"DRIFT, NORD",Baldersgade toilet.15,Baldersgade,60,Nej,Udliciteret,toilet.15,"Baldersgade 60, Balders Plads",2200,H+D+handicap+pissoir,Ja,ca. 9.00 - 22.00,ca. 9.00 - 22.00,ca. 9.00 - 22.00,ca. 9.00 - 22.00,ca. 9.00 - 22.00,ca. 9.00 - 22.00,ca. 9.00 - 22.00,Monday: ca. 9.00 - 22.00 Tuesday: ca. 9.00 - 22.00 Wednesday: ca. 9.00 - 22.00 Thursday: ca. 9.00 - 22.00 Friday: ca. 9.00 - 22.00 Saturday: ca. 9.00 - 22.00 Sunday: ca. 9.00 - 22.00,,Park,12.548328,55.70131
Bellahøj Hallerne,Bellahøjvej toilet.16,Bellahøjvej,1,Nej,,toilet.16,Bellahøjvej 1,2700,H+D,Nej,08.00-22.00,08.00-22.00,08.00-22.00,08.00-22.00,08.00-22.00,08.00-20.00,08.00-20.00,Monday: 08.00-22.00 Tuesday: 08.00-22.00 Wednesday: 08.00-22.00 Thursday: 08.00-22.00 Friday: 08.00-22.00 Saturday: 08.00-20.00 Sunday: 08.00-20.00,"Lukket jul, påske, skolernes sommerferie",Kommunal institution,12.514315,55.706041
Bellahøj Svømmestadion,Bellahøjvej toilet.17,Bellahøjvej,1,Nej,,toilet.17,Bellahøjvej 1-3,2700,H+D,Nej,,,,,,,,Monday:  Tuesday:  Wednesday:  Thursday:  Friday:  Saturday:  Sunday: ,"Skiftende åbningstider, se dem på: http://teambade.kk.dk/indhold/%C3%A5bningstider-lukkedage-og-driftinfo",Kommunal institution,12.514315,55.706041
Havnebadet Sluseholmen,Ben Websters Vej toilet.18,Ben Websters Vej,69,Nej,,toilet.18,Ben Websters Vej 69 ,2450,H+D,Nej,kl. 11-19,kl. 11-19,kl. 11-19,kl. 11-19,kl. 11-19,kl. 11-19,kl. 11-19,Monday: kl. 11-19 Tuesday: kl. 11-19 Wednesday: kl. 11-19 Thursday: kl. 11-19 Friday: kl. 11-19 Saturday: kl. 11-19 Sunday: kl. 11-19,Fra 1. juni til 31. august,Kommunal institution,12.553926,55.646365
Thorvaldsens Museum,Bertel Thorvaldsens Plads toilet.19,Bertel Thorvaldsens Plads,2,Nej,,toilet.19,Bertel Thorvaldsens Plads 2,1213,H+D,Nej,lukket,10.00-17.00,10.00-17.00,10.00-17.00,10.00-17.00,10.00-17.00,10.00-17.00,Monday: lukket Tuesday: 10.00-17.00 Wednesday: 10.00-17.00 Thursday: 10.00-17.00 Friday: 10.00-17.00 Saturday: 10.00-17.00 Sunday: 10.00-17.00,"Lukket 24/12, 25/12, 31/12, 1/1",Kommunal institution,12.578283,55.676533
Remisen,Blegdamsvej toilet.20,Blegdamsvej,132,Nej,,toilet.20,Blegdamsvej 132,2100,H+D+handicap,Ja,16.00 - 22.00,16.00 - 22.00,16.00 - 22.00,16.00 - 22.00,Lukket,Lukket,Lukket,Monday: 16.00 - 22.00 Tuesday: 16.00 - 22.00 Wednesday: 16.00 - 22.00 Thursday: 16.00 - 22.00 Friday: Lukket Saturday: Lukket Sunday: Lukket,"Lukket helligedage og fra 1/6-31-8. Det kan forkomme at der er åbent lørdag og søndag
ved arrangementer så er åbningestiden kl 10.00-16.00",Kommunal institution,12.57679,55.698684
CDI,Blågårds Plads toilet.21,Blågårds Plads,,Nej,Egen drift,toilet.21,,,H+D+handicap,Ja,døgnåbent,døgnåbent,døgnåbent,døgnåbent,døgnåbent,døgnåbent,døgnåbent,Monday: døgnåbent Tuesday: døgnåbent Wednesday: døgnåbent Thursday: døgnåbent Friday: døgnåbent Saturday: døgnåbent Sunday: døgnåbent,døgnåbent,Gade,12.556468,55.686448
"DRIFT, INDRE",Blågårds Plads toilet.22,Blågårds Plads,3,Nej,Egen drift,toilet.22,Blågårds Plads nr. 3,2200,Støbejernspissoir,Nej,aldrig lukket,aldrig lukket,aldrig lukket,aldrig lukket,aldrig lukket,aldrig lukket,aldrig lukket,Monday: aldrig lukket Tuesday: aldrig lukket Wednesday: aldrig lukket Thursday: aldrig lukket Friday: aldrig lukket Saturday: aldrig lukket Sunday: aldrig lukket,,Gade,12.557011,55.686248
"DRIFT, INDRE",Borgergade toilet.23,Borgergade,1F,Nej,Egen drift,toilet.23,Borgergade 1F,,Danfo toiletenhed,Ja,aldrig lukket,aldrig lukket,aldrig lukket,aldrig lukket,aldrig lukket,aldrig lukket,aldrig lukket,Monday: aldrig lukket Tuesday: aldrig lukket Wednesday: aldrig lukket Thursday: aldrig lukket Friday: aldrig lukket Saturday: aldrig lukket Sunday: aldrig lukket,,Gade,12.583712,55.682099
Nørrebro Bibliotek,Bragesgade toilet.24,Bragesgade,8B,Nej,,toilet.24,Bragesgade 8B,,H+D+handicap,Ja,8:00 - 19:00,8:00 - 19:00,8:00 - 19:00,8:00 - 19:00,8:00 - 19:00,8:00 - 19:00,lukket,Monday: 8:00 - 19:00 Tuesday: 8:00 - 19:00 Wednesday: 8:00 - 19:00 Thursday: 8:00 - 19:00 Friday: 8:00 - 19:00 Saturday: 8:00 - 19:00 Sunday: lukket,Helligdage lukket,Kommunal institution,12.543642,55.699012
Emdrup Bad,Bredelandsvej toilet.25,Bredelandsvej,20,Nej,,toilet.25,Bredelandsvej 20,2100,H+D,Nej,,,,,,,,Monday:  Tuesday:  Wednesday:  Thursday:  Friday:  Saturday:  Sunday: ,"Skiftende åbningstider, se dem på: http://teambade.kk.dk/indhold/%C3%A5bningstider-lukkedage-og-driftinfo",Kommunal institution,12.547187,55.718342
"DRIFT, NORD",Emdrupvej toilet.26,Emdrupvej,183,Nej,Egen drift,toilet.26,"Emdrup Torv, Emdrupvej 183",,Danfo toiletenhed,Ja,aldrig lukket,aldrig lukket,aldrig lukket,aldrig lukket,aldrig lukket,aldrig lukket,aldrig lukket,Monday: aldrig lukket Tuesday: aldrig lukket Wednesday: aldrig lukket Thursday: aldrig lukket Friday: aldrig lukket Saturday: aldrig lukket Sunday: aldrig lukket,,Gade,12.529522,55.723012
"DRIFT, INDRE",Enghave Plads toilet.27,Enghave Plads,27,Nej,Egen drift,toilet.27,"Enghave plads, Enghave plads 27",,Danfo toiletenhed,Ja,aldrig lukket,aldrig lukket,aldrig lukket,aldrig lukket,aldrig lukket,aldrig lukket,aldrig lukket,Monday: aldrig lukket Tuesday: aldrig lukket Wednesday: aldrig lukket Thursday: aldrig lukket Friday: aldrig lukket Saturday: aldrig lukket Sunday: aldrig lukket,,Gade,12.54562,55.667138
Bavnehøj idrætsanlæg,Enghavevej toilet.28,Enghavevej,90,Nej,,toilet.28,Enghavevej 90,2450,H+D,Nej,8.00-23.00,8.00-23.00,8.00-23.00,8.00-23.00,8.00-21.00,8.00-19.00,8.00-21.00,Monday: 8.00-23.00 Tuesday: 8.00-23.00 Wednesday: 8.00-23.00 Thursday: 8.00-23.00 Friday: 8.00-21.00 Saturday: 8.00-19.00 Sunday: 8.00-21.00,,Kommunal institution,12.538606,55.659686
Sundby Idrætspark,Englandsvej toilet.29,Englandsvej,61,Nej,,toilet.29,Englandsvej 61,2300,H+D+handicap,Ja,7.00 - 23.00,7.00 - 23.00,7.00 - 23.00,7.00 - 23.00,7.00 - 22.00,7.00  - 21.00,7.00 - 21.00,Monday: 7.00 - 23.00 Tuesday: 7.00 - 23.00 Wednesday: 7.00 - 23.00 Thursday: 7.00 - 23.00 Friday: 7.00 - 22.00 Saturday: 7.00  - 21.00 Sunday: 7.00 - 21.00,"lukket juli, jul & nytår og helligdage",Kommunal institution,12.599956,55.65023
"DRIFT, NORD",Engsvinget toilet.30,Engsvinget,46,Nej,Egen drift,toilet.30,Engsvinget 46,,Handicaptoilet,Ja,ca. 9.00 - 22.00,ca. 9.00 - 22.00,ca. 9.00 - 22.00,ca. 9.00 - 22.00,ca. 9.00 - 22.00,ca. 9.00 - 22.00,ca. 9.00 - 22.00,Monday: ca. 9.00 - 22.00 Tuesday: ca. 9.00 - 22.00 Wednesday: ca. 9.00 - 22.00 Thursday: ca. 9.00 - 22.00 Friday: ca. 9.00 - 22.00 Saturday: ca. 9.00 - 22.00 Sunday: ca. 9.00 - 22.00,Åbent fra 1. april til 30. september,Park,12.514386,55.716726
Grøndal MultiCenter,Hvidkildevej toilet.31,Hvidkildevej,64,Nej,,toilet.31,Hvidkildevej 64,2400,H+D+handicap,Ja,07.00-23.00,07.00-23.00,07.00-23.00,07.00-23.00,07.00-23.00,09.00-19.00,07.00-23.00,Monday: 07.00-23.00 Tuesday: 07.00-23.00 Wednesday: 07.00-23.00 Thursday: 07.00-23.00 Friday: 07.00-23.00 Saturday: 09.00-19.00 Sunday: 07.00-23.00,"Lukket juleaftensdag, 31/12 og 1/1",Kommunal institution,12.515352,55.699834
"DRIFT, NORD",Hyrdevangen toilet.32,Hyrdevangen,1,Nej,Egen drift,toilet.32,Brønshøjparken,,H+D+handicap,Ja,ca. 9.00 - 22.00,ca. 9.00 - 22.00,ca. 9.00 - 22.00,ca. 9.00 - 22.00,ca. 9.00 - 22.00,ca. 9.00 - 22.00,ca. 9.00 - 22.00,Monday: ca. 9.00 - 22.00 Tuesday: ca. 9.00 - 22.00 Wednesday: ca. 9.00 - 22.00 Thursday: ca. 9.00 - 22.00 Friday: ca. 9.00 - 22.00 Saturday: ca. 9.00 - 22.00 Sunday: ca. 9.00 - 22.00,Åbent fra 1. april til 30. september,Park,12.510322,55.707316
Behandlingsenhed Indre (BEI),Hørsholmsgade toilet.33,Hørsholmsgade,20A,Nej,,toilet.33,Hørsholmsgade 20 A,2200,H+D+handicap,Ja,09:00 - 15:00,09:00 - 15:00,09:00 - 15:00,09:00 - 13:00 16:00 17:00,09:00 - 13:00,,,Monday: 09:00 - 15:00 Tuesday: 09:00 - 15:00 Wednesday: 09:00 - 15:00 Thursday: 09:00 - 13:00 16:00 17:00 Friday: 09:00 - 13:00 Saturday:  Sunday: ,,Kommunal institution,12.543388,55.691853
Sundhedshus Vanløse/Brønshøj/Husum,Indertoften toilet.34,Indertoften,10,Nej,,toilet.34,Indertoften 10,,H+D+handicap,Ja,9.00 - 16.00,9.00 - 16.00,9.00 - 16.00,9.00 - 16.00,9.00 - 16.00,,,Monday: 9.00 - 16.00 Tuesday: 9.00 - 16.00 Wednesday: 9.00 - 16.00 Thursday: 9.00 - 16.00 Friday: 9.00 - 16.00 Saturday:  Sunday: ,,Kommunal institution,12.489073,55.686385
Kulturhuset Islands Brygge,Islands Brygge toilet.35,Islands Brygge,18,Nej,,toilet.35,Islands Brygge 18,2300,H+D+handicap,Ja,08:00-23:00,08:00-23:00,08:00-23:00,08:00-23:00,08:00-23:00,08:00-23:00,08:00-23:00,Monday: 08:00-23:00 Tuesday: 08:00-23:00 Wednesday: 08:00-23:00 Thursday: 08:00-23:00 Friday: 08:00-23:00 Saturday: 08:00-23:00 Sunday: 08:00-23:00,,Kommunal institution,12.576278,55.666837
"DRIFT, INDRE",Islands Brygge toilet.36,Islands Brygge,22,Nej,AFA,toilet.36,Islands Brygge over for nr. 37,,Reklamesøjle m. toilet,Nej,aldrig lukket,aldrig lukket,aldrig lukket,aldrig lukket,aldrig lukket,aldrig lukket,aldrig lukket,Monday: aldrig lukket Tuesday: aldrig lukket Wednesday: aldrig lukket Thursday: aldrig lukket Friday: aldrig lukket Saturday: aldrig lukket Sunday: aldrig lukket,,Gade,12.57425,55.665192
CDI/CDS,Islands Brygge toilet.37,Islands Brygge,,Nej,Udliciteret,toilet.37,islands Brygge,2300,Bemandet H+D+handicap,Ja,døgnåbent,døgnåbent,døgnåbent,døgnåbent,døgnpbent,døgnåbent,døgnåbent,Monday: døgnåbent Tuesday: døgnåbent Wednesday: døgnåbent Thursday: døgnåbent Friday: døgnpbent Saturday: døgnåbent Sunday: døgnåbent,Døgnåbent,Gade,12.573933,55.665352
"DRIFT, SYD",Islands Brygge toilet.38,Islands Brygge,12,Nej,Udliciteret,toilet.38,Havneparken,2300,H+D+handicap,Ja,ca. 9.00 - 22.00,ca. 9.00 - 22.00,ca. 9.00 - 22.00,ca. 9.00 - 22.00,ca. 9.00 - 22.00,ca. 9.00 - 22.00,ca. 9.00 - 22.00,Monday: ca. 9.00 - 22.00 Tuesday: ca. 9.00 - 22.00 Wednesday: ca. 9.00 - 22.00 Thursday: ca. 9.00 - 22.00 Friday: ca. 9.00 - 22.00 Saturday: ca. 9.00 - 22.00 Sunday: ca. 9.00 - 22.00,Åbent fra 1. april til 30. september,Park,12.578468,55.668388
"DRIFT, INDRE",Istedgade toilet.39,Istedgade,20,Nej,Egen drift,toilet.39,"Istedgade 20, Maria Kirkeplads",,Andre pissoirs,Nej,aldrig lukket,aldrig lukket,aldrig lukket,aldrig lukket,aldrig lukket,aldrig lukket,aldrig lukket,Monday: aldrig lukket Tuesday: aldrig lukket Wednesday: aldrig lukket Thursday: aldrig lukket Friday: aldrig lukket Saturday: aldrig lukket Sunday: aldrig lukket,,Gade,12.560541,55.67169
Kultur Østerbro,Jagtvej toilet.40,Jagtvej,227,Nej,,toilet.40,Jagtvej 227,2100,H+D+handicap,Ja,11:00-17:00,11:00-17:00,11:00-17:00,11:00-17:00,11:00-17:00,10:00-14:00,10:00-14:00,Monday: 11:00-17:00 Tuesday: 11:00-17:00 Wednesday: 11:00-17:00 Thursday: 11:00-17:00 Friday: 11:00-17:00 Saturday: 10:00-14:00 Sunday: 10:00-14:00,,Kommunal institution,12.576495,55.709166
"DRIFT, INDRE",Flæsketorvet toilet.41,Flæsketorvet,63,Nej,Ikke registreret,toilet.41,Flæsketorvet 63,,Andre pissoirs,Nej,aldrig lukket,aldrig lukket,aldrig lukket,aldrig lukket,aldrig lukket,aldrig lukket,aldrig lukket,Monday: aldrig lukket Tuesday: aldrig lukket Wednesday: aldrig lukket Thursday: aldrig lukket Friday: aldrig lukket Saturday: aldrig lukket Sunday: aldrig lukket,,Gade,12.560923,55.667512
Frankrigsgade Svømmehal,Frankrigsgade toilet.42,Frankrigsgade,35,Nej,,toilet.42,Frankrigsgade 35,2300,H+D,Nej,,,,,,,,Monday:  Tuesday:  Wednesday:  Thursday:  Friday:  Saturday:  Sunday: ,"Skiftende åbningstider, se dem på: http://teambade.kk.dk/indhold/%C3%A5bningstider-lukkedage-og-driftinfo",Kommunal institution,12.609794,55.662899
"DRIFT, INDRE",Frederiksborggade toilet.43,Frederiksborggade,21,Ja,Egen drift,toilet.43,Israels Plads - Frederiksborggade 21,,H+D,Nej,10.00 - 19.00,10.00 - 19.00,10.00 - 19.00,10.00 - 19.00,10.00 - 19.00,10.00 - 20.00,10.00 - 17.00,Monday: 10.00 - 19.00 Tuesday: 10.00 - 19.00 Wednesday: 10.00 - 19.00 Thursday: 10.00 - 19.00 Friday: 10.00 - 19.00 Saturday: 10.00 - 20.00 Sunday: 10.00 - 17.00,,Gade,12.569471,55.684294
"Kulturstationen Vanløse, Kulturhus",Frode Jakobsens Plads toilet.44,Frode Jakobsens Plads,4,Nej,,toilet.44,"Frode Jakobsens Plads 4, 1 sal",,H+D+handicap,Ja,8.00-21.00,8.00-21.00,8.00-21.00,8.00-21.00,8.00-21.00,8.00-21.00,8.00-21.00,Monday: 8.00-21.00 Tuesday: 8.00-21.00 Wednesday: 8.00-21.00 Thursday: 8.00-21.00 Friday: 8.00-21.00 Saturday: 8.00-21.00 Sunday: 8.00-21.00,Selvbetjent til 22.00,Kommunal institution,12.491066,55.687068
Center for Afklaring og Beskæftigelse (CAB),Gamle Vasbygade toilet.45,Gamle Vasbygade,49,Nej,,toilet.45,Gamle Vasbygade 49,2450,H+D+handicap,Ja,9.00-15.00,9.00-15.00,9.00-15.00,9.00-15.00,9.00-14.00,,,Monday: 9.00-15.00 Tuesday: 9.00-15.00 Wednesday: 9.00-15.00 Thursday: 9.00-15.00 Friday: 9.00-14.00 Saturday:  Sunday: ,Lukket weekender og helligdage,Kommunal institution,12.539789,55.654192
"DRIFT, INDRE",Gammel Kongevej toilet.46,Gammel Kongevej,6,Nej,AFA,toilet.46,"Vester Søgade, o.f. Planetariet",,Handicaptoilet,Ja,aldrig lukket,aldrig lukket,aldrig lukket,aldrig lukket,aldrig lukket,aldrig lukket,aldrig lukket,Monday: aldrig lukket Tuesday: aldrig lukket Wednesday: aldrig lukket Thursday: aldrig lukket Friday: aldrig lukket Saturday: aldrig lukket Sunday: aldrig lukket,,Gade,12.558971,55.674807
Genforeningspladsen,Genforeningspladsen toilet.47,Genforeningspladsen,54,Nej,,toilet.47,Genforeningspladsen 54,2400,H+D+handicap,Ja,07.00-22.00,07.00-22.00,07.00-22.00,07.00-22.00,07.00-22.00,08.00-20.00,08.00-20.00,Monday: 07.00-22.00 Tuesday: 07.00-22.00 Wednesday: 07.00-22.00 Thursday: 07.00-22.00 Friday: 07.00-22.00 Saturday: 08.00-20.00 Sunday: 08.00-20.00,Lukket 1/10-1/5,Kommunal institution,12.51841,55.699977
Voksen- & Hjemløsenheden/Fælles Modtagelse,Griffenfeldsgade toilet.48,Griffenfeldsgade,44,Nej,,toilet.48,"Griffenfeldsgade 44, opgang 2, stuen",2200,H+D,Nej,10.00 - 13.00,10.00 - 13.00,10.00 - 13.00,10.00 - 13.00,10.00 - 13.00,Lukket,Lukket,Monday: 10.00 - 13.00 Tuesday: 10.00 - 13.00 Wednesday: 10.00 - 13.00 Thursday: 10.00 - 13.00 Friday: 10.00 - 13.00 Saturday: Lukket Sunday: Lukket,Mellem jul- og nytår samt andre helligedage er der lukket,Kommunal institution,12.552652,55.686427
Øbro-Hallen,Gunnar Nu Hansens Plads toilet.49,Gunnar Nu Hansens Plads,3,Nej,,toilet.49,Gunnar Nu Hansens Plads 3,2100,H+D,Nej,,,,,,,,Monday:  Tuesday:  Wednesday:  Thursday:  Friday:  Saturday:  Sunday: ,"Skiftende åbningstider, se dem på: http://teambade.kk.dk/indhold/%C3%A5bningstider-lukkedage-og-driftinfo",Kommunal institution,12.576293,55.704756
International house (JKI),Gyldenløvesgade toilet.50,Gyldenløvesgade,11,Nej,,toilet.50,Gyldenløvesgade 11,1600,H+D,Nej,9.00-15.00,9.00-15.00,9.00-15.00,9.00-15.00,10.30-14.00,,,Monday: 9.00-15.00 Tuesday: 9.00-15.00 Wednesday: 9.00-15.00 Thursday: 9.00-15.00 Friday: 10.30-14.00 Saturday:  Sunday: ,Lukket weekender og helligdage,Kommunal institution,12.562782,55.679748
"DRIFT, INDRE",Halmtorvet toilet.51,Halmtorvet,12A,Nej,Egen drift,toilet.51,"Halmtorvet, Halmtorvet nr 12 A",,Danfo toiletenhed,Ja,aldrig lukket,aldrig lukket,aldrig lukket,aldrig lukket,aldrig lukket,aldrig lukket,aldrig lukket,Monday: aldrig lukket Tuesday: aldrig lukket Wednesday: aldrig lukket Thursday: aldrig lukket Friday: aldrig lukket Saturday: aldrig lukket Sunday: aldrig lukket,,Gade,12.561251,55.670548
"DRIFT, INDRE",Halmtorvet toilet.52,Halmtorvet,9C,Nej,Udliciteret,toilet.52,"Kødbyen, Halmtorvet 9C",,H+D,Nej,aldrig lukket,aldrig lukket,aldrig lukket,aldrig lukket,aldrig lukket,aldrig lukket,aldrig lukket,Monday: aldrig lukket Tuesday: aldrig lukket Wednesday: aldrig lukket Thursday: aldrig lukket Friday: aldrig lukket Saturday: aldrig lukket Sunday: aldrig lukket,,Andet,12.561735,55.670053
Sundhedshus Amager,Hans Bogbinders Allé toilet.53,Hans Bogbinders Allé,3,Nej,,toilet.53,Hans Bogbinders Allé 3,,H+D+handicap,Ja,9.00 - 16.00,9.00 - 16.00,9.00 - 16.00,9.00 - 16.00,9.00 - 16.00,,,Monday: 9.00 - 16.00 Tuesday: 9.00 - 16.00 Wednesday: 9.00 - 16.00 Thursday: 9.00 - 16.00 Friday: 9.00 - 16.00 Saturday:  Sunday: ,,Kommunal institution,12.609173,55.654728
"DRIFT, INDRE",Havnegade toilet.54,Havnegade,27,Nej,Egen drift,toilet.54,"Havnegade, Havnegade of. nr 27",,Danfo toiletenhed,Ja,aldrig lukket,aldrig lukket,aldrig lukket,aldrig lukket,aldrig lukket,aldrig lukket,aldrig lukket,Monday: aldrig lukket Tuesday: aldrig lukket Wednesday: aldrig lukket Thursday: aldrig lukket Friday: aldrig lukket Saturday: aldrig lukket Sunday: aldrig lukket,aldrig lukket,Gade,12.588465,55.676341
"Center for Beskæftigelse, Sprog og Integration (CBSI)",Hejrevej toilet.55,Hejrevej,10,Nej,,toilet.55,Hejrevej 10,2200,H+D,Nej,9.00-15.00,9.00-15.00,9.00-15.00,9.00-15.00,9.00-14.00,,,Monday: 9.00-15.00 Tuesday: 9.00-15.00 Wednesday: 9.00-15.00 Thursday: 9.00-15.00 Friday: 9.00-14.00 Saturday:  Sunday: ,Lukket weekender og helligdage,Kommunal institution,12.533771,55.700684
"DRIFT, NORD",Hulgårds Plads toilet.56,Hulgårds Plads,,Nej,Egen drift,toilet.56,Hulgårds Plads,,H+D,Ja,døgnåbent,døgnåbent,døgnåbent,døgnåbent,døgnåbent,døgnåbent,døgnåbent,Monday: døgnåbent Tuesday: døgnåbent Wednesday: døgnåbent Thursday: døgnåbent Friday: døgnåbent Saturday: døgnåbent Sunday: døgnåbent,døgnåbent,Gade,12.522196,55.705075
"DRIFT, INDRE",Dyrkøb toilet.58,Dyrkøb,1,Nej,AFA,toilet.58,Vor Frue Plads ud for Dyrkøb 1,,Reklamesøjle m. toilet,Nej,aldrig lukket,aldrig lukket,aldrig lukket,aldrig lukket,aldrig lukket,aldrig lukket,aldrig lukket,Monday: aldrig lukket Tuesday: aldrig lukket Wednesday: aldrig lukket Thursday: aldrig lukket Friday: aldrig lukket Saturday: aldrig lukket Sunday: aldrig lukket,,Gade,12.573532,55.679306
"DRIFT, INDRE",Edel Sauntes Allé toilet.59,Edel Sauntes Allé,5,Nej,,toilet.59,Edel Sauntes Alle 5 (skateparken),,H+D+handicap,Ja,ca. 9.00 - 22.00,ca. 9.00 - 22.00,ca. 9.00 - 22.00,ca. 9.00 - 22.00,ca. 9.00 - 22.00,ca. 9.00 - 22.00,ca. 9.00 - 22.00,Monday: ca. 9.00 - 22.00 Tuesday: ca. 9.00 - 22.00 Wednesday: ca. 9.00 - 22.00 Thursday: ca. 9.00 - 22.00 Friday: ca. 9.00 - 22.00 Saturday: ca. 9.00 - 22.00 Sunday: ca. 9.00 - 22.00,,Park,12.563927,55.699603
"DRIFT, INDRE",Edel Sauntes Allé toilet.60,Edel Sauntes Allé,18,Nej,Udliciteret,toilet.60,"Edel Sauntes Alle 18-20,  ( Det røde toilet)",,H+D+handicap,Ja,ca. 9.00 - 22.00,ca. 9.00 - 22.00,ca. 9.00 - 22.00,ca. 9.00 - 22.00,ca. 9.00 - 22.00,ca. 9.00 - 22.00,ca. 9.00 - 22.00,Monday: ca. 9.00 - 22.00 Tuesday: ca. 9.00 - 22.00 Wednesday: ca. 9.00 - 22.00 Thursday: ca. 9.00 - 22.00 Friday: ca. 9.00 - 22.00 Saturday: ca. 9.00 - 22.00 Sunday: ca. 9.00 - 22.00,Åbent fra 1. april til 30. september,Park,12.565388,55.700706
"DRIFT, NORD",Elna Munchs Plads toilet.61,Elna Munchs Plads,2,Nej,Egen drift,toilet.61,"Ålekistevej, Ålekistevej 167",,Danfo toiletenhed,Ja,aldrig lukket,aldrig lukket,aldrig lukket,aldrig lukket,aldrig lukket,aldrig lukket,aldrig lukket,Monday: aldrig lukket Tuesday: aldrig lukket Wednesday: aldrig lukket Thursday: aldrig lukket Friday: aldrig lukket Saturday: aldrig lukket Sunday: aldrig lukket,,Gade,12.480697,55.691461
Nikolaj Kunsthal,Nikolaj Plads toilet.62,Nikolaj Plads,10,Nej,,toilet.62,Nikolaj Plads 10,1067,H+D+handicap,Ja,lukket,12.00-17.00,12.00-17.00,12.00-21.00,12.00-17.00,12.00-17.00,12.00-17.00,Monday: lukket Tuesday: 12.00-17.00 Wednesday: 12.00-17.00 Thursday: 12.00-21.00 Friday: 12.00-17.00 Saturday: 12.00-17.00 Sunday: 12.00-17.00,,Kommunal institution,12.581474,55.678791
"DRIFT, INDRE",Nikolaj Plads toilet.63,Nikolaj Plads,10,Nej,Egen drift,toilet.63,Nikolaj Plads 10,,Støbejernspissoir,Nej,aldrig lukket,aldrig lukket,aldrig lukket,aldrig lukket,aldrig lukket,aldrig lukket,aldrig lukket,Monday: aldrig lukket Tuesday: aldrig lukket Wednesday: aldrig lukket Thursday: aldrig lukket Friday: aldrig lukket Saturday: aldrig lukket Sunday: aldrig lukket,,Gade,12.581856,55.679004
Islands Brygges Bibliotek,Njalsgade toilet.64,Njalsgade,13,Nej,,toilet.64,Njalsgade 13,2300,H+D,Nej,13:00-18:00,10:00-16:00,14:00-18:00,13:00-18:00,13:00-17:00,10:00-14:00,Lukket,Monday: 13:00-18:00 Tuesday: 10:00-16:00 Wednesday: 14:00-18:00 Thursday: 13:00-18:00 Friday: 13:00-17:00 Saturday: 10:00-14:00 Sunday: Lukket,,Kommunal institution,12.57878,55.666727
"DRIFT, INDRE",Nybrogade toilet.65,Nybrogade,24,Nej,Egen drift,toilet.65,Nybrogade over for nr. 24,,Andre pissoirs,Nej,aldrig lukket,aldrig lukket,aldrig lukket,aldrig lukket,aldrig lukket,aldrig lukket,aldrig lukket,Monday: aldrig lukket Tuesday: aldrig lukket Wednesday: aldrig lukket Thursday: aldrig lukket Friday: aldrig lukket Saturday: aldrig lukket Sunday: aldrig lukket,,Gade,12.57601,55.676105
"DRIFT, INDRE",Nyhavn toilet.66,Nyhavn,1F,Ja,Egen drift,toilet.66,"Nyhavn 1F, underjordisk",,Bemandet H+D,Nej,9.00 - 22.30,9.00 - 22.30,9.00 - 22.30,9.00 - 22.30,9.00 - 22.30,9.00 - 22.30,9.00 - 22.30,Monday: 9.00 - 22.30 Tuesday: 9.00 - 22.30 Wednesday: 9.00 - 22.30 Thursday: 9.00 - 22.30 Friday: 9.00 - 22.30 Saturday: 9.00 - 22.30 Sunday: 9.00 - 22.30,,Gade,12.587758,55.680573
"DRIFT, INDRE",Nyhavn toilet.67,Nyhavn,47,Nej,Egen drift,toilet.67,"Nyhavn, over for nr. 47",,Andre pissoirs,Nej,aldrig lukket,aldrig lukket,aldrig lukket,aldrig lukket,aldrig lukket,aldrig lukket,aldrig lukket,Monday: aldrig lukket Tuesday: aldrig lukket Wednesday: aldrig lukket Thursday: aldrig lukket Friday: aldrig lukket Saturday: aldrig lukket Sunday: aldrig lukket,,Gade,12.591223,55.679813
"DRIFT, INDRE",Nyhavn toilet.68,Nyhavn,24,Nej,Egen drift,toilet.68,Nyhavn over for nr. 24,,Andre pissoirs,Nej,aldrig lukket,aldrig lukket,aldrig lukket,aldrig lukket,aldrig lukket,aldrig lukket,aldrig lukket,Monday: aldrig lukket Tuesday: aldrig lukket Wednesday: aldrig lukket Thursday: aldrig lukket Friday: aldrig lukket Saturday: aldrig lukket Sunday: aldrig lukket,,Gade,12.591002,55.679549
Borgerservice Indre By,Nyropsgade toilet.69,Nyropsgade,1,Nej,,toilet.69,Nyropsgade 1,1602,H+D+handicap,Ja,10.00-17.00,10.00-17.00,10.00-17.00,09.00-18.00,10.00-17.00,lukket,lukket,Monday: 10.00-17.00 Tuesday: 10.00-17.00 Wednesday: 10.00-17.00 Thursday: 09.00-18.00 Friday: 10.00-17.00 Saturday: lukket Sunday: lukket,"Har kun lukket juleaftensdag, den 25-26. dec. og 31. dec. og 1. januar",Kommunal institution,12.561901,55.680166
Arbejdsmarkedscenteret (AMC),Nyropsgade toilet.70,Nyropsgade,41A,Nej,,toilet.70,Nyropsgade 41-43,1602,H+D+handicap,Ja,9.00-15.00,9.00-15.00,9.00-15.00,9.00-15.00,9.00-14.00,,,Monday: 9.00-15.00 Tuesday: 9.00-15.00 Wednesday: 9.00-15.00 Thursday: 9.00-15.00 Friday: 9.00-14.00 Saturday:  Sunday: ,Lukket weekender og helligdage,Kommunal institution,12.561099,55.676657
"DRIFT, INDRE",Nytorv toilet.71,Nytorv,27,Nej,Egen drift,toilet.71,"Nytorv, ud for nr. 27",,Støbejernspissoir,Nej,aldrig lukket,aldrig lukket,aldrig lukket,aldrig lukket,aldrig lukket,aldrig lukket,aldrig lukket,Monday: aldrig lukket Tuesday: aldrig lukket Wednesday: aldrig lukket Thursday: aldrig lukket Friday: aldrig lukket Saturday: aldrig lukket Sunday: aldrig lukket,,Gade,12.572666,55.67757
Emdrup Idrætspark,Nøkkerosevej toilet.72,Nøkkerosevej,23,Nej,,toilet.72,Nøkkerosevej 23,2400,H+D+handicap,Ja,08.00-22.00,08.00-22.00,08.00-22.00,08.00-22.00,08.00-22.00,08.00-19.00,08.00-19.00,Monday: 08.00-22.00 Tuesday: 08.00-22.00 Wednesday: 08.00-22.00 Thursday: 08.00-22.00 Friday: 08.00-22.00 Saturday: 08.00-19.00 Sunday: 08.00-19.00,,Kommunal institution,12.533731,55.725743
VerdensKulturCentret,Nørre Allé toilet.73,Nørre Allé,7,Nej,,toilet.73,Nørre Allé 7,2200,H+D+handicap,Ja,8:00 - 23:00,8:00 - 23:00,8:00 - 23:00,8:00 - 23:00,8:00 - 23:00,8:00 - 23:00,8:00 - 23:00,Monday: 8:00 - 23:00 Tuesday: 8:00 - 23:00 Wednesday: 8:00 - 23:00 Thursday: 8:00 - 23:00 Friday: 8:00 - 23:00 Saturday: 8:00 - 23:00 Sunday: 8:00 - 23:00,"Handicapadgang 8-21 i hverdage, 10-17 lørdag og lukket søndag.",Kommunal institution,12.560564,55.691532
Nørrebrohallen,Nørrebrogade toilet.74,Nørrebrogade,208,Nej,,toilet.74,Nørrebrogade 208,,H+D+handicap,Ja,7:00 - 23:00,7:00 - 23:00,7:00 - 23:00,7:00 - 23:00,7:00 - 21:00,8:00 - 21:00,8:00 - 21:00,Monday: 7:00 - 23:00 Tuesday: 7:00 - 23:00 Wednesday: 7:00 - 23:00 Thursday: 7:00 - 23:00 Friday: 7:00 - 21:00 Saturday: 8:00 - 21:00 Sunday: 8:00 - 21:00,weekendsåbningstider fra 1/10-2015 til 31/3-2016,Kommunal institution,12.542994,55.69955
"Kulturstationen Vanløse, bibliotek",Jernbane Allé toilet.75,Jernbane Allé,38,Nej,,toilet.75,Jernbane Allé 38,,H+D+handicap,Ja,8.00-17.00,8.00-17.00,8.00-17.00,8.00-17.00,8.00-17.00,8.00-14.00,,Monday: 8.00-17.00 Tuesday: 8.00-17.00 Wednesday: 8.00-17.00 Thursday: 8.00-17.00 Friday: 8.00-17.00 Saturday: 8.00-14.00 Sunday: ,"Selvbetjent til 22.00, lukket d. 31 dec, 1 jan.",Kommunal institution,12.491309,55.686522
Valby Vandkulturhus,Julius Andersens Vej toilet.76,Julius Andersens Vej,1A,Nej,,toilet.76,Julius Andersens Vej 1A,2450,H+D,Nej,,,,,,,,Monday:  Tuesday:  Wednesday:  Thursday:  Friday:  Saturday:  Sunday: ,"Skiftende åbningstider, se dem på: http://teambade.kk.dk/indhold/%C3%A5bningstider-lukkedage-og-driftinfo",Kommunal institution,12.515276,55.648978
Valbyhallen,Julius Andersens Vej toilet.77,Julius Andersens Vej,3,Nej,,toilet.77,Julius Andersens Vej 3,2450,H+D+handicap,Ja,8.00-23.00,8.00-23.00,8.00-23.00,8.00-23.00,8.00-21.00,8.00-19.00,8.00-21.00,Monday: 8.00-23.00 Tuesday: 8.00-23.00 Wednesday: 8.00-23.00 Thursday: 8.00-23.00 Friday: 8.00-21.00 Saturday: 8.00-19.00 Sunday: 8.00-21.00,,Kommunal institution,12.51651,55.649381
"DRIFT, NORD",Kagsvang toilet.78,Kagsvang,31,Nej,Udliciteret,toilet.78,"Kagsvang 31, Kagsmosen",,H+D,Nej,ca. 9.00 - 22.00,ca. 9.00 - 22.00,ca. 9.00 - 22.00,ca. 9.00 - 22.00,ca. 9.00 - 22.00,ca. 9.00 - 22.00,ca. 9.00 - 22.00,Monday: ca. 9.00 - 22.00 Tuesday: ca. 9.00 - 22.00 Wednesday: ca. 9.00 - 22.00 Thursday: ca. 9.00 - 22.00 Friday: ca. 9.00 - 22.00 Saturday: ca. 9.00 - 22.00 Sunday: ca. 9.00 - 22.00,,Park,12.458448,55.710409
"DRIFT, INDRE",Kalvebod Brygge toilet.79,Kalvebod Brygge,3B,Nej,Udliciteret,toilet.79,Bølgen - Kalvebod Brygge 3B,,H+D+handicap,Ja,ca. 9.00 - 22.00,ca. 9.00 - 22.00,ca. 9.00 - 22.00,ca. 9.00 - 22.00,ca. 9.00 - 22.00,ca. 9.00 - 22.00,ca. 9.00 - 22.00,Monday: ca. 9.00 - 22.00 Tuesday: ca. 9.00 - 22.00 Wednesday: ca. 9.00 - 22.00 Thursday: ca. 9.00 - 22.00 Friday: ca. 9.00 - 22.00 Saturday: ca. 9.00 - 22.00 Sunday: ca. 9.00 - 22.00,,Andet,12.57598,55.669141
"DRIFT, SYD",Kastrupvej toilet.80,Kastrupvej,50,Nej,Udliciteret,toilet.80,"Sundby Kirkegård, Kastrupvej 55, i Kapel",2300,H+D+handicap,Ja,10.00 - 16.00,10.00 - 16.00,10.00 - 16.00,10.00 - 16.00,10.00 - 16.00,10.00 - 16.00,10.00 - 16.00,Monday: 10.00 - 16.00 Tuesday: 10.00 - 16.00 Wednesday: 10.00 - 16.00 Thursday: 10.00 - 16.00 Friday: 10.00 - 16.00 Saturday: 10.00 - 16.00 Sunday: 10.00 - 16.00,,Kirkegård,12.618216,55.656695
"DRIFT, INDRE",Kejsergade toilet.81,Kejsergade,2,Nej,Egen drift,toilet.81,"Gråbrødre Torv, ud for Kejsergade 2",,Danfo toiletenhed,Ja,aldrig lukket,aldrig lukket,aldrig lukket,aldrig lukket,aldrig lukket,aldrig lukket,aldrig lukket,Monday: aldrig lukket Tuesday: aldrig lukket Wednesday: aldrig lukket Thursday: aldrig lukket Friday: aldrig lukket Saturday: aldrig lukket Sunday: aldrig lukket,,Gade,12.575451,55.679984
Vigerslev Bibliotek,Kirsebærhaven toilet.82,Kirsebærhaven,23,Nej,,toilet.82,Kirsebærhaven 23,,H+D+handicap,Ja,8:00 - 17:00,8:00 - 17:00,8:00 - 17:00,8:00 - 17:00,8:00 - 16:00,9:00 - 15:00,,Monday: 8:00 - 17:00 Tuesday: 8:00 - 17:00 Wednesday: 8:00 - 17:00 Thursday: 8:00 - 17:00 Friday: 8:00 - 16:00 Saturday: 9:00 - 15:00 Sunday: ,,Kommunal institution,12.503313,55.649231
Vanløse Idrætspark,Klitmøllervej toilet.83,Klitmøllervej,20,Nej,,toilet.83,Klitmøllervej 20,2720,H+D,Nej,07.00-22.00,07.00-22.00,07.00-22.00,07.00-22.00,07.00-22.00,08.00-20.00,08.00-20.00,Monday: 07.00-22.00 Tuesday: 07.00-22.00 Wednesday: 07.00-22.00 Thursday: 07.00-22.00 Friday: 07.00-22.00 Saturday: 08.00-20.00 Sunday: 08.00-20.00,,Kommunal institution,12.476963,55.686388
Kløvermarkens Idrætsanlæg,Kløvermarksvej toilet.84,Kløvermarksvej,50,Nej,,toilet.84,Kløvermarksvej 50,2300,H+D+handicap,Ja,7.00 - 22.00,7.00 - 22.00,7.00 - 22.00,7.00 - 22.00,7.00 - 22.00,7.00 - 19.00,7.00 - 19.00,Monday: 7.00 - 22.00 Tuesday: 7.00 - 22.00 Wednesday: 7.00 - 22.00 Thursday: 7.00 - 22.00 Friday: 7.00 - 22.00 Saturday: 7.00 - 19.00 Sunday: 7.00 - 19.00,Lukket vinterhalvåret,Kommunal institution,12.608327,55.672271
"DRIFT, INDRE",Korsgade toilet.85,Korsgade,58,Nej,Egen drift,toilet.85,Korsgade 58,2200,Støbejernspissoir,Nej,aldrig lukket,aldrig lukket,aldrig lukket,aldrig lukket,aldrig lukket,aldrig lukket,aldrig lukket,Monday: aldrig lukket Tuesday: aldrig lukket Wednesday: aldrig lukket Thursday: aldrig lukket Friday: aldrig lukket Saturday: aldrig lukket Sunday: aldrig lukket,,Gade,12.553934,55.686647
"DRIFT, INDRE",Langelinie toilet.86,Langelinie,,Nej,Udliciteret,toilet.86,Langelinie v. Hvidtfeldtmonumentet,,H+D+handicap,Ja,ca. 9.00 - 22.00,ca. 9.00 - 22.00,ca. 9.00 - 22.00,ca. 9.00 - 22.00,ca. 9.00 - 22.00,ca. 9.00 - 22.00,ca. 9.00 - 22.00,Monday: ca. 9.00 - 22.00 Tuesday: ca. 9.00 - 22.00 Wednesday: ca. 9.00 - 22.00 Thursday: ca. 9.00 - 22.00 Friday: ca. 9.00 - 22.00 Saturday: ca. 9.00 - 22.00 Sunday: ca. 9.00 - 22.00,Åbent fra 1. april til 30. september,Park,12.599197,55.690616
"DRIFT, INDRE",Langelinie toilet.87,Langelinie,1,Nej,Udliciteret,toilet.87,Langelinie v østlige ende af bro,,H+D+handicap,Ja,ca. 9.00 - 22.00,ca. 9.00 - 22.00,ca. 9.00 - 22.00,ca. 9.00 - 22.00,ca. 9.00 - 22.00,ca. 9.00 - 22.00,ca. 9.00 - 22.00,Monday: ca. 9.00 - 22.00 Tuesday: ca. 9.00 - 22.00 Wednesday: ca. 9.00 - 22.00 Thursday: ca. 9.00 - 22.00 Friday: ca. 9.00 - 22.00 Saturday: ca. 9.00 - 22.00 Sunday: ca. 9.00 - 22.00,Åbent fra 1. april til 30. september,Park,12.59472,55.694577
"DRIFT, INDRE",Langeliniekaj toilet.88,Langeliniekaj,63,Nej,Udliciteret,toilet.88,Langeliniekaj 63  (yderst på langeliniekajen),,H+D,Nej,ca. 9.00 - 22.00,ca. 9.00 - 22.00,ca. 9.00 - 22.00,ca. 9.00 - 22.00,ca. 9.00 - 22.00,ca. 9.00 - 22.00,ca. 9.00 - 22.00,Monday: ca. 9.00 - 22.00 Tuesday: ca. 9.00 - 22.00 Wednesday: ca. 9.00 - 22.00 Thursday: ca. 9.00 - 22.00 Friday: ca. 9.00 - 22.00 Saturday: ca. 9.00 - 22.00 Sunday: ca. 9.00 - 22.00,Åbent fra 1. april til 30. september,Gade,12.600802,55.703656
"DRIFT, NORD",Lyngbyvej toilet.89,Lyngbyvej,90,Nej,Egen drift,toilet.89,"Hans Knudsens Plads , Lyngbyvej 90",,Danfo toiletenhed,Ja,aldrig lukket,aldrig lukket,aldrig lukket,aldrig lukket,aldrig lukket,aldrig lukket,aldrig lukket,Monday: aldrig lukket Tuesday: aldrig lukket Wednesday: aldrig lukket Thursday: aldrig lukket Friday: aldrig lukket Saturday: aldrig lukket Sunday: aldrig lukket,,Gade,12.560245,55.712948
Vesterbro Bibliotek,Lyrskovgade toilet.90,Lyrskovgade,4,Nej,,toilet.90,Lyrskovgade 4,,H+D+handicap,Ja,8:00 - 18:00,8:00 - 18:00,8:00 - 18:00,8:00 - 18:00,8:00 - 17:00,9:00 - 15:00,,Monday: 8:00 - 18:00 Tuesday: 8:00 - 18:00 Wednesday: 8:00 - 18:00 Thursday: 8:00 - 18:00 Friday: 8:00 - 17:00 Saturday: 9:00 - 15:00 Sunday: ,,Kommunal institution,12.543715,55.667827
Borgerservice Bispebjerg,Lærkevej toilet.91,Lærkevej,18,Nej,,toilet.91,Lærkevej 18,2400,H+D+handicap,Ja,10.00-17.00,10.00-17.00,10.00-17.00,9.00-18.00,10.00-15.00,,,Monday: 10.00-17.00 Tuesday: 10.00-17.00 Wednesday: 10.00-17.00 Thursday: 9.00-18.00 Friday: 10.00-15.00 Saturday:  Sunday: ,,Kommunal institution,12.529399,55.701134
Vanløse Hallerne,Lønstrupvej toilet.92,Lønstrupvej,5,Nej,,toilet.92,Lønstrupvej 5,2720,H+D,Nej,15.00-23.00,15.00-23.00,15.00-23.00,15.00-23.00,15.00-23.00,08.00-19.00,08.00-19.00,Monday: 15.00-23.00 Tuesday: 15.00-23.00 Wednesday: 15.00-23.00 Thursday: 15.00-23.00 Friday: 15.00-23.00 Saturday: 08.00-19.00 Sunday: 08.00-19.00,"Lukket jul, påske, skolernes sommerferie",Kommunal institution,12.481191,55.685821
Modtagelsen,Matthæusgade toilet.93,Matthæusgade,1,Nej,,toilet.93,Matthæusgade 1,1666,H+D+handicap,Ja,kl 9-15,kl 9-15,kl 9-15,kl. 13-18,kl. 9-13,ikke åbent,ikke åbent,Monday: kl 9-15 Tuesday: kl 9-15 Wednesday: kl 9-15 Thursday: kl. 13-18 Friday: kl. 9-13 Saturday: ikke åbent Sunday: ikke åbent,Lukket mellem jul og nytår,Kommunal institution,12.552382,55.669797
Modtagelsen,Matthæusgade toilet.94,Matthæusgade,1,Nej,,toilet.94,Matthæusgade 1,1666,H+D,Nej,kl 9-15,kl 9-15,kl 9-15,kl. 13-18,kl. 9-13,ikke åbent,ikke åbent,Monday: kl 9-15 Tuesday: kl 9-15 Wednesday: kl 9-15 Thursday: kl. 13-18 Friday: kl. 9-13 Saturday: ikke åbent Sunday: ikke åbent,Lukket mellem jul og nytår,Kommunal institution,12.552382,55.669797
"DRIFT, NORD",Melchiors Plads toilet.95,Melchiors Plads,8,Nej,Egen drift,toilet.95,Melchiors Plads  ud for nr. 8,,Danfo toiletenhed,Ja,aldrig lukket,aldrig lukket,aldrig lukket,aldrig lukket,aldrig lukket,aldrig lukket,aldrig lukket,Monday: aldrig lukket Tuesday: aldrig lukket Wednesday: aldrig lukket Thursday: aldrig lukket Friday: aldrig lukket Saturday: aldrig lukket Sunday: aldrig lukket,,Gade,12.585572,55.70355
Sundhedshus Nørrebro/Bispebjerg,Mimersgade toilet.96,Mimersgade,41,Nej,,toilet.96,Mimersgade 41,,H+D+handicap,Ja,9.00 - 16.00,9.00 - 16.00,9.00 - 16.00,9.00 - 16.00,9.00 - 16.00,,,Monday: 9.00 - 16.00 Tuesday: 9.00 - 16.00 Wednesday: 9.00 - 16.00 Thursday: 9.00 - 16.00 Friday: 9.00 - 16.00 Saturday:  Sunday: ,,Kommunal institution,12.548227,55.699036
"DRIFT, NORD",Moseskellet toilet.97,Moseskellet,47,Nej,Egen drift,toilet.97,Moseskellet 47,,H+D,Nej,ca. 9.00 - 22.00,ca. 9.00 - 22.00,ca. 9.00 - 22.00,ca. 9.00 - 22.00,ca. 9.00 - 22.00,ca. 9.00 - 22.00,ca. 9.00 - 22.00,Monday: ca. 9.00 - 22.00 Tuesday: ca. 9.00 - 22.00 Wednesday: ca. 9.00 - 22.00 Thursday: ca. 9.00 - 22.00 Friday: ca. 9.00 - 22.00 Saturday: ca. 9.00 - 22.00 Sunday: ca. 9.00 - 22.00,,Park,12.52282,55.722022
"DRIFT, NORD",Mosesvinget toilet.98,Mosesvinget,11,Nej,Egen drift,toilet.98,Mosesvinget 1,,H+D,Nej,ca. 9.00 - 22.00,ca. 9.00 - 22.00,ca. 9.00 - 22.00,ca. 9.00 - 22.00,ca. 9.00 - 22.00,ca. 9.00 - 22.00,ca. 9.00 - 22.00,Monday: ca. 9.00 - 22.00 Tuesday: ca. 9.00 - 22.00 Wednesday: ca. 9.00 - 22.00 Thursday: ca. 9.00 - 22.00 Friday: ca. 9.00 - 22.00 Saturday: ca. 9.00 - 22.00 Sunday: ca. 9.00 - 22.00,Åbent fra 1. april til 30. september,Park,12.50484,55.712979
"DRIFT, SYD",Mozarts Plads toilet.99,Mozarts Plads,1A,Nej,Egen drift,toilet.99,"Mozarts Plads, Mozarts Plads 1A",,Danfo toiletenhed,Ja,aldrig lukket,aldrig lukket,aldrig lukket,aldrig lukket,aldrig lukket,aldrig lukket,aldrig lukket,Monday: aldrig lukket Tuesday: aldrig lukket Wednesday: aldrig lukket Thursday: aldrig lukket Friday: aldrig lukket Saturday: aldrig lukket Sunday: aldrig lukket,,Gade,12.534678,55.64871
"DRIFT, NORD",Pilesvinget toilet.100,Pilesvinget,80,Nej,Egen drift,toilet.100,Pilesvinget 80,,H+D+handicap,Ja,ca. 9.00 - 22.00,ca. 9.00 - 22.00,ca. 9.00 - 22.00,ca. 9.00 - 22.00,ca. 9.00 - 22.00,ca. 9.00 - 22.00,ca. 9.00 - 22.00,Monday: ca. 9.00 - 22.00 Tuesday: ca. 9.00 - 22.00 Wednesday: ca. 9.00 - 22.00 Thursday: ca. 9.00 - 22.00 Friday: ca. 9.00 - 22.00 Saturday: ca. 9.00 - 22.00 Sunday: ca. 9.00 - 22.00,,Park,12.486389,55.708811
"DRIFT, INDRE",Sønder Boulevard toilet.101,Sønder Boulevard,60,Nej,Egen drift,toilet.101,"Sønder Boulevard, Sønder Boulevard of. nr 60",,Danfo toiletenhed,Ja,aldrig lukket,aldrig lukket,aldrig lukket,aldrig lukket,aldrig lukket,aldrig lukket,aldrig lukket,Monday: aldrig lukket Tuesday: aldrig lukket Wednesday: aldrig lukket Thursday: aldrig lukket Friday: aldrig lukket Saturday: aldrig lukket Sunday: aldrig lukket,,Gade,12.551496,55.666095
Center for Kompetence og Beskæftigelse (CKB),Teglværksgade toilet.102,Teglværksgade,31,Nej,,toilet.102,Teglværksgade 31,2100,H+D+handicap,Ja,9.00-15.00,9.00-15.00,9.00-15.00,9.00-15.00,9.00-14.00,,,Monday: 9.00-15.00 Tuesday: 9.00-15.00 Wednesday: 9.00-15.00 Thursday: 9.00-15.00 Friday: 9.00-14.00 Saturday:  Sunday: ,Lukket weekender og helligdage,Kommunal institution,12.558749,55.707593
Borgercenter Handicap,Thoravej toilet.103,Thoravej,29,Nej,,toilet.103,Thoravej 29,2400,H+D+handicap,Ja,,,,13-17,,lukket,lukket,Monday:  Tuesday:  Wednesday:  Thursday: 13-17 Friday:  Saturday: lukket Sunday: lukket,,Kommunal institution,12.526846,55.706084
Solvang Bibliotek,Remisevej toilet.104,Remisevej,14,Nej,,toilet.104,Remisevej 14,,H+D+handicap,Ja,13 - 18,13 - 18,13 - 18,13 - 18,13 - 17,10 til 14,,Monday: 13 - 18 Tuesday: 13 - 18 Wednesday: 13 - 18 Thursday: 13 - 18 Friday: 13 - 17 Saturday: 10 til 14 Sunday: ,,Kommunal institution,12.595484,55.648722
Tingbjerg Idrætspark,Ruten toilet.105,Ruten,2,Nej,,toilet.105,Ruten 2,2700,H+D+handicap,Ja,07.00-20.00,07.00-20.00,07.00-20.00,07.00-20.00,07.00-20.00,,,Monday: 07.00-20.00 Tuesday: 07.00-20.00 Wednesday: 07.00-20.00 Thursday: 07.00-20.00 Friday: 07.00-20.00 Saturday:  Sunday: ,Lukket ml. jul og nytår samt påske.,Kommunal institution,12.492326,55.718818
Københavns Stadsarkiv,Rådhuspladsen toilet.106,Rådhuspladsen,1,Nej,,toilet.106,Rådhuspladsen 1,1599,H+D,?,"09,00-15,00","09,00-15,00","09,00-15,00",10.00-17.00,lukket,lukket,lukket,"Monday: 09,00-15,00 Tuesday: 09,00-15,00 Wednesday: 09,00-15,00 Thursday: 10.00-17.00 Friday: lukket Saturday: lukket Sunday: lukket","lukket juli, helligdage, 23/12-1/1",Kommunal institution,12.569578,55.675627
Huset-KBH,Rådhusstræde toilet.107,Rådhusstræde,13,Nej,,toilet.107,"Rådhusstræde 13, stue-etagen",1466,H+D+handicap,Ja,12.00 - 23.00,12.00 - 23.00,12.00 - 23.00,12.00 - 23.00,12.00 - 23.00,12.00 - 23.00,12.00 - 23.00,Monday: 12.00 - 23.00 Tuesday: 12.00 - 23.00 Wednesday: 12.00 - 23.00 Thursday: 12.00 - 23.00 Friday: 12.00 - 23.00 Saturday: 12.00 - 23.00 Sunday: 12.00 - 23.00,Toiletter er åbne når Bastard-caféen er åben.,Kommunal institution,12.574728,55.676411
Hillerødgade Bad og Hal,Sandbjerggade toilet.108,Sandbjerggade,35,Nej,,toilet.108,Sandbjerggade 35,2200,H+D,Nej,,,,,,,,Monday:  Tuesday:  Wednesday:  Thursday:  Friday:  Saturday:  Sunday: ,"Skiftende åbningstider, se dem på: http://teambade.kk.dk/indhold/%C3%A5bningstider-lukkedage-og-driftinfo",Kommunal institution,12.539571,55.69671
"DRIFT, INDRE",Serridslevvej toilet.109,Serridslevvej,35,Nej,Udliciteret,toilet.109,"Serridsslevsvej 35, Seridsslevvej nord ",,H+D+handicap,Ja,ca. 9.00 - 22.00,ca. 9.00 - 22.00,ca. 9.00 - 22.00,ca. 9.00 - 22.00,ca. 9.00 - 22.00,ca. 9.00 - 22.00,ca. 9.00 - 22.00,Monday: ca. 9.00 - 22.00 Tuesday: ca. 9.00 - 22.00 Wednesday: ca. 9.00 - 22.00 Thursday: ca. 9.00 - 22.00 Friday: ca. 9.00 - 22.00 Saturday: ca. 9.00 - 22.00 Sunday: ca. 9.00 - 22.00,,Park,12.571253,55.706806
Ungecenteret (JKU),Skelbækgade toilet.110,Skelbækgade,4,Nej,,toilet.110,Skelbækgade 2-4,1717,H+D+handicap,Ja,9.00-15.00,9.00-15.00,9.00-15.00,9.00-15.00,9.00-14.00,,,Monday: 9.00-15.00 Tuesday: 9.00-15.00 Wednesday: 9.00-15.00 Thursday: 9.00-15.00 Friday: 9.00-14.00 Saturday:  Sunday: ,Lukket weekender og helligdage,Kommunal institution,12.556041,55.667598
"DRIFT, NORD",Stefansgade toilet.111,Stefansgade,24,Nej,Udliciteret,toilet.111,"Stefansgade 24, Nørrebroparken",2200,H+D+handicap,Ja,ca. 9.00 - 22.00,ca. 9.00 - 22.00,ca. 9.00 - 22.00,ca. 9.00 - 22.00,ca. 9.00 - 22.00,ca. 9.00 - 22.00,ca. 9.00 - 22.00,Monday: ca. 9.00 - 22.00 Tuesday: ca. 9.00 - 22.00 Wednesday: ca. 9.00 - 22.00 Thursday: ca. 9.00 - 22.00 Friday: ca. 9.00 - 22.00 Saturday: ca. 9.00 - 22.00 Sunday: ca. 9.00 - 22.00,,Park,12.54288,55.694863
"DRIFT, INDRE",Stockholmsgade toilet.112,Stockholmsgade,,Nej,Egen drift,toilet.112,"Sølvtorvet, Stockholmsgade/Sølvgade",,Støbejernspissoir,Nej,aldrig lukket,aldrig lukket,aldrig lukket,aldrig lukket,aldrig lukket,aldrig lukket,aldrig lukket,Monday: aldrig lukket Tuesday: aldrig lukket Wednesday: aldrig lukket Thursday: aldrig lukket Friday: aldrig lukket Saturday: aldrig lukket Sunday: aldrig lukket,,Gade,12.575475,55.689418
Sydhavnens bibliotek,Wagnersvej toilet.136,Wagnersvej,19,Nej,,toilet.136,Wagnersvej 19,,H+D+handicap,Ja,8:00 - 18:00,8:00 - 18:00,8:00 - 18:00,8:00 - 18:00,8:00 - 17:00,8:00 - 14:00,,Monday: 8:00 - 18:00 Tuesday: 8:00 - 18:00 Wednesday: 8:00 - 18:00 Thursday: 8:00 - 18:00 Friday: 8:00 - 17:00 Saturday: 8:00 - 14:00 Sunday: ,,Kommunal institution,12.529664,55.646928
"DRIFT, INDRE",Stockholmsgade toilet.113,Stockholmsgade,62,Nej,Udliciteret,toilet.113,"Østre Anlæg, Stockholmsgade v. Oslo Plads",,H+D+handicap,Ja,ca. 9.00 - 22.00,ca. 9.00 - 22.00,ca. 9.00 - 22.00,ca. 9.00 - 22.00,ca. 9.00 - 22.00,ca. 9.00 - 22.00,ca. 9.00 - 22.00,Monday: ca. 9.00 - 22.00 Tuesday: ca. 9.00 - 22.00 Wednesday: ca. 9.00 - 22.00 Thursday: ca. 9.00 - 22.00 Friday: ca. 9.00 - 22.00 Saturday: ca. 9.00 - 22.00 Sunday: ca. 9.00 - 22.00,Åbent fra 1. april til 30. september,Park,12.584244,55.692469
"DRIFT, SYD",Sundbyvester Plads toilet.114,Sundbyvester Plads,2A,Nej,Egen drift,toilet.114,Sundbyvester Plads 2A,2300,Danfo toiletenhed,Ja,aldrig lukket,aldrig lukket,aldrig lukket,aldrig lukket,aldrig lukket,aldrig lukket,aldrig lukket,Monday: aldrig lukket Tuesday: aldrig lukket Wednesday: aldrig lukket Thursday: aldrig lukket Friday: aldrig lukket Saturday: aldrig lukket Sunday: aldrig lukket,,Gade,12.613326,55.646622
Sundby Bad,Sundbyvestervej toilet.115,Sundbyvestervej,50,Nej,,toilet.115,Sundbyvestervej 50,2300,H+D,Nej,,,,,,,,Monday:  Tuesday:  Wednesday:  Thursday:  Friday:  Saturday:  Sunday: ,"Skiftende åbningstider, se dem på: http://teambade.kk.dk/indhold/%C3%A5bningstider-lukkedage-og-driftinfo",Kommunal institution,12.601909,55.64645
Arbejdsmarkedscenteret (AMC),Sundholmsvej toilet.116,Sundholmsvej,22,Nej,,toilet.116,Sundholmsvej 22,2300,H+D+handicap,Ja,9.00-15.00,9.00-15.00,9.00-15.00,9.00-15.00,9.00-14.00,,,Monday: 9.00-15.00 Tuesday: 9.00-15.00 Wednesday: 9.00-15.00 Thursday: 9.00-15.00 Friday: 9.00-14.00 Saturday:  Sunday: ,Lukket weekender og helligdage,Kommunal institution,12.596167,55.660866
VE BBHV,Svanevej toilet.117,Svanevej,12,Nej,,toilet.117,Svanevej 12,2400,H+D+handicap,Ja,10.00 - 15.00,10.00 - 15.00,10.00 - 15.00,13.00 - 18.00,10.00 - 13.00,,,Monday: 10.00 - 15.00 Tuesday: 10.00 - 15.00 Wednesday: 10.00 - 15.00 Thursday: 13.00 - 18.00 Friday: 10.00 - 13.00 Saturday:  Sunday: ,,Kommunal institution,12.534926,55.700104
"DRIFT, SYD",Parmagade toilet.118,Parmagade,45,Nej,Udliciteret,toilet.118,"Parmagade 45, Filipsparken",2300,H+D+handicap,Ja,ca. 9.00 - 22.00,ca. 9.00 - 22.00,ca. 9.00 - 22.00,ca. 9.00 - 22.00,ca. 9.00 - 22.00,ca. 9.00 - 22.00,ca. 9.00 - 22.00,Monday: ca. 9.00 - 22.00 Tuesday: ca. 9.00 - 22.00 Wednesday: ca. 9.00 - 22.00 Thursday: ca. 9.00 - 22.00 Friday: ca. 9.00 - 22.00 Saturday: ca. 9.00 - 22.00 Sunday: ca. 9.00 - 22.00,Åbent fra 1. april til 30. september,Park,12.618588,55.653986
Sundbyøsterhal 2,Parmagade toilet.119,Parmagade,4,Nej,,toilet.119,Parmagade 4,2300,H+D+handicap,Ja,7.00 - 23.00,7.00 - 23.00,7.00 - 23.00,7.00 - 23.00,7.00 - 22.00,7.00  - 21.00,7.00 - 21.00,Monday: 7.00 - 23.00 Tuesday: 7.00 - 23.00 Wednesday: 7.00 - 23.00 Thursday: 7.00 - 23.00 Friday: 7.00 - 22.00 Saturday: 7.00  - 21.00 Sunday: 7.00 - 21.00,"lukket juli, jul & nytår og helligdage",Kommunal institution,12.612768,55.652423
Sundbyøsterhallen,Parmagade toilet.120,Parmagade,8,Nej,,toilet.120,Parmagade 8,2300,H+D+handicap,Ja,7.00 - 23.00,7.00 - 23.00,7.00 - 23.00,7.00 - 23.00,7.00 - 22.00,7.00  - 21.00,7.00 - 21.00,Monday: 7.00 - 23.00 Tuesday: 7.00 - 23.00 Wednesday: 7.00 - 23.00 Thursday: 7.00 - 23.00 Friday: 7.00 - 22.00 Saturday: 7.00  - 21.00 Sunday: 7.00 - 21.00,"lukket juli, jul & nytår og helligdage",Kommunal institution,12.613258,55.652172
"DRIFT, SYD",Peder Lykkes Vej toilet.121,Peder Lykkes Vej,73,Nej,Udliciteret,toilet.121,"Remiseparken, Byggeren",2300,H+D,?,9.30 - 17.00,9.30 - 17.00,9.30 - 17.00,9.30 - 17.00,10.00 - 17.00,lukket,lukket,Monday: 9.30 - 17.00 Tuesday: 9.30 - 17.00 Wednesday: 9.30 - 17.00 Thursday: 9.30 - 17.00 Friday: 10.00 - 17.00 Saturday: lukket Sunday: lukket,,Andet,12.597272,55.652669
"DRIFT, SYD",Peder Lykkes Vej toilet.122,Peder Lykkes Vej,71,Nej,Udliciteret,toilet.122,"Remiseparken, Bondegården",2300,H+D,?,9.30 - 17.00,9.30 - 17.00,9.30 - 17.00,9.30 - 17.00,10.00 - 17.00,lukket,lukket,Monday: 9.30 - 17.00 Tuesday: 9.30 - 17.00 Wednesday: 9.30 - 17.00 Thursday: 9.30 - 17.00 Friday: 10.00 - 17.00 Saturday: lukket Sunday: lukket,,Andet,12.598081,55.652713
"DRIFT, SYD",Toftegårds Plads toilet.123,Toftegårds Plads,2,Nej,Egen drift,toilet.123,Toftegårds Plads ud for nr. 2,,Danfo toiletenhed,Ja,aldrig lukket,aldrig lukket,aldrig lukket,aldrig lukket,aldrig lukket,aldrig lukket,aldrig lukket,Monday: aldrig lukket Tuesday: aldrig lukket Wednesday: aldrig lukket Thursday: aldrig lukket Friday: aldrig lukket Saturday: aldrig lukket Sunday: aldrig lukket,,Gade,12.517536,55.66184
"DRIFT, SYD",Toftegårds Plads toilet.124,Toftegårds Plads,6,Nej,Egen drift,toilet.124,Toftegårds Plads ud for nr. 6,,Støbejernspissoir,Nej,aldrig lukket,aldrig lukket,aldrig lukket,aldrig lukket,aldrig lukket,aldrig lukket,aldrig lukket,Monday: aldrig lukket Tuesday: aldrig lukket Wednesday: aldrig lukket Thursday: aldrig lukket Friday: aldrig lukket Saturday: aldrig lukket Sunday: aldrig lukket,,Gade,12.517405,55.662306
"DRIFT, INDRE",Torvegade toilet.125,Torvegade,48,Nej,Egen drift,toilet.125,"Christianshavns Torv, Torvegade 48",,H+D+handicap+pissoir,Ja,aldrig lukket,aldrig lukket,aldrig lukket,aldrig lukket,aldrig lukket,aldrig lukket,aldrig lukket,Monday: aldrig lukket Tuesday: aldrig lukket Wednesday: aldrig lukket Thursday: aldrig lukket Friday: aldrig lukket Saturday: aldrig lukket Sunday: aldrig lukket,,Gade,12.5918,55.67198
"DRIFT, INDRE",Trianglen toilet.126,Trianglen,29B,Ja,Egen drift,toilet.126,Trianglen,,Bemandet H+D+handicap,Ja,9.00 - 18.30,9.00 - 18.30,9.00 - 18.30,9.00 - 18.30,9.00 - 18.30,9.00 - 18.30,9.00 - 18.30,Monday: 9.00 - 18.30 Tuesday: 9.00 - 18.30 Wednesday: 9.00 - 18.30 Thursday: 9.00 - 18.30 Friday: 9.00 - 18.30 Saturday: 9.00 - 18.30 Sunday: 9.00 - 18.30,,Gade,12.577521,55.699301
"DRIFT, NORD",Utterslev Torv toilet.127,Utterslev Torv,9,Nej,Egen drift,toilet.127,Utterslev Torv Nr. 9,,Andre pissoirs,Nej,aldrig lukket,aldrig lukket,aldrig lukket,aldrig lukket,aldrig lukket,aldrig lukket,aldrig lukket,Monday: aldrig lukket Tuesday: aldrig lukket Wednesday: aldrig lukket Thursday: aldrig lukket Friday: aldrig lukket Saturday: aldrig lukket Sunday: aldrig lukket,,Gade,12.516928,55.710055
"DRIFT, SYD",Valby Langgade toilet.128,Valby Langgade,66,Nej,Egen drift,toilet.128,"Valby Tingsted, Valby Langgade of. nr 66",,Danfo toiletenhed,Ja,aldrig lukket,aldrig lukket,aldrig lukket,aldrig lukket,aldrig lukket,aldrig lukket,aldrig lukket,Monday: aldrig lukket Tuesday: aldrig lukket Wednesday: aldrig lukket Thursday: aldrig lukket Friday: aldrig lukket Saturday: aldrig lukket Sunday: aldrig lukket,,Gade,12.514116,55.666027
Valby Kulturhus,Valgårdsvej toilet.129,Valgårdsvej,8,Nej,,toilet.129,Valgårdsvej 4-8,,H+D+handicap,Ja,8:00 - 20:00,8:00 - 20:00,8:00 - 20:00,8:00 - 20:00,8:00 - 20:00,9:00 - 18:00,9:00 - 18:00,Monday: 8:00 - 20:00 Tuesday: 8:00 - 20:00 Wednesday: 8:00 - 20:00 Thursday: 8:00 - 20:00 Friday: 8:00 - 20:00 Saturday: 9:00 - 18:00 Sunday: 9:00 - 18:00,,Kommunal institution,12.518431,55.660966
Osramhuset,Valhalsgade toilet.130,Valhalsgade,4,Nej,,toilet.130,Valhalsgade 4,,H+D+handicap,Ja,9:00 - 15:00,9:00 - 15:00,9:00 - 15:00,9:00 - 15:00,9:00 - 15:00,,,Monday: 9:00 - 15:00 Tuesday: 9:00 - 15:00 Wednesday: 9:00 - 15:00 Thursday: 9:00 - 15:00 Friday: 9:00 - 15:00 Saturday:  Sunday: ,Helligdage lukket,Kommunal institution,12.549521,55.702968
"DRIFT, INDRE",Ved Stranden toilet.131,Ved Stranden,18A,Nej,Egen drift,toilet.131,"Ved Stranden, Ved Stranden of. 18 A",,H+D+handicap,Ja,aldrig lukket,aldrig lukket,aldrig lukket,aldrig lukket,aldrig lukket,aldrig lukket,aldrig lukket,Monday: aldrig lukket Tuesday: aldrig lukket Wednesday: aldrig lukket Thursday: aldrig lukket Friday: aldrig lukket Saturday: aldrig lukket Sunday: aldrig lukket,,Gade,12.580907,55.677576
Sundhedshus Vesterbro/Valby/Kgs. Enghave,Vesterbrogade toilet.132,Vesterbrogade,121,Nej,,toilet.132,Vesterbrogade 121,,H+D+handicap,Ja,9.00 - 16.00,9.00 - 16.00,9.00 - 16.00,9.00 - 16.00,9.00 - 16.00,,,Monday: 9.00 - 16.00 Tuesday: 9.00 - 16.00 Wednesday: 9.00 - 16.00 Thursday: 9.00 - 16.00 Friday: 9.00 - 16.00 Saturday:  Sunday: ,,Kommunal institution,12.54277,55.670692
"DRIFT, INDRE",Vesterbrogade toilet.133,Vesterbrogade,47B,Ja,Egen drift,toilet.133,Vesterbro Torv - Vesterbrogade 47 B,,H+D,Nej,9.00 - 18.30,9.00 - 18.30,9.00 - 18.30,9.00 - 18.30,9.00 - 18.30,9.00 - 18.30,9.00 - 18.30,Monday: 9.00 - 18.30 Tuesday: 9.00 - 18.30 Wednesday: 9.00 - 18.30 Thursday: 9.00 - 18.30 Friday: 9.00 - 18.30 Saturday: 9.00 - 18.30 Sunday: 9.00 - 18.30,,Gade,12.555008,55.672196
Københavns Museum,Vesterbrogade toilet.134,Vesterbrogade,59,Nej,,toilet.134,Vesterbrogade 59,1620,H+D+handicap,Ja,10.00-17.00,10.00-17.00,10.00-17.00,10.00-17.00,10.00-17.00,10.00-17.00,10.00-17.00,Monday: 10.00-17.00 Tuesday: 10.00-17.00 Wednesday: 10.00-17.00 Thursday: 10.00-17.00 Friday: 10.00-17.00 Saturday: 10.00-17.00 Sunday: 10.00-17.00,"Lukket 24/12, 25/12, 31/12, 1/1",Kommunal institution,12.553042,55.672452
"DRIFT, SYD",Vigerslevvej toilet.135,Vigerslevvej,346,Nej,Egen drift,toilet.135,Vigerslevvej 346,,H+D,Nej,ca. 9.00 - 22.00,ca. 9.00 - 22.00,ca. 9.00 - 22.00,ca. 9.00 - 22.00,ca. 9.00 - 22.00,ca. 9.00 - 22.00,ca. 9.00 - 22.00,Monday: ca. 9.00 - 22.00 Tuesday: ca. 9.00 - 22.00 Wednesday: ca. 9.00 - 22.00 Thursday: ca. 9.00 - 22.00 Friday: ca. 9.00 - 22.00 Saturday: ca. 9.00 - 22.00 Sunday: ca. 9.00 - 22.00,Åbent fra 1. april til 30. september,Park,12.495525,55.646133
"DRIFT, INDRE",Ørestads Boulevard toilet.137,Ørestads Boulevard,39,Nej,AFA,toilet.137,"Metrostation Bella Center, Ørestads Boulevard 39",2300,Reklamesøjle m. toilet,Nej,aldrig lukket,aldrig lukket,aldrig lukket,aldrig lukket,aldrig lukket,aldrig lukket,aldrig lukket,Monday: aldrig lukket Tuesday: aldrig lukket Wednesday: aldrig lukket Thursday: aldrig lukket Friday: aldrig lukket Saturday: aldrig lukket Sunday: aldrig lukket,,Gade,12.583093,55.638528
"DRIFT, SYD",Ørestads Boulevard toilet.138,Ørestads Boulevard,68,Nej,Egen drift,toilet.138,"Ørestadsparken, Ørestads Boulevard 68",2300,Danfo toiletenhed,Ja,aldrig lukket,aldrig lukket,aldrig lukket,aldrig lukket,aldrig lukket,aldrig lukket,aldrig lukket,Monday: aldrig lukket Tuesday: aldrig lukket Wednesday: aldrig lukket Thursday: aldrig lukket Friday: aldrig lukket Saturday: aldrig lukket Sunday: aldrig lukket,,Park,12.579976,55.633289
Helgoland Badeanstalt,Øresundsstien toilet.139,Øresundsstien,11,Nej,,toilet.139,Øresundsstien 11,2300,H+D,Nej,kl. 10-18,kl. 10-18,kl. 10-18,kl. 10-18,kl. 10-18,kl. 10-18,kl. 10-18,Monday: kl. 10-18 Tuesday: kl. 10-18 Wednesday: kl. 10-18 Thursday: kl. 10-18 Friday: kl. 10-18 Saturday: kl. 10-18 Sunday: kl. 10-18,Fra 23. juni til 31. august,Kommunal institution,12.640033,55.663694
"DRIFT, INDRE",Øster Allé toilet.140,Øster Allé,9,Nej,Udliciteret,toilet.140,"Øster Allé 9 z, Sansehaven",,H+D+handicap,Ja,ca. 9.00 - 22.00,ca. 9.00 - 22.00,ca. 9.00 - 22.00,ca. 9.00 - 22.00,ca. 9.00 - 22.00,ca. 9.00 - 22.00,ca. 9.00 - 22.00,Monday: ca. 9.00 - 22.00 Tuesday: ca. 9.00 - 22.00 Wednesday: ca. 9.00 - 22.00 Thursday: ca. 9.00 - 22.00 Friday: ca. 9.00 - 22.00 Saturday: ca. 9.00 - 22.00 Sunday: ca. 9.00 - 22.00,Åbent fra 1. april til 30. september,Park,12.573372,55.69995
"DRIFT, INDRE",Øster Allé toilet.141,Øster Allé,37Z,Nej,Udliciteret,toilet.141,"Øster Allé 37 z, v. ""Dansepladsen""",,H+D+handicap+pissoir,Ja,ca. 9.00 - 22.00,ca. 9.00 - 22.00,ca. 9.00 - 22.00,ca. 9.00 - 22.00,ca. 9.00 - 22.00,ca. 9.00 - 22.00,ca. 9.00 - 22.00,Monday: ca. 9.00 - 22.00 Tuesday: ca. 9.00 - 22.00 Wednesday: ca. 9.00 - 22.00 Thursday: ca. 9.00 - 22.00 Friday: ca. 9.00 - 22.00 Saturday: ca. 9.00 - 22.00 Sunday: ca. 9.00 - 22.00,Åbent fra 1. april til 30. september,Park,12.565444,55.704773
Svanemøllehallen,Østerbrogade toilet.142,Østerbrogade,240,Nej,,toilet.142,Østerbrogade 240,2100,H+D+handicap,Ja,06.00 - 23.00,06.00 - 23.00,06.00 - 23.00,06.00 - 23.00,06.00 - 22.00,08.00 - 20.00,09.00 - 22.00,Monday: 06.00 - 23.00 Tuesday: 06.00 - 23.00 Wednesday: 06.00 - 23.00 Thursday: 06.00 - 23.00 Friday: 06.00 - 22.00 Saturday: 08.00 - 20.00 Sunday: 09.00 - 22.00,"lukket helligedage og i Juli. 
Lukket lørdag fra 15/5 til 15/8
Søndag 15/5-15/8 åbent kl: 09.00-16.00
Ændrede åbningstid lødag 1/5-14/5 + 16/8-31/8 kl. 10.00-17.00
søndage fra 1/5-14/5 + 16/8-31/8 åbent kl: 09.00-17.",Kommunal institution,12.578719,55.714227
CDN,Østerbrogade toilet.143,Østerbrogade,,Nej,Egen drift,toilet.143,Sporsløjfen,2100,H+D+handicap,Ja,døgnåbent,døgnåbent,døgnåbent,døgnåbent,døgnåbent,døgnåbent,døgnåbent,Monday: døgnåbent Tuesday: døgnåbent Wednesday: døgnåbent Thursday: døgnåbent Friday: døgnåbent Saturday: døgnåbent Sunday: døgnåbent,døgnåbent,Gade,12.577939,55.714884
"DRIFT, INDRE",Ålholm Plads toilet.144,Ålholm Plads,1,Nej,AFA,toilet.144,"Ålholm Plads, Ålholm plads of. nr 1",,Reklamesøjle m. toilet,Nej,aldrig lukket,aldrig lukket,aldrig lukket,aldrig lukket,aldrig lukket,aldrig lukket,aldrig lukket,Monday: aldrig lukket Tuesday: aldrig lukket Wednesday: aldrig lukket Thursday: aldrig lukket Friday: aldrig lukket Saturday: aldrig lukket Sunday: aldrig lukket,,Gade,12.48911,55.672384
Østerbrohuset,Århusgade toilet.145,Århusgade,103,Nej,,toilet.145,Århusgade 103,2100,H+D+handicap,Ja,08:00-23:00,08:00-23:00,08:00-23:00,08:00-23:00,08:00-17:00,10:00-17:00,10:00-17:00,Monday: 08:00-23:00 Tuesday: 08:00-23:00 Wednesday: 08:00-23:00 Thursday: 08:00-23:00 Friday: 08:00-17:00 Saturday: 10:00-17:00 Sunday: 10:00-17:00,Lukket alle helligdage og ved arr./events samt hele juli måned.,Kommunal institution,12.587911,55.707493
"DRIFT, SYD", toilet.146,,,Nej,Udliciteret,toilet.146,Amager Strandpark - Øresundsstien / Strandstien,2300,H+D+handicap,Ja,8.00 - 22.00 / 18.00,8.00 - 22.00 / 18.00,8.00 - 22.00 / 18.00,8.00 - 22.00 / 18.00,8.00 - 22.00 / 18.00,8.00 - 22.00 / 18.00,8.00 - 22.00 / 18.00,Monday: 8.00 - 22.00 / 18.00 Tuesday: 8.00 - 22.00 / 18.00 Wednesday: 8.00 - 22.00 / 18.00 Thursday: 8.00 - 22.00 / 18.00 Friday: 8.00 - 22.00 / 18.00 Saturday: 8.00 - 22.00 / 18.00 Sunday: 8.00 - 22.00 / 18.00,Åbent til 22.00 fra 15.maj til 31. august,Park,12.638636,55.663012
"DRIFT, SYD", toilet.147,,,Nej,Udliciteret,toilet.147,Amager Strandpark - Strandpromenaden nord,2300,H+D+handicap,Ja,8.00 - 22.00 / 18.00,8.00 - 22.00 / 18.00,8.00 - 22.00 / 18.00,8.00 - 22.00 / 18.00,8.00 - 22.00 / 18.00,8.00 - 22.00 / 18.00,8.00 - 22.00 / 18.00,Monday: 8.00 - 22.00 / 18.00 Tuesday: 8.00 - 22.00 / 18.00 Wednesday: 8.00 - 22.00 / 18.00 Thursday: 8.00 - 22.00 / 18.00 Friday: 8.00 - 22.00 / 18.00 Saturday: 8.00 - 22.00 / 18.00 Sunday: 8.00 - 22.00 / 18.00,Åbent til 22.00 fra 15.maj til 31. august,Park,12.64934,55.65453
"DRIFT, SYD", toilet.148,,,Nej,Udliciteret,toilet.148,Amager Strandpark - Strandpromenaden syd,2300,H+D+handicap,Ja,8.00 - 22.00 / 18.00,8.00 - 22.00 / 18.00,8.00 - 22.00 / 18.00,8.00 - 22.00 / 18.00,8.00 - 22.00 / 18.00,8.00 - 22.00 / 18.00,8.00 - 22.00 / 18.00,Monday: 8.00 - 22.00 / 18.00 Tuesday: 8.00 - 22.00 / 18.00 Wednesday: 8.00 - 22.00 / 18.00 Thursday: 8.00 - 22.00 / 18.00 Friday: 8.00 - 22.00 / 18.00 Saturday: 8.00 - 22.00 / 18.00 Sunday: 8.00 - 22.00 / 18.00,Åbent til 22.00 fra 15.maj til 31. august,Park,12.647289,55.648422
"DRIFT, NORD", toilet.149,,,Nej,Egen drift,toilet.149,Bystævnet v Vestvolden,,H+D,Nej,ca. 9.00 - 22.00,ca. 9.00 - 22.00,ca. 9.00 - 22.00,ca. 9.00 - 22.00,ca. 9.00 - 22.00,ca. 9.00 - 22.00,ca. 9.00 - 22.00,Monday: ca. 9.00 - 22.00 Tuesday: ca. 9.00 - 22.00 Wednesday: ca. 9.00 - 22.00 Thursday: ca. 9.00 - 22.00 Friday: ca. 9.00 - 22.00 Saturday: ca. 9.00 - 22.00 Sunday: ca. 9.00 - 22.00,Åbent fra 1. april til 30. september,Park,12.479076,55.716927
"DRIFT, NORD", toilet.150,,,Nej,,toilet.150,Brønshøj Kirkevej / Brønshøj kirkegård,,Handicaptoilet,Ja,8.00 / 9.00 - 16.00,8.00 / 9.00 - 16.00,8.00 / 9.00 - 16.00,8.00 / 9.00 - 16.00,8.00 / 9.00 - 16.00,8.00 / 9.00 - 16.00,8.00 / 9.00 - 16.00,Monday: 8.00 / 9.00 - 16.00 Tuesday: 8.00 / 9.00 - 16.00 Wednesday: 8.00 / 9.00 - 16.00 Thursday: 8.00 / 9.00 - 16.00 Friday: 8.00 / 9.00 - 16.00 Saturday: 8.00 / 9.00 - 16.00 Sunday: 8.00 / 9.00 - 16.00,April til september 8.00-16.00 oktober til marts 9.00-16.00,Kirkegård,12.498597,55.705752
"DRIFT, SYD", toilet.151,,,Nej,Egen drift,toilet.151,Valbyparken,,H+D,?,aldrig lukket,aldrig lukket,aldrig lukket,aldrig lukket,aldrig lukket,aldrig lukket,aldrig lukket,Monday: aldrig lukket Tuesday: aldrig lukket Wednesday: aldrig lukket Thursday: aldrig lukket Friday: aldrig lukket Saturday: aldrig lukket Sunday: aldrig lukket,,Andet,12.519857,55.64471
"DRIFT, NORD", toilet.152,,,Nej,Egen drift,toilet.152,Bellahøjparken (Solkrogen),,H+D+handicap,Ja,lukket,lukket,lukket,lukket,lukket,lukket,lukket,Monday: lukket Tuesday: lukket Wednesday: lukket Thursday: lukket Friday: lukket Saturday: lukket Sunday: lukket,Kun åbent ved arrangementer i parken,Park,12.509584,55.703179
, toilet.153,,9B,Nej,Egen drift,toilet.153,Kultorvet,,Danfo toiletenhed,Ja,,,,,,,,Monday:  Tuesday:  Wednesday:  Thursday:  Friday:  Saturday:  Sunday: ,Døgnåbent,Gade,12.574019,55.682303
Center for Afklaring og Beskæftigelse (CAB), toilet.154,,6,Nej,,toilet.154,Sydbanestien,2450,H+D+handicap,Ja,9.00-15.00,9.00-15.00,9.00-15.00,9.00-15.00,9.00-14.00,,,Monday: 9.00-15.00 Tuesday: 9.00-15.00 Wednesday: 9.00-15.00 Thursday: 9.00-15.00 Friday: 9.00-14.00 Saturday:  Sunday: ,Lukket weekender og helligdage,Kommunal institution,12.534296,55.653654
Kultur Østerbro  (Østerbro bibliotek), toilet.155,,19,Nej,,toilet.155,Dag Hammarskjolds Allé 19,2100,H+D+handicap,Ja,12:00-17:00,12:00-17:00,12:00-17:00,12:00-17:00,12:00-17:00,10:00-14:00,10:00-17:00,Monday: 12:00-17:00 Tuesday: 12:00-17:00 Wednesday: 12:00-17:00 Thursday: 12:00-17:00 Friday: 12:00-17:00 Saturday: 10:00-14:00 Sunday: 10:00-17:00,,Kommunal institution,12.581745,55.694573
"DRIFT, SYD", toilet.156,,,Nej,Udliciteret,toilet.156,Gunløgsgade (ved legepladsen),2300,H+D+handicap,Ja,ca. 9.00 - 22.00,ca. 9.00 - 22.00,ca. 9.00 - 22.00,ca. 9.00 - 22.00,ca. 9.00 - 22.00,ca. 9.00 - 22.00,ca. 9.00 - 22.00,Monday: ca. 9.00 - 22.00 Tuesday: ca. 9.00 - 22.00 Wednesday: ca. 9.00 - 22.00 Thursday: ca. 9.00 - 22.00 Friday: ca. 9.00 - 22.00 Saturday: ca. 9.00 - 22.00 Sunday: ca. 9.00 - 22.00,Åbent fra 1. april til 30. september,Andet,12.579486,55.664694
"DRIFT, INDRE", toilet.157,,15,Nej,Udliciteret,toilet.157,"Serridsslevsvej 15, Seridsslevvej syd",,H+D,Nej,ca. 9.00 - 22.00,ca. 9.00 - 22.00,ca. 9.00 - 22.00,ca. 9.00 - 22.00,ca. 9.00 - 22.00,ca. 9.00 - 22.00,ca. 9.00 - 22.00,Monday: ca. 9.00 - 22.00 Tuesday: ca. 9.00 - 22.00 Wednesday: ca. 9.00 - 22.00 Thursday: ca. 9.00 - 22.00 Friday: ca. 9.00 - 22.00 Saturday: ca. 9.00 - 22.00 Sunday: ca. 9.00 - 22.00,Åbent fra 1. april til 30. september,Park,12.572823,55.705954
"DRIFT, INDRE", toilet.158,,,Nej,Udliciteret,toilet.158,"Nyboder, Gammel Vagt",,H+D,Nej,ca. 9.00 - 22.00,ca. 9.00 - 22.00,ca. 9.00 - 22.00,ca. 9.00 - 22.00,ca. 9.00 - 22.00,ca. 9.00 - 22.00,ca. 9.00 - 22.00,Monday: ca. 9.00 - 22.00 Tuesday: ca. 9.00 - 22.00 Wednesday: ca. 9.00 - 22.00 Thursday: ca. 9.00 - 22.00 Friday: ca. 9.00 - 22.00 Saturday: ca. 9.00 - 22.00 Sunday: ca. 9.00 - 22.00,,Gade,12.585553,55.687614
"DRIFT, INDRE", toilet.159,,,Nej,AFA,toilet.159,Axeltorv v/ Cirkusbygningen,,Reklamesøjle m. toilet,Nej,aldrig lukket,aldrig lukket,aldrig lukket,aldrig lukket,aldrig lukket,aldrig lukket,aldrig lukket,Monday: aldrig lukket Tuesday: aldrig lukket Wednesday: aldrig lukket Thursday: aldrig lukket Friday: aldrig lukket Saturday: aldrig lukket Sunday: aldrig lukket,,Gade,12.564604,55.675858
"DRIFT, INDRE", toilet.160,,,Nej,AFA,toilet.160,"Christiansborg Slotsplads, Holmensbro",,Reklamesøjle m. toilet,Nej,aldrig lukket,aldrig lukket,aldrig lukket,aldrig lukket,aldrig lukket,aldrig lukket,aldrig lukket,Monday: aldrig lukket Tuesday: aldrig lukket Wednesday: aldrig lukket Thursday: aldrig lukket Friday: aldrig lukket Saturday: aldrig lukket Sunday: aldrig lukket,,Gade,12.582154,55.676611
"DRIFT, INDRE", toilet.161,,22,Nej,AFA,toilet.161,Gammel Torv ud for nr. 22,,Reklamesøjle m. toilet,Nej,aldrig lukket,aldrig lukket,aldrig lukket,aldrig lukket,aldrig lukket,aldrig lukket,aldrig lukket,Monday: aldrig lukket Tuesday: aldrig lukket Wednesday: aldrig lukket Thursday: aldrig lukket Friday: aldrig lukket Saturday: aldrig lukket Sunday: aldrig lukket,,Gade,12.571727,55.678112
"DRIFT, SYD", toilet.162,,,Nej,Udliciteret,toilet.162,"Vestre Kirkegård sydlig del, ved Østre Kapel",,H+D,Nej,7.00 - 21.00 / 9.00 - 19.00,7.00 - 21.00 / 9.00 - 19.00,7.00 - 21.00 / 9.00 - 19.00,7.00 - 21.00 / 9.00 - 19.00,7.00 - 21.00 / 9.00 - 19.00,7.00 - 21.00 / 9.00 - 19.00,7.00 - 21.00 / 9.00 - 19.00,Monday: 7.00 - 21.00 / 9.00 - 19.00 Tuesday: 7.00 - 21.00 / 9.00 - 19.00 Wednesday: 7.00 - 21.00 / 9.00 - 19.00 Thursday: 7.00 - 21.00 / 9.00 - 19.00 Friday: 7.00 - 21.00 / 9.00 - 19.00 Saturday: 7.00 - 21.00 / 9.00 - 19.00 Sunday: 7.00 - 21.00 / 9.00 - 19.00,Muligvis lukket / under ombygning,Kirkegård,12.533564,55.654184
"DRIFT, INDRE", toilet.163,,,Nej,Udliciteret,toilet.163,Skydebanehaven,,H+D,Nej,9.30 - 17.00,9.30 - 17.00,9.30 - 17.00,9.30 - 17.00,10.00 - 17.00,lukket,lukket,Monday: 9.30 - 17.00 Tuesday: 9.30 - 17.00 Wednesday: 9.30 - 17.00 Thursday: 9.30 - 17.00 Friday: 10.00 - 17.00 Saturday: lukket Sunday: lukket,,Andet,12.554053,55.670445
"DRIFT, INDRE", toilet.164,,,Nej,,toilet.164,Enghaveparken,,H+D+handicap,Ja,9.30 - 17.00,9.30 - 17.00,9.30 - 17.00,9.30 - 17.00,10.00 - 17.00,lukket,lukket,Monday: 9.30 - 17.00 Tuesday: 9.30 - 17.00 Wednesday: 9.30 - 17.00 Thursday: 9.30 - 17.00 Friday: 10.00 - 17.00 Saturday: lukket Sunday: lukket,,Andet,12.541712,55.667912
"DRIFT, INDRE", toilet.165,,,Nej,Udliciteret,toilet.165,Ørstedsparken,,H+D,Nej,9.30 - 17.00,9.30 - 17.00,9.30 - 17.00,9.30 - 17.00,9.30 - 17.00,lukket,lukket,Monday: 9.30 - 17.00 Tuesday: 9.30 - 17.00 Wednesday: 9.30 - 17.00 Thursday: 9.30 - 17.00 Friday: 9.30 - 17.00 Saturday: lukket Sunday: lukket,,Andet,12.564608,55.680491
"DRIFT, INDRE", toilet.166,,,Ja,Egen drift,toilet.166,Rådhuspladsen,,Bemandet H+D+handicap,Ja,9.00 - 22.30,9.00 - 22.30,9.00 - 22.30,9.00 - 22.30,9.00 - 22.30,9.00 - 22.30,9.00 - 22.30,Monday: 9.00 - 22.30 Tuesday: 9.00 - 22.30 Wednesday: 9.00 - 22.30 Thursday: 9.00 - 22.30 Friday: 9.00 - 22.30 Saturday: 9.00 - 22.30 Sunday: 9.00 - 22.30,,Gade,12.568555,55.676169
"DRIFT, INDRE", toilet.167,,,Ja,Egen drift,toilet.167,Nørreport station - Nørre Voldgade,,Bemandet H+D+handicap,Ja,08.00 - 22.00,08.00 - 22.00,08.00 - 22.00,08.00 - 22.00,08.00 - 22.00,08.00 - 22.00,08.00 - 22.00,Monday: 08.00 - 22.00 Tuesday: 08.00 - 22.00 Wednesday: 08.00 - 22.00 Thursday: 08.00 - 22.00 Friday: 08.00 - 22.00 Saturday: 08.00 - 22.00 Sunday: 08.00 - 22.00,,Gade,12.571366,55.683049
"DRIFT, SYD", toilet.168,,,Nej,Udliciteret,toilet.168,Fillipsparken,2300,H+D,?,9.30 - 17.00,9.30 - 17.00,9.30 - 17.00,9.30 - 17.00,10.00 - 17.00,lukket,lukket,Monday: 9.30 - 17.00 Tuesday: 9.30 - 17.00 Wednesday: 9.30 - 17.00 Thursday: 9.30 - 17.00 Friday: 10.00 - 17.00 Saturday: lukket Sunday: lukket,,Andet,12.618546,55.654049
"DRIFT, SYD", toilet.169,,,Nej,Udliciteret,toilet.169,Lergravsparken,2300,H+D,?,9.30 - 17.00,9.30 - 17.00,9.30 - 17.00,9.30 - 17.00,10.00 - 17.00,lukket,lukket,Monday: 9.30 - 17.00 Tuesday: 9.30 - 17.00 Wednesday: 9.30 - 17.00 Thursday: 9.30 - 17.00 Friday: 10.00 - 17.00 Saturday: lukket Sunday: lukket,,Andet,12.618609,55.662526
"DRIFT, SYD", toilet.170,,,Nej,Udliciteret,toilet.170,Bredegrund,2300,H+D,?,9.30 - 17.00,9.30 - 17.00,9.30 - 17.00,9.30 - 17.00,10.00 - 17.00,lukket,lukket,Monday: 9.30 - 17.00 Tuesday: 9.30 - 17.00 Wednesday: 9.30 - 17.00 Thursday: 9.30 - 17.00 Friday: 10.00 - 17.00 Saturday: lukket Sunday: lukket,,Andet,12.61349,55.659015
"DRIFT, INDRE", toilet.171,,2,Nej,Egen drift,toilet.171,"Sankt Hans Torv, Nørre Allé 2",2200,Danfo toiletenhed,Ja,aldrig lukket,aldrig lukket,aldrig lukket,aldrig lukket,aldrig lukket,aldrig lukket,aldrig lukket,Monday: aldrig lukket Tuesday: aldrig lukket Wednesday: aldrig lukket Thursday: aldrig lukket Friday: aldrig lukket Saturday: aldrig lukket Sunday: aldrig lukket,,Gade,12.561263,55.691369
"DRIFT, NORD", toilet.172,,,Nej,Egen drift,toilet.172,Husumparken,,H+D,Nej,9.30 - 17.00,9.30 - 17.00,9.30 - 17.00,9.30 - 17.00,10.00 - 17.00,lukket,lukket,Monday: 9.30 - 17.00 Tuesday: 9.30 - 17.00 Wednesday: 9.30 - 17.00 Thursday: 9.30 - 17.00 Friday: 10.00 - 17.00 Saturday: lukket Sunday: lukket,,Park,12.47096,55.704234
"DRIFT, NORD", toilet.173,,,Nej,Egen drift,toilet.173,Rødkildeparken,,H+D,Nej,ca. 9.00 - 22.00,ca. 9.00 - 22.00,ca. 9.00 - 22.00,ca. 9.00 - 22.00,ca. 9.00 - 22.00,ca. 9.00 - 22.00,ca. 9.00 - 22.00,Monday: ca. 9.00 - 22.00 Tuesday: ca. 9.00 - 22.00 Wednesday: ca. 9.00 - 22.00 Thursday: ca. 9.00 - 22.00 Friday: ca. 9.00 - 22.00 Saturday: ca. 9.00 - 22.00 Sunday: ca. 9.00 - 22.00,Åbent fra 1. april til 30. september,Park,12.511266,55.699538
"DRIFT, NORD", toilet.174,,,Nej,Udliciteret,toilet.174,Ryvangens Naturpark,,H+D+handicap,Ja,ca. 9.00 - 22.00,ca. 9.00 - 22.00,ca. 9.00 - 22.00,ca. 9.00 - 22.00,ca. 9.00 - 22.00,ca. 9.00 - 22.00,ca. 9.00 - 22.00,Monday: ca. 9.00 - 22.00 Tuesday: ca. 9.00 - 22.00 Wednesday: ca. 9.00 - 22.00 Thursday: ca. 9.00 - 22.00 Friday: ca. 9.00 - 22.00 Saturday: ca. 9.00 - 22.00 Sunday: ca. 9.00 - 22.00,Åbent fra 1. april til 30. september,Park,12.563557,55.72201
"DRIFT, NORD", toilet.175,,,Nej,Egen drift,toilet.175,Bispeengen,,H+D,?,9.30 - 17.00,9.30 - 17.00,9.30 - 17.00,9.30 - 17.00,10.00 - 17.00,lukket,lukket,Monday: 9.30 - 17.00 Tuesday: 9.30 - 17.00 Wednesday: 9.30 - 17.00 Thursday: 9.30 - 17.00 Friday: 10.00 - 17.00 Saturday: lukket Sunday: lukket,,Andet,12.536173,55.695527
"DRIFT, NORD", toilet.176,,,Nej,Egen drift,toilet.176,Nørager Plads,,H+D,Nej,9.30 - 17.00,9.30 - 17.00,9.30 - 17.00,9.30 - 17.00,9.30 - 17.00,lukket,lukket,Monday: 9.30 - 17.00 Tuesday: 9.30 - 17.00 Wednesday: 9.30 - 17.00 Thursday: 9.30 - 17.00 Friday: 9.30 - 17.00 Saturday: lukket Sunday: lukket,,Andet,12.475026,55.696272
"DRIFT, NORD", toilet.177,,,Nej,Egen drift,toilet.177,Nørrebroparken,2200,H+D,?,9.30 - 17.00,9.30 - 17.00,9.30 - 17.00,9.30 - 17.00,9.30 - 17.00,lukket,lukket,Monday: 9.30 - 17.00 Tuesday: 9.30 - 17.00 Wednesday: 9.30 - 17.00 Thursday: 9.30 - 17.00 Friday: 9.30 - 17.00 Saturday: lukket Sunday: lukket,,Andet,12.541991,55.694184
"DRIFT, NORD", toilet.178,,,Nej,Egen drift,toilet.178,Kildevældsparken,,H+D,?,9.30 - 17.00,9.30 - 17.00,9.30 - 17.00,9.30 - 17.00,10.00 - 17.00,lukket,lukket,Monday: 9.30 - 17.00 Tuesday: 9.30 - 17.00 Wednesday: 9.30 - 17.00 Thursday: 9.30 - 17.00 Friday: 10.00 - 17.00 Saturday: lukket Sunday: lukket,,Andet,12.565102,55.714445
"DRIFT, NORD", toilet.179,,2,Nej,Egen drift,toilet.179,"Brønshøj Torv, Krabbeholmvej of. nr 3",,Danfo toiletenhed,Ja,aldrig lukket,aldrig lukket,aldrig lukket,aldrig lukket,aldrig lukket,aldrig lukket,aldrig lukket,Monday: aldrig lukket Tuesday: aldrig lukket Wednesday: aldrig lukket Thursday: aldrig lukket Friday: aldrig lukket Saturday: aldrig lukket Sunday: aldrig lukket,,Gade,12.498832,55.704191
"DRIFT, NORD", toilet.180,,329,Nej,Egen drift,toilet.180,"Husum torv, Frederiksundsvej 329",,Danfo toiletenhed,Ja,aldrig lukket,aldrig lukket,aldrig lukket,aldrig lukket,aldrig lukket,aldrig lukket,aldrig lukket,Monday: aldrig lukket Tuesday: aldrig lukket Wednesday: aldrig lukket Thursday: aldrig lukket Friday: aldrig lukket Saturday: aldrig lukket Sunday: aldrig lukket,,Gade,12.471724,55.711708
"DRIFT, NORD", toilet.181,,,Nej,Egen drift,toilet.181,"Hans Tavsenspark, øst",2200,H+D,Nej,9.30 - 17.00,9.30 - 17.00,9.30 - 17.00,9.30 - 17.00,10.00 - 17.00,lukket,lukket,Monday: 9.30 - 17.00 Tuesday: 9.30 - 17.00 Wednesday: 9.30 - 17.00 Thursday: 9.30 - 17.00 Friday: 10.00 - 17.00 Saturday: lukket Sunday: lukket,,Park,12.54978,55.688329
"DRIFT, NORD", toilet.182,,,Nej,Egen drift,toilet.182,Wesselsgade,2200,H+D,?,9.30 - 17.00,9.30 - 17.00,9.30 - 17.00,9.30 - 17.00,10.00 - 17.00,lukket,lukket,Monday: 9.30 - 17.00 Tuesday: 9.30 - 17.00 Wednesday: 9.30 - 17.00 Thursday: 9.30 - 17.00 Friday: 10.00 - 17.00 Saturday: lukket Sunday: lukket,,Andet,12.559995,55.685969
"DRIFT, INDRE", toilet.183,,,Nej,Egen drift,toilet.183,"Kapelvej /Assistens Kgd, V",2200,H+D+handicap,Ja,7.00 - 22.00 / 9.00 - 19.00,7.00 - 22.00 / 9.00 - 19.00,7.00 - 22.00 / 9.00 - 19.00,7.00 - 22.00 / 9.00 - 19.00,7.00 - 22.00 / 9.00 - 19.00,7.00 - 22.00 / 9.00 - 19.00,7.00 - 22.00 / 9.00 - 19.00,Monday: 7.00 - 22.00 / 9.00 - 19.00 Tuesday: 7.00 - 22.00 / 9.00 - 19.00 Wednesday: 7.00 - 22.00 / 9.00 - 19.00 Thursday: 7.00 - 22.00 / 9.00 - 19.00 Friday: 7.00 - 22.00 / 9.00 - 19.00 Saturday: 7.00 - 22.00 / 9.00 - 19.00 Sunday: 7.00 - 22.00 / 9.00 - 19.00,"April til september 7.00-22.00, oktober til marts 9.00-19",Kirkegård,12.553019,55.689449
"DRIFT, SYD", toilet.184,,2,Nej,Egen drift,toilet.184,"Mozarts Plads, Mozarts Plads udf. Nr. 2",,Andre pissoirs,Nej,aldrig lukket,aldrig lukket,aldrig lukket,aldrig lukket,aldrig lukket,aldrig lukket,aldrig lukket,Monday: aldrig lukket Tuesday: aldrig lukket Wednesday: aldrig lukket Thursday: aldrig lukket Friday: aldrig lukket Saturday: aldrig lukket Sunday: aldrig lukket,,Gade,12.534472,55.648655
"DRIFT, NORD", toilet.185,,,Nej,Egen drift,toilet.185,Hans Tavsenspark vest,2200,H+D,Nej,9.30 - 17.00,9.30 - 17.00,9.30 - 17.00,9.30 - 17.00,10.00 - 17.00,lukket,lukket,Monday: 9.30 - 17.00 Tuesday: 9.30 - 17.00 Wednesday: 9.30 - 17.00 Thursday: 9.30 - 17.00 Friday: 10.00 - 17.00 Saturday: lukket Sunday: lukket,,Andet,12.545727,55.689757
"DRIFT, INDRE", toilet.186,,,Nej,Udliciteret,toilet.186,"Vesterbro, Saxoparken",,Støbejernspissoir,Nej,aldrig lukket,aldrig lukket,aldrig lukket,aldrig lukket,aldrig lukket,aldrig lukket,aldrig lukket,Monday: aldrig lukket Tuesday: aldrig lukket Wednesday: aldrig lukket Thursday: aldrig lukket Friday: aldrig lukket Saturday: aldrig lukket Sunday: aldrig lukket,Åbent fra 1. april til 30. september,Park,12.551496,55.66996
"DRIFT, NORD", toilet.187,,,Nej,Udliciteret,toilet.187,Bispebjerg Kirkegård,,H+D+handicap,Ja,8.00 - 20.00 / 9.00 - 19.00,8.00 - 20.00 / 9.00 - 19.00,8.00 - 20.00 / 9.00 - 19.00,8.00 - 20.00 / 9.00 - 19.00,8.00 - 20.00 / 9.00 - 19.00,8.00 - 20.00 / 9.00 - 19.00,8.00 - 20.00 / 9.00 - 19.00,Monday: 8.00 - 20.00 / 9.00 - 19.00 Tuesday: 8.00 - 20.00 / 9.00 - 19.00 Wednesday: 8.00 - 20.00 / 9.00 - 19.00 Thursday: 8.00 - 20.00 / 9.00 - 19.00 Friday: 8.00 - 20.00 / 9.00 - 19.00 Saturday: 8.00 - 20.00 / 9.00 - 19.00 Sunday: 8.00 - 20.00 / 9.00 - 19.00,April til september 8.00-20.00 oktober til marts 9.00-19.00,Kirkegård,12.531011,55.714253
"DRIFT, NORD", toilet.188,,,Nej,Udliciteret,toilet.188,Svanemølle Strandpark,,H+D+handicap,Ja,ca. 9.00 - 22.00,ca. 9.00 - 22.00,ca. 9.00 - 22.00,ca. 9.00 - 22.00,ca. 9.00 - 22.00,ca. 9.00 - 22.00,ca. 9.00 - 22.00,Monday: ca. 9.00 - 22.00 Tuesday: ca. 9.00 - 22.00 Wednesday: ca. 9.00 - 22.00 Thursday: ca. 9.00 - 22.00 Friday: ca. 9.00 - 22.00 Saturday: ca. 9.00 - 22.00 Sunday: ca. 9.00 - 22.00,Åbent fra 1. april til 30. september,Park,12.583029,55.719539
"DRIFT, NORD", toilet.189,,,Nej,Egen drift,toilet.189,Lersøparken,,H+D+handicap+pissoir,Ja,ca. 9.00 - 22.00,ca. 9.00 - 22.00,ca. 9.00 - 22.00,ca. 9.00 - 22.00,ca. 9.00 - 22.00,ca. 9.00 - 22.00,ca. 9.00 - 22.00,Monday: ca. 9.00 - 22.00 Tuesday: ca. 9.00 - 22.00 Wednesday: ca. 9.00 - 22.00 Thursday: ca. 9.00 - 22.00 Friday: ca. 9.00 - 22.00 Saturday: ca. 9.00 - 22.00 Sunday: ca. 9.00 - 22.00,Åbent fra 1. april til 30. september,Park,12.542855,55.709717
"DRIFT, NORD", toilet.190,,,Nej,Egen drift,toilet.190,Damhusdæmningen v. kiosk,,H+D+handicap,Ja,ca. 9.00 - 22.00,ca. 9.00 - 22.00,ca. 9.00 - 22.00,ca. 9.00 - 22.00,ca. 9.00 - 22.00,ca. 9.00 - 22.00,ca. 9.00 - 22.00,Monday: ca. 9.00 - 22.00 Tuesday: ca. 9.00 - 22.00 Wednesday: ca. 9.00 - 22.00 Thursday: ca. 9.00 - 22.00 Friday: ca. 9.00 - 22.00 Saturday: ca. 9.00 - 22.00 Sunday: ca. 9.00 - 22.00,,Park,12.473101,55.68157
"DRIFT, SYD", toilet.191,,,Nej,Udliciteret,toilet.191,"Amager Strandvej, Femøren",2300,H+D,?,8.00 - 22.00 / 18.00,8.00 - 22.00 / 18.00,8.00 - 22.00 / 18.00,8.00 - 22.00 / 18.00,8.00 - 22.00 / 18.00,8.00 - 22.00 / 18.00,8.00 - 22.00 / 18.00,Monday: 8.00 - 22.00 / 18.00 Tuesday: 8.00 - 22.00 / 18.00 Wednesday: 8.00 - 22.00 / 18.00 Thursday: 8.00 - 22.00 / 18.00 Friday: 8.00 - 22.00 / 18.00 Saturday: 8.00 - 22.00 / 18.00 Sunday: 8.00 - 22.00 / 18.00,Åbent til 22.00 fra 15.maj til 31. august,Park,12.64402,55.646201
"DRIFT, SYD", toilet.192,,,Nej,Udliciteret,toilet.192,Amager Strandpark - Kilometerbroen,2300,H+D+handicap,Ja,8.00 - 22.00 / 18.00,8.00 - 22.00 / 18.00,8.00 - 22.00 / 18.00,8.00 - 22.00 / 18.00,8.00 - 22.00 / 18.00,8.00 - 22.00 / 18.00,8.00 - 22.00 / 18.00,Monday: 8.00 - 22.00 / 18.00 Tuesday: 8.00 - 22.00 / 18.00 Wednesday: 8.00 - 22.00 / 18.00 Thursday: 8.00 - 22.00 / 18.00 Friday: 8.00 - 22.00 / 18.00 Saturday: 8.00 - 22.00 / 18.00 Sunday: 8.00 - 22.00 / 18.00,Åbent til 22.00 fra 15.maj til 31. august,Park,12.642967,55.658322
"DRIFT, SYD", toilet.193,,,Nej,Udliciteret,toilet.193,"Vestre Kirkegård, Hovedindgang Vestre Kirkegårds Allé",,H+D,Nej,7.00 - 21.00 / 9.00 - 19.00,7.00 - 21.00 / 9.00 - 19.00,7.00 - 21.00 / 9.00 - 19.00,7.00 - 21.00 / 9.00 - 19.00,7.00 - 21.00 / 9.00 - 19.00,7.00 - 21.00 / 9.00 - 19.00,7.00 - 21.00 / 9.00 - 19.00,Monday: 7.00 - 21.00 / 9.00 - 19.00 Tuesday: 7.00 - 21.00 / 9.00 - 19.00 Wednesday: 7.00 - 21.00 / 9.00 - 19.00 Thursday: 7.00 - 21.00 / 9.00 - 19.00 Friday: 7.00 - 21.00 / 9.00 - 19.00 Saturday: 7.00 - 21.00 / 9.00 - 19.00 Sunday: 7.00 - 21.00 / 9.00 - 19.00,April til september 7.00-21.00 oktober til marts 9.00-19.00,Kirkegård,12.530759,55.66201
"DRIFT, SYD", toilet.194,,39,Nej,,toilet.194,Rødegårdsparken,2300,H+D+handicap,Ja,ca. 9.00 - 22.00,ca. 9.00 - 22.00,ca. 9.00 - 22.00,ca. 9.00 - 22.00,ca. 9.00 - 22.00,ca. 9.00 - 22.00,ca. 9.00 - 22.00,Monday: ca. 9.00 - 22.00 Tuesday: ca. 9.00 - 22.00 Wednesday: ca. 9.00 - 22.00 Thursday: ca. 9.00 - 22.00 Friday: ca. 9.00 - 22.00 Saturday: ca. 9.00 - 22.00 Sunday: ca. 9.00 - 22.00,Åbent fra 1. april til 30. september,Park,12.611136,55.661051
"DRIFT, SYD", toilet.195,,,Nej,Egen drift,toilet.195,"Vigerslevparken, v. Engdraget",,H+D+handicap,Ja,ca. 9.00 - 22.00,ca. 9.00 - 22.00,ca. 9.00 - 22.00,ca. 9.00 - 22.00,ca. 9.00 - 22.00,ca. 9.00 - 22.00,ca. 9.00 - 22.00,Monday: ca. 9.00 - 22.00 Tuesday: ca. 9.00 - 22.00 Wednesday: ca. 9.00 - 22.00 Thursday: ca. 9.00 - 22.00 Friday: ca. 9.00 - 22.00 Saturday: ca. 9.00 - 22.00 Sunday: ca. 9.00 - 22.00,Åbent fra 1. april til 30. september,Park,12.480273,55.669723
"DRIFT, SYD", toilet.196,,,Nej,Egen drift,toilet.196,Valbypark v Rosenhaven,,H+D+handicap,Ja,ca. 9.00 - 22.00,ca. 9.00 - 22.00,ca. 9.00 - 22.00,ca. 9.00 - 22.00,ca. 9.00 - 22.00,ca. 9.00 - 22.00,ca. 9.00 - 22.00,Monday: ca. 9.00 - 22.00 Tuesday: ca. 9.00 - 22.00 Wednesday: ca. 9.00 - 22.00 Thursday: ca. 9.00 - 22.00 Friday: ca. 9.00 - 22.00 Saturday: ca. 9.00 - 22.00 Sunday: ca. 9.00 - 22.00,Åbent fra 1. april til 30. september,Park,12.519723,55.640612
"DRIFT, SYD", toilet.197,,,Nej,Udliciteret,toilet.197,Sundbyvesterparken v. legeplads,2300,H+D+handicap,Ja,ca. 9.00 - 22.00,ca. 9.00 - 22.00,ca. 9.00 - 22.00,ca. 9.00 - 22.00,ca. 9.00 - 22.00,ca. 9.00 - 22.00,ca. 9.00 - 22.00,Monday: ca. 9.00 - 22.00 Tuesday: ca. 9.00 - 22.00 Wednesday: ca. 9.00 - 22.00 Thursday: ca. 9.00 - 22.00 Friday: ca. 9.00 - 22.00 Saturday: ca. 9.00 - 22.00 Sunday: ca. 9.00 - 22.00,Åbent fra 1. april til 30. september,Park,12.602138,55.65065
"DRIFT, SYD", toilet.198,,,Nej,Udliciteret,toilet.198,Lergravsparken,2300,H+D+handicap,Ja,ca. 9.00 - 22.00,ca. 9.00 - 22.00,ca. 9.00 - 22.00,ca. 9.00 - 22.00,ca. 9.00 - 22.00,ca. 9.00 - 22.00,ca. 9.00 - 22.00,Monday: ca. 9.00 - 22.00 Tuesday: ca. 9.00 - 22.00 Wednesday: ca. 9.00 - 22.00 Thursday: ca. 9.00 - 22.00 Friday: ca. 9.00 - 22.00 Saturday: ca. 9.00 - 22.00 Sunday: ca. 9.00 - 22.00,,Park,12.617156,55.661741
"DRIFT, SYD", toilet.199,,,Nej,Egen drift,toilet.199,Valbypark v restaurant,,H+D+handicap,Ja,ca. 9.00 - 22.00,ca. 9.00 - 22.00,ca. 9.00 - 22.00,ca. 9.00 - 22.00,ca. 9.00 - 22.00,ca. 9.00 - 22.00,ca. 9.00 - 22.00,Monday: ca. 9.00 - 22.00 Tuesday: ca. 9.00 - 22.00 Wednesday: ca. 9.00 - 22.00 Thursday: ca. 9.00 - 22.00 Friday: ca. 9.00 - 22.00 Saturday: ca. 9.00 - 22.00 Sunday: ca. 9.00 - 22.00,Åbent fra 1. april til 30. september,Park,12.52025,55.641833
"DRIFT, INDRE", toilet.200,,,Nej,Udliciteret,toilet.200,"Østre Anlæg, Østre Anlæg legeplads",,H+D,Nej,ca. 9.00 - 22.00,ca. 9.00 - 22.00,ca. 9.00 - 22.00,ca. 9.00 - 22.00,ca. 9.00 - 22.00,ca. 9.00 - 22.00,ca. 9.00 - 22.00,Monday: ca. 9.00 - 22.00 Tuesday: ca. 9.00 - 22.00 Wednesday: ca. 9.00 - 22.00 Thursday: ca. 9.00 - 22.00 Friday: ca. 9.00 - 22.00 Saturday: ca. 9.00 - 22.00 Sunday: ca. 9.00 - 22.00,,Park,12.579121,55.690613
"DRIFT, INDRE", toilet.201,,,Nej,Egen drift,toilet.201,Enghaveparken,,H+D+handicap,Ja,ca. 9.00 - 22.00,ca. 9.00 - 22.00,ca. 9.00 - 22.00,ca. 9.00 - 22.00,ca. 9.00 - 22.00,ca. 9.00 - 22.00,ca. 9.00 - 22.00,Monday: ca. 9.00 - 22.00 Tuesday: ca. 9.00 - 22.00 Wednesday: ca. 9.00 - 22.00 Thursday: ca. 9.00 - 22.00 Friday: ca. 9.00 - 22.00 Saturday: ca. 9.00 - 22.00 Sunday: ca. 9.00 - 22.00,Åbent fra 1. april til 30. september,Park,12.541118,55.667806
"DRIFT, INDRE", toilet.203,,,Nej,Egen drift,toilet.203,Folkets park,2200,H+D,Nej,ca. 9.00 - 22.00,ca. 9.00 - 22.00,ca. 9.00 - 22.00,ca. 9.00 - 22.00,ca. 9.00 - 22.00,ca. 9.00 - 22.00,ca. 9.00 - 22.00,Monday: ca. 9.00 - 22.00 Tuesday: ca. 9.00 - 22.00 Wednesday: ca. 9.00 - 22.00 Thursday: ca. 9.00 - 22.00 Friday: ca. 9.00 - 22.00 Saturday: ca. 9.00 - 22.00 Sunday: ca. 9.00 - 22.00,,Park,12.554982,55.68727
"DRIFT, INDRE", toilet.204,,1,Nej,Udliciteret,toilet.204,Edel Sauntes Alle 1 (Bikuben ),,H+D,Nej,ca. 9.00 - 22.00,ca. 9.00 - 22.00,ca. 9.00 - 22.00,ca. 9.00 - 22.00,ca. 9.00 - 22.00,ca. 9.00 - 22.00,ca. 9.00 - 22.00,Monday: ca. 9.00 - 22.00 Tuesday: ca. 9.00 - 22.00 Wednesday: ca. 9.00 - 22.00 Thursday: ca. 9.00 - 22.00 Friday: ca. 9.00 - 22.00 Saturday: ca. 9.00 - 22.00 Sunday: ca. 9.00 - 22.00,Åbent fra 1. april til 30. september,Park,12.562361,55.698973
"DRIFT, NORD", toilet.205,,,Nej,Udliciteret,toilet.205,Hans Tavsens Park,2200,H+D+handicap,Ja,ca. 9.00 - 22.00,ca. 9.00 - 22.00,ca. 9.00 - 22.00,ca. 9.00 - 22.00,ca. 9.00 - 22.00,ca. 9.00 - 22.00,ca. 9.00 - 22.00,Monday: ca. 9.00 - 22.00 Tuesday: ca. 9.00 - 22.00 Wednesday: ca. 9.00 - 22.00 Thursday: ca. 9.00 - 22.00 Friday: ca. 9.00 - 22.00 Saturday: ca. 9.00 - 22.00 Sunday: ca. 9.00 - 22.00,Åbent fra 1. april til 30. september,Park,12.548019,55.688641
"DRIFT, SYD", toilet.206,,,Nej,Egen drift,toilet.206,"Vigerslevparken, v. Lykkebovej",,H+D+handicap+pissoir,Ja,ca. 9.00 - 22.00,ca. 9.00 - 22.00,ca. 9.00 - 22.00,ca. 9.00 - 22.00,ca. 9.00 - 22.00,ca. 9.00 - 22.00,ca. 9.00 - 22.00,Monday: ca. 9.00 - 22.00 Tuesday: ca. 9.00 - 22.00 Wednesday: ca. 9.00 - 22.00 Thursday: ca. 9.00 - 22.00 Friday: ca. 9.00 - 22.00 Saturday: ca. 9.00 - 22.00 Sunday: ca. 9.00 - 22.00,Åbent fra 1. april til 30. september,Park,12.478322,55.658138
"DRIFT, INDRE", toilet.207,,,Nej,Ikke registreret,toilet.207,"Ørstedsparken, Nørre Farimagsgade",,H+D+handicap,Ja,ca. 9.00 - 22.00,ca. 9.00 - 22.00,ca. 9.00 - 22.00,ca. 9.00 - 22.00,ca. 9.00 - 22.00,ca. 9.00 - 22.00,ca. 9.00 - 22.00,Monday: ca. 9.00 - 22.00 Tuesday: ca. 9.00 - 22.00 Wednesday: ca. 9.00 - 22.00 Thursday: ca. 9.00 - 22.00 Friday: ca. 9.00 - 22.00 Saturday: ca. 9.00 - 22.00 Sunday: ca. 9.00 - 22.00,,Park,12.56456,55.680387
"DRIFT, INDRE", toilet.208,,,Nej,Udliciteret,toilet.208,Trafiklegepladsen,,H+D,Nej,9.30 - 17.00,9.30 - 17.00,9.30 - 17.00,9.30 - 17.00,10.00 - 17.00,lukket,lukket,Monday: 9.30 - 17.00 Tuesday: 9.30 - 17.00 Wednesday: 9.30 - 17.00 Thursday: 9.30 - 17.00 Friday: 10.00 - 17.00 Saturday: lukket Sunday: lukket,,Park,12.570897,55.704867
"DRIFT, INDRE", toilet.209,,5,Nej,Udliciteret,toilet.209,P. H. Lings Alle 5,,H+D+handicap,Ja,ca. 9.00 - 22.00,ca. 9.00 - 22.00,ca. 9.00 - 22.00,ca. 9.00 - 22.00,ca. 9.00 - 22.00,ca. 9.00 - 22.00,ca. 9.00 - 22.00,Monday: ca. 9.00 - 22.00 Tuesday: ca. 9.00 - 22.00 Wednesday: ca. 9.00 - 22.00 Thursday: ca. 9.00 - 22.00 Friday: ca. 9.00 - 22.00 Saturday: ca. 9.00 - 22.00 Sunday: ca. 9.00 - 22.00,Åbent fra 1. april til 30. september,Park,12.570661,55.703188